{"type":"FeatureCollection","features":[{"type":"Feature","geometry":{"type":"LineString","coordinates":[[6.503906,49.83798],[6.679688,49.83798],[6.679688,49.72448],[6.503906,49.72448],[6.503906,49.83798]]},"properties":{"id":"1426469","zoom":"11"}},{"type":"Feature","geometry":{"type":"LineString","coordinates":[[6.512205,49.73482],[6.511002,49.73476],[6.50988,49.73469],[6.508508,49.73455],[6.50702,49.73434],[6.505511,49.73409],[6.504725,49.73393],[6.503968,49.73376],[6.503114,49.73357],[6.502491,49.7334],[6.501889,49.73323]]},"properties":{"name":"Sauertalbrücke","bridge":"yes","way_id":"8067718","oneway":"yes","highway":"motorway","maxspeed":"100","edgeid":0,"vertex1":0,"vertex2":13}},{"type":"Feature","geometry":{"type":"LineString","coordinates":[[6.506898,49.75536],[6.50714,49.75541],[6.507451,49.75551]]},"properties":{"way_id":"440367403","highway":"service","edgeid":310,"vertex1":1,"vertex2":272}},{"type":"Feature","geometry":{"type":"LineString","coordinates":[[6.504707,49.78938],[6.504543,49.78939],[6.504463,49.78941],[6.504346,49.78949]]},"properties":{"way_id":"25459369","highway":"service","edgeid":2,"vertex1":2,"vertex2":3}},{"type":"Feature","geometry":{"type":"LineString","coordinates":[[6.504707,49.78938],[6.505283,49.78858]]},"properties":{"name":"Route d'Echternach","way_id":"95807057","maxspeed":"90","highway":"primary","edgeid":121,"vertex1":2,"vertex2":132}},{"type":"Feature","geometry":{"type":"LineString","coordinates":[[6.509346,49.80613],[6.509203,49.80602],[6.509173,49.80594],[6.509403,49.80558],[6.509616,49.8053],[6.509635,49.80527]]},"properties":{"name":"Brückenstraße","way_id":"26232116","highway":"residential","edgeid":3,"vertex1":4,"vertex2":5}},{"type":"Feature","geometry":{"type":"LineString","coordinates":[[6.509346,49.80613],[6.510265,49.80562],[6.51038,49.80556],[6.510448,49.80554],[6.510489,49.80553],[6.510524,49.80554],[6.510542,49.80554]]},"properties":{"name":"Brückenstraße","way_id":"30053019","maxspeed":"50","highway":"secondary","edgeid":40,"vertex1":4,"vertex2":48}},{"type":"Feature","geometry":{"type":"LineString","coordinates":[[6.509635,49.80527],[6.509997,49.80475]]},"properties":{"name":"Brückenstraße","way_id":"26232116","highway":"residential","edgeid":4,"vertex1":5,"vertex2":6}},{"type":"Feature","geometry":{"type":"LineString","coordinates":[[6.509997,49.80475],[6.510274,49.80434]]},"properties":{"name":"Brückenstraße","way_id":"26232116","highway":"residential","edgeid":5,"vertex1":6,"vertex2":7}},{"type":"Feature","geometry":{"type":"LineString","coordinates":[[6.509997,49.80475],[6.510357,49.8049],[6.510512,49.80499]]},"properties":{"way_id":"325930944","highway":"service","edgeid":274,"vertex1":6,"vertex2":247}},{"type":"Feature","geometry":{"type":"LineString","coordinates":[[6.510274,49.80434],[6.510523,49.80402],[6.510987,49.80338],[6.511189,49.80318],[6.511449,49.80304],[6.511661,49.80295],[6.511913,49.80292],[6.512167,49.80293],[6.512446,49.80296],[6.512562,49.80301]]},"properties":{"name":"Brückenstraße","way_id":"26232116","highway":"residential","edgeid":6,"vertex1":7,"vertex2":8}},{"type":"Feature","geometry":{"type":"LineString","coordinates":[[6.510274,49.80434],[6.510443,49.8044],[6.510829,49.8046],[6.510976,49.80468],[6.510821,49.80479],[6.510614,49.80492],[6.510512,49.80499]]},"properties":{"way_id":"325930943","highway":"service","edgeid":272,"vertex1":7,"vertex2":247}},{"type":"Feature","geometry":{"type":"LineString","coordinates":[[6.506279,49.80405],[6.506357,49.80388],[6.506411,49.80363],[6.506399,49.80345],[6.506355,49.80328],[6.506362,49.80321],[6.506401,49.80303]]},"properties":{"name":"Rue Neuve","way_id":"26776953","maxspeed":"50","highway":"residential","edgeid":7,"vertex1":9,"vertex2":10}},{"type":"Feature","geometry":{"type":"LineString","coordinates":[[6.506279,49.80405],[6.506586,49.80397],[6.506736,49.80391],[6.506847,49.80386],[6.5069,49.80383]]},"properties":{"name":"Rue du Barrage","way_id":"37076642","oneway":"yes","maxspeed":"50","highway":"secondary","edgeid":64,"vertex1":9,"vertex2":33}},{"type":"Feature","geometry":{"type":"LineString","coordinates":[[6.506401,49.80303],[6.506447,49.80292],[6.506761,49.80219]]},"properties":{"name":"Rue Neuve","way_id":"26776953","maxspeed":"50","highway":"residential","edgeid":8,"vertex1":10,"vertex2":11}},{"type":"Feature","geometry":{"type":"LineString","coordinates":[[6.506761,49.80219],[6.507061,49.80153]]},"properties":{"name":"Rue Neuve","way_id":"26776953","maxspeed":"50","highway":"residential","edgeid":9,"vertex1":11,"vertex2":12}},{"type":"Feature","geometry":{"type":"LineString","coordinates":[[6.507061,49.80153],[6.507114,49.80141],[6.507122,49.80136]]},"properties":{"name":"Rue Neuve","way_id":"26776953","maxspeed":"50","highway":"residential","edgeid":10,"vertex1":12,"vertex2":13}},{"type":"Feature","geometry":{"type":"LineString","coordinates":[[6.507122,49.80136],[6.506924,49.80124]]},"properties":{"name":"Rue Neuve","way_id":"26776953","maxspeed":"50","highway":"residential","edgeid":11,"vertex1":13,"vertex2":14}},{"type":"Feature","geometry":{"type":"LineString","coordinates":[[6.506924,49.80124],[6.50733,49.80098]]},"properties":{"name":"Route d'Echternach","way_id":"133608763","maxspeed":"90","highway":"primary","edgeid":177,"vertex1":14,"vertex2":135}},{"type":"Feature","geometry":{"type":"LineString","coordinates":[[6.506611,49.8058],[6.506412,49.80576],[6.506242,49.80573],[6.505997,49.80566],[6.505862,49.80562]]},"properties":{"name":"Rue du Pont","way_id":"26806947","oneway":"yes","maxspeed":"50","highway":"secondary","edgeid":12,"vertex1":15,"vertex2":16}},{"type":"Feature","geometry":{"type":"LineString","coordinates":[[6.506611,49.8058],[6.506641,49.80576],[6.506689,49.80573],[6.506749,49.80572]]},"properties":{"way_id":"30053018","maxspeed":"50","junction":"roundabout","highway":"secondary","edgeid":38,"vertex1":15,"vertex2":41}},{"type":"Feature","geometry":{"type":"LineString","coordinates":[[6.505862,49.80562],[6.505328,49.80534]]},"properties":{"name":"Rue du Pont","way_id":"26806947","oneway":"yes","maxspeed":"50","highway":"secondary","edgeid":13,"vertex1":16,"vertex2":17}},{"type":"Feature","geometry":{"type":"LineString","coordinates":[[6.505328,49.80534],[6.504766,49.80507],[6.504582,49.80497]]},"properties":{"name":"Rue du Pont","way_id":"26806947","oneway":"yes","maxspeed":"50","highway":"secondary","edgeid":14,"vertex1":17,"vertex2":18}},{"type":"Feature","geometry":{"type":"LineString","coordinates":[[6.505328,49.80534],[6.505659,49.80515],[6.505748,49.80507],[6.505943,49.8047]]},"properties":{"name":"Rue Basse","way_id":"87337314","oneway":"yes","maxspeed":"50","highway":"residential","edgeid":90,"vertex1":17,"vertex2":104}},{"type":"Feature","geometry":{"type":"LineString","coordinates":[[6.504582,49.80497],[6.504405,49.80494]]},"properties":{"name":"Rue du Pont","way_id":"455041306","oneway":"yes","maxspeed":"50","highway":"secondary","edgeid":315,"vertex1":18,"vertex2":19}},{"type":"Feature","geometry":{"type":"LineString","coordinates":[[6.504582,49.80497],[6.50457,49.8049]]},"properties":{"name":"Rue du Pont","way_id":"455041313","oneway":"yes","maxspeed":"50","highway":"secondary","edgeid":316,"vertex1":18,"vertex2":20}},{"type":"Feature","geometry":{"type":"LineString","coordinates":[[6.504405,49.80494],[6.50457,49.8049]]},"properties":{"name":"Rue du Barrage","way_id":"26806949","oneway":"yes","maxspeed":"50","highway":"secondary","edgeid":15,"vertex1":19,"vertex2":20}},{"type":"Feature","geometry":{"type":"LineString","coordinates":[[6.50457,49.8049],[6.504699,49.80482],[6.505315,49.8045],[6.505544,49.80439]]},"properties":{"name":"Rue du Barrage","way_id":"26806949","oneway":"yes","maxspeed":"50","highway":"secondary","edgeid":16,"vertex1":20,"vertex2":21}},{"type":"Feature","geometry":{"type":"LineString","coordinates":[[6.50457,49.8049],[6.504293,49.80457]]},"properties":{"way_id":"95810288","highway":"service","edgeid":125,"vertex1":20,"vertex2":136}},{"type":"Feature","geometry":{"type":"LineString","coordinates":[[6.505544,49.80439],[6.506279,49.80405]]},"properties":{"name":"Rue du Barrage","way_id":"26806949","oneway":"yes","maxspeed":"50","highway":"secondary","edgeid":17,"vertex1":21,"vertex2":9}},{"type":"Feature","geometry":{"type":"LineString","coordinates":[[6.505544,49.80439],[6.505943,49.8047]]},"properties":{"name":"Rue de la Sûre","way_id":"88732692","oneway":"yes","maxspeed":"50","highway":"residential","edgeid":104,"vertex1":21,"vertex2":104}},{"type":"Feature","geometry":{"type":"LineString","coordinates":[[6.514414,49.78392],[6.513497,49.78398],[6.513423,49.78398],[6.513358,49.78397]]},"properties":{"name":"Rue de Girsterklaus","way_id":"28116143","maxspeed":"50","highway":"secondary","edgeid":18,"vertex1":22,"vertex2":23}},{"type":"Feature","geometry":{"type":"LineString","coordinates":[[6.514414,49.78392],[6.514481,49.78371]]},"properties":{"name":"Route d'Echternach","way_id":"133607873","highway":"primary","maxspeed":"50","edgeid":173,"vertex1":22,"vertex2":60}},{"type":"Feature","geometry":{"type":"LineString","coordinates":[[6.513358,49.78397],[6.513306,49.78394],[6.513281,49.7839],[6.513239,49.78385],[6.512964,49.78338],[6.512804,49.78315],[6.512716,49.7831],[6.512631,49.78307],[6.512527,49.78307],[6.512375,49.78308],[6.511296,49.78331],[6.51122,49.78333]]},"properties":{"name":"Rue de Girsterklaus","way_id":"28116143","maxspeed":"50","highway":"secondary","edgeid":19,"vertex1":23,"vertex2":24}},{"type":"Feature","geometry":{"type":"LineString","coordinates":[[6.513358,49.78397],[6.513039,49.78394],[6.512959,49.78391],[6.512897,49.78384],[6.512837,49.78366]]},"properties":{"way_id":"135248375","highway":"residential","edgeid":192,"vertex1":23,"vertex2":193}},{"type":"Feature","geometry":{"type":"LineString","coordinates":[[6.51122,49.78333],[6.511156,49.78359]]},"properties":{"name":"Rue de Girsterklaus","way_id":"30053486","highway":"secondary","edgeid":48,"vertex1":24,"vertex2":57}},{"type":"Feature","geometry":{"type":"LineString","coordinates":[[6.50516,49.78297],[6.50517,49.78283],[6.505193,49.78275],[6.505432,49.78223],[6.505573,49.7821],[6.50577,49.78196],[6.505786,49.78188],[6.505774,49.78177]]},"properties":{"way_id":"116857189","highway":"track","edgeid":137,"vertex1":25,"vertex2":148}},{"type":"Feature","geometry":{"type":"LineString","coordinates":[[6.50516,49.78297],[6.505677,49.78262]]},"properties":{"way_id":"437462186","maxspeed":"90","highway":"secondary","edgeid":295,"vertex1":25,"vertex2":146}},{"type":"Feature","geometry":{"type":"LineString","coordinates":[[6.520518,49.81368],[6.520622,49.8137],[6.521533,49.81389],[6.522708,49.81394],[6.523998,49.81395],[6.524411,49.81393],[6.525015,49.81388],[6.525319,49.81383],[6.525537,49.81379],[6.525811,49.81374],[6.526264,49.81363],[6.5264,49.8136],[6.526827,49.81346],[6.527382,49.81325],[6.527739,49.81308],[6.527855,49.81303],[6.528233,49.81283],[6.528878,49.81236],[6.52912,49.81214],[6.529533,49.81172],[6.52973,49.81141],[6.529902,49.81113],[6.530015,49.81083],[6.530109,49.81058],[6.530174,49.81027],[6.530279,49.80988],[6.530357,49.80919],[6.530469,49.80866],[6.530672,49.80816],[6.530941,49.80769],[6.531475,49.80687],[6.531636,49.80634],[6.531682,49.80586],[6.531574,49.80528],[6.531448,49.80497],[6.531263,49.80472],[6.530815,49.80423],[6.528978,49.80256],[6.527519,49.80116],[6.526991,49.80066]]},"properties":{"name":"Echternacher Straße","way_id":"29427302","highway":"primary","edgeid":22,"vertex1":26,"vertex2":27}},{"type":"Feature","geometry":{"type":"LineString","coordinates":[[6.526991,49.80066],[6.526957,49.80062],[6.525852,49.79956]]},"properties":{"name":"Echternacher Straße","way_id":"29427302","highway":"primary","edgeid":23,"vertex1":27,"vertex2":28}},{"type":"Feature","geometry":{"type":"LineString","coordinates":[[6.526991,49.80066],[6.527401,49.80079],[6.527646,49.80086],[6.527882,49.80084],[6.528348,49.80079],[6.528666,49.80081],[6.529487,49.80063]]},"properties":{"way_id":"35304695","highway":"service","edgeid":58,"vertex1":27,"vertex2":67}},{"type":"Feature","geometry":{"type":"LineString","coordinates":[[6.525852,49.79956],[6.525383,49.79911],[6.523827,49.79762],[6.523304,49.79716],[6.522641,49.79662],[6.521461,49.79582],[6.520791,49.79543],[6.520164,49.79511],[6.519631,49.79482],[6.518971,49.79451],[6.518172,49.79415],[6.516978,49.79369],[6.515986,49.79333],[6.515141,49.79307],[6.514231,49.7928],[6.513005,49.79251],[6.51235,49.79235],[6.511895,49.79219],[6.511565,49.79204],[6.51126,49.79183],[6.511052,49.79163],[6.51088,49.79141],[6.510808,49.79124]]},"properties":{"name":"Echternacher Straße","way_id":"29427302","highway":"primary","edgeid":24,"vertex1":28,"vertex2":29}},{"type":"Feature","geometry":{"type":"LineString","coordinates":[[6.510808,49.79124],[6.510776,49.79116],[6.510765,49.7911],[6.510744,49.79099],[6.510724,49.79088],[6.510716,49.79062],[6.51069,49.79027],[6.510685,49.78992],[6.510681,49.78972],[6.510674,49.78934],[6.510672,49.7892],[6.510682,49.78899],[6.510739,49.78884],[6.51087,49.78867],[6.511036,49.7885]]},"properties":{"name":"Echternacher Straße","way_id":"29427302","highway":"primary","edgeid":25,"vertex1":29,"vertex2":30}},{"type":"Feature","geometry":{"type":"LineString","coordinates":[[6.511036,49.7885],[6.510951,49.78846],[6.510176,49.78817],[6.509622,49.78792],[6.509426,49.78778]]},"properties":{"name":"Im Sauertal","way_id":"184235645","highway":"residential","edgeid":237,"vertex1":30,"vertex2":73}},{"type":"Feature","geometry":{"type":"LineString","coordinates":[[6.511036,49.7885],[6.51142,49.78815],[6.512254,49.78737],[6.512678,49.78704],[6.512835,49.78693],[6.513131,49.78673],[6.513472,49.78653],[6.513628,49.78644],[6.514652,49.7859]]},"properties":{"name":"Echternacher Straße","way_id":"238173033","highway":"primary","edgeid":247,"vertex1":30,"vertex2":228}},{"type":"Feature","geometry":{"type":"LineString","coordinates":[[6.51385,49.77743],[6.513853,49.77707],[6.513934,49.77666],[6.514072,49.77593],[6.514203,49.77517]]},"properties":{"name":"Echternacher Straße","way_id":"29568514","highway":"primary","edgeid":26,"vertex1":31,"vertex2":32}},{"type":"Feature","geometry":{"type":"LineString","coordinates":[[6.5069,49.80383],[6.507005,49.80381],[6.507095,49.80384]]},"properties":{"way_id":"30052529","oneway":"yes","maxspeed":"50","highway":"tertiary","edgeid":27,"vertex1":33,"vertex2":34}},{"type":"Feature","geometry":{"type":"LineString","coordinates":[[6.5069,49.80383],[6.507016,49.80376],[6.507084,49.80368]]},"properties":{"name":"Rue du Barrage","way_id":"166198618","oneway":"yes","maxspeed":"50","highway":"secondary","edgeid":200,"vertex1":33,"vertex2":38}},{"type":"Feature","geometry":{"type":"LineString","coordinates":[[6.507095,49.80384],[6.507134,49.80388],[6.507151,49.80392],[6.507161,49.80396],[6.507179,49.80446]]},"properties":{"name":"Rue de la Gare","way_id":"166198619","oneway":"yes","maxspeed":"50","highway":"tertiary","edgeid":201,"vertex1":34,"vertex2":198}},{"type":"Feature","geometry":{"type":"LineString","coordinates":[[6.508169,49.79629],[6.50833,49.79638],[6.508463,49.79643]]},"properties":{"way_id":"30052531","oneway":"yes","highway":"secondary","edgeid":28,"vertex1":35,"vertex2":36}},{"type":"Feature","geometry":{"type":"LineString","coordinates":[[6.508169,49.79629],[6.508077,49.79569],[6.507955,49.7951],[6.507827,49.79464],[6.507755,49.79443],[6.50766,49.79422],[6.507463,49.79382],[6.507171,49.79339],[6.507084,49.79329]]},"properties":{"name":"Route d'Echternach","way_id":"95807057","maxspeed":"90","highway":"primary","edgeid":118,"vertex1":35,"vertex2":130}},{"type":"Feature","geometry":{"type":"LineString","coordinates":[[6.508463,49.79643],[6.508345,49.79649],[6.508214,49.79658]]},"properties":{"way_id":"30052532","oneway":"yes","highway":"secondary","edgeid":29,"vertex1":36,"vertex2":37}},{"type":"Feature","geometry":{"type":"LineString","coordinates":[[6.508214,49.79658],[6.508169,49.79629]]},"properties":{"name":"Route d'Echternach","way_id":"95807057","maxspeed":"90","highway":"primary","edgeid":117,"vertex1":37,"vertex2":35}},{"type":"Feature","geometry":{"type":"LineString","coordinates":[[6.507084,49.80368],[6.507286,49.80346],[6.507393,49.80334],[6.507512,49.80326],[6.507697,49.80316]]},"properties":{"way_id":"30052533","maxspeed":"50","highway":"secondary","edgeid":30,"vertex1":38,"vertex2":39}},{"type":"Feature","geometry":{"type":"LineString","coordinates":[[6.507084,49.80368],[6.507082,49.80376],[6.507095,49.80384]]},"properties":{"way_id":"30053021","oneway":"yes","maxspeed":"50","highway":"tertiary","edgeid":41,"vertex1":38,"vertex2":34}},{"type":"Feature","geometry":{"type":"LineString","coordinates":[[6.507697,49.80316],[6.507767,49.80312],[6.508304,49.80288],[6.508518,49.80276]]},"properties":{"way_id":"30052533","maxspeed":"50","highway":"secondary","edgeid":31,"vertex1":39,"vertex2":40}},{"type":"Feature","geometry":{"type":"LineString","coordinates":[[6.507697,49.80316],[6.50754,49.80381],[6.507461,49.80398]]},"properties":{"way_id":"135862124","highway":"residential","edgeid":197,"vertex1":39,"vertex2":197}},{"type":"Feature","geometry":{"type":"LineString","coordinates":[[6.508518,49.80276],[6.508732,49.8026],[6.508896,49.80246]]},"properties":{"way_id":"35071653","highway":"secondary","edgeid":55,"vertex1":40,"vertex2":65}},{"type":"Feature","geometry":{"type":"LineString","coordinates":[[6.506749,49.80572],[6.506769,49.80572],[6.506814,49.80571],[6.506876,49.80573],[6.506927,49.80575]]},"properties":{"way_id":"30053018","maxspeed":"50","junction":"roundabout","highway":"secondary","edgeid":32,"vertex1":41,"vertex2":42}},{"type":"Feature","geometry":{"type":"LineString","coordinates":[[6.506927,49.80575],[6.506963,49.80579],[6.506978,49.80583],[6.506969,49.80587]]},"properties":{"way_id":"30053018","maxspeed":"50","junction":"roundabout","highway":"secondary","edgeid":33,"vertex1":42,"vertex2":43}},{"type":"Feature","geometry":{"type":"LineString","coordinates":[[6.506969,49.80587],[6.50694,49.80591],[6.506919,49.80592]]},"properties":{"way_id":"30053018","maxspeed":"50","junction":"roundabout","highway":"secondary","edgeid":34,"vertex1":43,"vertex2":44}},{"type":"Feature","geometry":{"type":"LineString","coordinates":[[6.506969,49.80587],[6.507185,49.80598]]},"properties":{"way_id":"486349934","maxspeed":"50","highway":"secondary","edgeid":317,"vertex1":43,"vertex2":50}},{"type":"Feature","geometry":{"type":"LineString","coordinates":[[6.506919,49.80592],[6.506892,49.80593],[6.506832,49.80595],[6.506767,49.80595],[6.506719,49.80595]]},"properties":{"way_id":"30053018","maxspeed":"50","junction":"roundabout","highway":"secondary","edgeid":35,"vertex1":44,"vertex2":45}},{"type":"Feature","geometry":{"type":"LineString","coordinates":[[6.506719,49.80595],[6.506705,49.80594],[6.506653,49.80592],[6.506637,49.8059]]},"properties":{"way_id":"30053018","maxspeed":"50","junction":"roundabout","highway":"secondary","edgeid":36,"vertex1":45,"vertex2":46}},{"type":"Feature","geometry":{"type":"LineString","coordinates":[[6.506719,49.80595],[6.506681,49.80597],[6.506553,49.80606],[6.506392,49.80616]]},"properties":{"way_id":"486349950","oneway":"yes","highway":"service","edgeid":331,"vertex1":45,"vertex2":276}},{"type":"Feature","geometry":{"type":"LineString","coordinates":[[6.506637,49.8059],[6.506618,49.80588],[6.506603,49.80584],[6.506611,49.8058]]},"properties":{"way_id":"30053018","maxspeed":"50","junction":"roundabout","highway":"secondary","edgeid":37,"vertex1":46,"vertex2":15}},{"type":"Feature","geometry":{"type":"LineString","coordinates":[[6.50874,49.8064],[6.508823,49.80642],[6.508902,49.80642],[6.508922,49.80641],[6.509056,49.80632],[6.509154,49.80624],[6.509346,49.80613]]},"properties":{"name":"Brückenstraße","way_id":"30053019","maxspeed":"50","highway":"secondary","edgeid":39,"vertex1":47,"vertex2":4}},{"type":"Feature","geometry":{"type":"LineString","coordinates":[[6.50874,49.8064],[6.508667,49.80639],[6.507469,49.80606]]},"properties":{"bridge":"yes","way_id":"33827495","maxspeed":"50","highway":"secondary","edgeid":54,"vertex1":47,"vertex2":49}},{"type":"Feature","geometry":{"type":"LineString","coordinates":[[6.507469,49.80606],[6.507315,49.80602],[6.507185,49.80598]]},"properties":{"way_id":"30053022","maxspeed":"50","highway":"secondary","edgeid":42,"vertex1":49,"vertex2":50}},{"type":"Feature","geometry":{"type":"LineString","coordinates":[[6.507185,49.80598],[6.50701,49.80593],[6.506919,49.80592]]},"properties":{"way_id":"486349935","maxspeed":"50","highway":"secondary","edgeid":318,"vertex1":50,"vertex2":44}},{"type":"Feature","geometry":{"type":"LineString","coordinates":[[6.51015,49.8015],[6.510535,49.80133]]},"properties":{"way_id":"30053027","highway":"secondary","edgeid":43,"vertex1":51,"vertex2":52}},{"type":"Feature","geometry":{"type":"LineString","coordinates":[[6.510535,49.80133],[6.510996,49.80119],[6.511276,49.8011],[6.511368,49.80105],[6.511437,49.80098],[6.511468,49.80093],[6.511473,49.80085],[6.51144,49.80077],[6.511338,49.80067],[6.511194,49.80061]]},"properties":{"way_id":"30053027","highway":"secondary","edgeid":44,"vertex1":52,"vertex2":53}},{"type":"Feature","geometry":{"type":"LineString","coordinates":[[6.511194,49.80061],[6.511491,49.80071],[6.511663,49.80084],[6.511759,49.80099],[6.511963,49.80114],[6.512127,49.80122]]},"properties":{"way_id":"166198620","highway":"unclassified","edgeid":202,"vertex1":53,"vertex2":200}},{"type":"Feature","geometry":{"type":"LineString","coordinates":[[6.511194,49.80061],[6.511028,49.80056],[6.510629,49.80047],[6.510474,49.80043],[6.510293,49.80037],[6.510108,49.80029],[6.509891,49.80017],[6.509758,49.80008],[6.509627,49.79998],[6.50942,49.79974],[6.509334,49.79959],[6.509269,49.79939],[6.509217,49.79906],[6.509214,49.7986]]},"properties":{"way_id":"169277031","highway":"secondary","edgeid":203,"vertex1":53,"vertex2":89}},{"type":"Feature","geometry":{"type":"LineString","coordinates":[[6.509758,49.80172],[6.509964,49.80159],[6.51015,49.8015]]},"properties":{"bridge":"yes","way_id":"30053084","highway":"secondary","edgeid":45,"vertex1":54,"vertex2":51}},{"type":"Feature","geometry":{"type":"LineString","coordinates":[[6.508707,49.79642],[6.508463,49.79643]]},"properties":{"way_id":"30053135","highway":"secondary","edgeid":46,"vertex1":55,"vertex2":36}},{"type":"Feature","geometry":{"type":"LineString","coordinates":[[6.509151,49.79643],[6.508707,49.79642]]},"properties":{"bridge":"yes","way_id":"30053136","highway":"secondary","edgeid":47,"vertex1":56,"vertex2":55}},{"type":"Feature","geometry":{"type":"LineString","coordinates":[[6.511156,49.78359],[6.511096,49.78383],[6.511066,49.78387],[6.511019,49.78392]]},"properties":{"name":"Rue de Girsterklaus","way_id":"135248374","maxspeed":"90","highway":"secondary","edgeid":191,"vertex1":57,"vertex2":61}},{"type":"Feature","geometry":{"type":"LineString","coordinates":[[6.515548,49.78326],[6.515296,49.78337]]},"properties":{"name":"Enneschtdueref","way_id":"30053625","maxspeed":"50","highway":"residential","edgeid":49,"vertex1":58,"vertex2":59}},{"type":"Feature","geometry":{"type":"LineString","coordinates":[[6.515296,49.78337],[6.514703,49.78366],[6.514581,49.7837],[6.514481,49.78371]]},"properties":{"name":"Enneschtdueref","way_id":"30053625","maxspeed":"50","highway":"residential","edgeid":50,"vertex1":59,"vertex2":60}},{"type":"Feature","geometry":{"type":"LineString","coordinates":[[6.514481,49.78371],[6.514679,49.78297],[6.514737,49.78267],[6.514749,49.7825]]},"properties":{"name":"Route d'Echternach","way_id":"133607873","highway":"primary","maxspeed":"50","edgeid":174,"vertex1":60,"vertex2":178}},{"type":"Feature","geometry":{"type":"LineString","coordinates":[[6.511019,49.78392],[6.510881,49.78418],[6.510638,49.78452],[6.510427,49.78478],[6.510312,49.78487],[6.509748,49.78515],[6.508999,49.7855],[6.508216,49.78585]]},"properties":{"name":"Schulerwé","way_id":"30978809","highway":"residential","edgeid":51,"vertex1":61,"vertex2":62}},{"type":"Feature","geometry":{"type":"LineString","coordinates":[[6.508216,49.78585],[6.507688,49.78614],[6.507247,49.7864],[6.507143,49.78649],[6.507091,49.78661]]},"properties":{"name":"Schulerwé","way_id":"30978833","highway":"residential","edgeid":52,"vertex1":62,"vertex2":63}},{"type":"Feature","geometry":{"type":"LineString","coordinates":[[6.507091,49.78661],[6.507109,49.78668],[6.507069,49.78673],[6.506801,49.78694],[6.506669,49.78714]]},"properties":{"way_id":"114152961","highway":"residential","edgeid":136,"vertex1":63,"vertex2":133}},{"type":"Feature","geometry":{"type":"LineString","coordinates":[[6.511195,49.80704],[6.511054,49.80693],[6.510804,49.80674],[6.510459,49.80659],[6.510072,49.80652],[6.509687,49.8065],[6.509495,49.80652],[6.50921,49.80661],[6.508971,49.80671],[6.508749,49.80686],[6.508595,49.80701],[6.508427,49.80726],[6.508048,49.80826],[6.507893,49.80854],[6.50771,49.80882],[6.507339,49.8092],[6.507118,49.80939],[6.506904,49.80954],[6.506682,49.80968],[6.506453,49.80981],[6.506045,49.81001],[6.505694,49.81017],[6.504802,49.8105],[6.504577,49.81059],[6.503802,49.81087],[6.502874,49.81122],[6.502835,49.81123],[6.502338,49.81143],[6.501087,49.8119],[6.499678,49.81236],[6.499066,49.81255],[6.498765,49.81262],[6.498447,49.81267],[6.498136,49.81273],[6.497877,49.81277],[6.497506,49.81282],[6.497266,49.81283]]},"properties":{"way_id":"31661430","highway":"primary","edgeid":53,"vertex1":64,"vertex2":690}},{"type":"Feature","geometry":{"type":"LineString","coordinates":[[6.508896,49.80246],[6.509268,49.8021]]},"properties":{"way_id":"35071653","highway":"secondary","edgeid":56,"vertex1":65,"vertex2":66}},{"type":"Feature","geometry":{"type":"LineString","coordinates":[[6.508896,49.80246],[6.509011,49.80254],[6.509106,49.80264],[6.509105,49.80276]]},"properties":{"way_id":"169277039","highway":"service","edgeid":213,"vertex1":65,"vertex2":202}},{"type":"Feature","geometry":{"type":"LineString","coordinates":[[6.509268,49.8021],[6.509494,49.80191],[6.509758,49.80172]]},"properties":{"way_id":"35071657","highway":"secondary","edgeid":57,"vertex1":66,"vertex2":54}},{"type":"Feature","geometry":{"type":"LineString","coordinates":[[6.504127,49.75337],[6.504399,49.75365],[6.504592,49.75383],[6.504865,49.75408],[6.505052,49.75422],[6.505137,49.75428],[6.505335,49.75443],[6.505655,49.75466],[6.505936,49.75483],[6.506332,49.75504],[6.507043,49.75531],[6.507524,49.75548]]},"properties":{"way_id":"75513680","highway":"primary","edgeid":86,"vertex1":68,"vertex2":99}},{"type":"Feature","geometry":{"type":"LineString","coordinates":[[6.504127,49.75337],[6.50395,49.75317],[6.503917,49.75313],[6.503782,49.75298]]},"properties":{"way_id":"238173025","highway":"primary","edgeid":245,"vertex1":68,"vertex2":2575}},{"type":"Feature","geometry":{"type":"LineString","coordinates":[[6.532703,49.79977],[6.532643,49.7998],[6.531845,49.80005],[6.530865,49.80026],[6.529874,49.80052],[6.529487,49.80063]]},"properties":{"way_id":"36975364","highway":"service","edgeid":63,"vertex1":72,"vertex2":67}},{"type":"Feature","geometry":{"type":"LineString","coordinates":[[6.509426,49.78778],[6.50892,49.78788],[6.508558,49.78794],[6.508464,49.7879],[6.508399,49.78788],[6.50808,49.78769]]},"properties":{"name":"Ringstraße","way_id":"38357982","highway":"residential","edgeid":65,"vertex1":73,"vertex2":74}},{"type":"Feature","geometry":{"type":"LineString","coordinates":[[6.509426,49.78778],[6.508893,49.78728]]},"properties":{"name":"Im Sauertal","way_id":"184235645","highway":"residential","edgeid":238,"vertex1":73,"vertex2":221}},{"type":"Feature","geometry":{"type":"LineString","coordinates":[[6.50808,49.78769],[6.507973,49.78776],[6.507864,49.78783],[6.507519,49.78839],[6.507454,49.78866],[6.507441,49.78873],[6.507449,49.78885],[6.507486,49.78899],[6.507616,49.78931],[6.507676,49.78944],[6.507873,49.7899],[6.507941,49.79002],[6.508179,49.79031]]},"properties":{"way_id":"440367404","highway":"service","edgeid":313,"vertex1":74,"vertex2":138}},{"type":"Feature","geometry":{"type":"LineString","coordinates":[[6.507106,49.76019],[6.506925,49.75998],[6.506821,49.75986],[6.506795,49.75978],[6.506822,49.75972],[6.506894,49.75969],[6.506997,49.75967],[6.508523,49.75967],[6.509059,49.75964],[6.509404,49.75961],[6.509671,49.75957]]},"properties":{"name":"Neie Wee","way_id":"59204655","highway":"tertiary","edgeid":66,"vertex1":75,"vertex2":76}},{"type":"Feature","geometry":{"type":"LineString","coordinates":[[6.507106,49.76019],[6.507265,49.76042],[6.507711,49.76118],[6.507839,49.76146],[6.507954,49.76152],[6.508235,49.76163],[6.508325,49.76167],[6.508392,49.76171],[6.508434,49.76176]]},"properties":{"way_id":"88732691","highway":"tertiary","edgeid":103,"vertex1":75,"vertex2":119}},{"type":"Feature","geometry":{"type":"LineString","coordinates":[[6.509671,49.75957],[6.510217,49.75941]]},"properties":{"name":"Neie Wee","way_id":"175291806","maxspeed":"30","highway":"tertiary","edgeid":223,"vertex1":76,"vertex2":118}},{"type":"Feature","geometry":{"type":"LineString","coordinates":[[6.52166,49.81253],[6.521758,49.81242]]},"properties":{"way_id":"59204657","highway":"unclassified","edgeid":67,"vertex1":77,"vertex2":78}},{"type":"Feature","geometry":{"type":"LineString","coordinates":[[6.521758,49.81242],[6.522038,49.81199],[6.522858,49.81074],[6.52178,49.8105],[6.521047,49.81031],[6.520875,49.81025],[6.520712,49.81016],[6.520513,49.80995],[6.519723,49.80894],[6.519623,49.80889]]},"properties":{"way_id":"59204657","highway":"unclassified","edgeid":68,"vertex1":78,"vertex2":79}},{"type":"Feature","geometry":{"type":"LineString","coordinates":[[6.521758,49.81242],[6.521287,49.81233],[6.520643,49.8121],[6.52,49.81183],[6.519378,49.81107],[6.518842,49.81035]]},"properties":{"way_id":"134195836","highway":"track","edgeid":184,"vertex1":78,"vertex2":185}},{"type":"Feature","geometry":{"type":"LineString","coordinates":[[6.519623,49.80889],[6.519302,49.80879],[6.519228,49.80875],[6.519163,49.80868],[6.519174,49.80824]]},"properties":{"way_id":"59204657","highway":"unclassified","edgeid":69,"vertex1":79,"vertex2":80}},{"type":"Feature","geometry":{"type":"LineString","coordinates":[[6.519623,49.80889],[6.522054,49.80966],[6.522784,49.80991],[6.523304,49.80995],[6.523835,49.80989],[6.524334,49.8097]]},"properties":{"way_id":"134195840","highway":"track","edgeid":187,"vertex1":79,"vertex2":189}},{"type":"Feature","geometry":{"type":"LineString","coordinates":[[6.519174,49.80824],[6.519093,49.80816],[6.518627,49.80732],[6.518322,49.80683],[6.517815,49.80613],[6.517453,49.80582],[6.517247,49.80561],[6.516456,49.80447],[6.516032,49.80402],[6.515423,49.80338],[6.51421,49.80235],[6.513588,49.80186],[6.513147,49.8016],[6.512697,49.8014],[6.512277,49.80129]]},"properties":{"way_id":"59204657","highway":"unclassified","edgeid":70,"vertex1":80,"vertex2":81}},{"type":"Feature","geometry":{"type":"LineString","coordinates":[[6.519174,49.80824],[6.519313,49.80804],[6.519453,49.80805],[6.522494,49.80882],[6.522613,49.80884],[6.522695,49.80882],[6.5235,49.80788],[6.523775,49.80762],[6.523897,49.80732]]},"properties":{"way_id":"97590191","highway":"unclassified","edgeid":127,"vertex1":80,"vertex2":139}},{"type":"Feature","geometry":{"type":"LineString","coordinates":[[6.512277,49.80129],[6.511813,49.80123],[6.511547,49.80122],[6.511137,49.80124],[6.510535,49.80133]]},"properties":{"way_id":"59204657","highway":"unclassified","edgeid":71,"vertex1":81,"vertex2":52}},{"type":"Feature","geometry":{"type":"LineString","coordinates":[[6.510373,49.77145],[6.510218,49.77138],[6.510063,49.7713],[6.509871,49.77123],[6.509542,49.77115],[6.508953,49.77106],[6.50848,49.77097],[6.50782,49.77081]]},"properties":{"name":"Burer Millen","way_id":"60734598","highway":"residential","edgeid":74,"vertex1":82,"vertex2":84}},{"type":"Feature","geometry":{"type":"LineString","coordinates":[[6.510636,49.77153],[6.510431,49.77147],[6.510373,49.77145]]},"properties":{"name":"Burer Millen","way_id":"60734598","highway":"residential","edgeid":73,"vertex1":83,"vertex2":82}},{"type":"Feature","geometry":{"type":"LineString","coordinates":[[6.510636,49.77153],[6.511234,49.77103],[6.511876,49.7705],[6.512135,49.77025]]},"properties":{"name":"Route d'Echternach","way_id":"133607628","maxspeed":"90","highway":"primary","edgeid":170,"vertex1":83,"vertex2":154}},{"type":"Feature","geometry":{"type":"LineString","coordinates":[[6.511556,49.79853],[6.512282,49.7985]]},"properties":{"way_id":"61299834","highway":"unclassified","edgeid":75,"vertex1":85,"vertex2":86}},{"type":"Feature","geometry":{"type":"LineString","coordinates":[[6.511556,49.79853],[6.511611,49.79865],[6.511532,49.79876],[6.511378,49.79885],[6.51088,49.7991],[6.510714,49.79921]]},"properties":{"way_id":"61299838","highway":"service","edgeid":79,"vertex1":85,"vertex2":90}},{"type":"Feature","geometry":{"type":"LineString","coordinates":[[6.512282,49.7985],[6.512424,49.79854],[6.512683,49.79855],[6.512819,49.79858],[6.512898,49.79868],[6.51294,49.79876],[6.512994,49.7988],[6.513091,49.79881],[6.513393,49.79869],[6.513566,49.79869],[6.513773,49.79872],[6.514951,49.799],[6.515197,49.79909],[6.515732,49.7993],[6.515888,49.79939],[6.515942,49.79942],[6.516334,49.79968],[6.516693,49.79996],[6.517042,49.80036],[6.51747,49.80077],[6.517577,49.80085]]},"properties":{"way_id":"296886664","highway":"track","edgeid":254,"vertex1":86,"vertex2":209}},{"type":"Feature","geometry":{"type":"LineString","coordinates":[[6.509264,49.79814],[6.509418,49.79828],[6.509537,49.79834],[6.509665,49.79838]]},"properties":{"way_id":"61299836","highway":"service","edgeid":76,"vertex1":87,"vertex2":88}},{"type":"Feature","geometry":{"type":"LineString","coordinates":[[6.509264,49.79814],[6.509336,49.79765]]},"properties":{"way_id":"169277032","highway":"secondary","edgeid":205,"vertex1":87,"vertex2":164}},{"type":"Feature","geometry":{"type":"LineString","coordinates":[[6.509665,49.79838],[6.511239,49.79844],[6.511428,49.79847],[6.511556,49.79853]]},"properties":{"way_id":"61299838","highway":"service","edgeid":78,"vertex1":88,"vertex2":85}},{"type":"Feature","geometry":{"type":"LineString","coordinates":[[6.509214,49.7986],[6.509289,49.79852],[6.509386,49.79845],[6.509506,49.79842],[6.509665,49.79838]]},"properties":{"way_id":"61299838","highway":"service","edgeid":77,"vertex1":89,"vertex2":88}},{"type":"Feature","geometry":{"type":"LineString","coordinates":[[6.509214,49.7986],[6.509264,49.79814]]},"properties":{"way_id":"169277032","highway":"secondary","edgeid":204,"vertex1":89,"vertex2":87}},{"type":"Feature","geometry":{"type":"LineString","coordinates":[[6.510714,49.79921],[6.510639,49.79926]]},"properties":{"way_id":"169277036","highway":"service","edgeid":210,"vertex1":90,"vertex2":206}},{"type":"Feature","geometry":{"type":"LineString","coordinates":[[6.516418,49.76282],[6.516469,49.76275],[6.516515,49.76267],[6.516512,49.7626],[6.516468,49.76252],[6.515574,49.76202],[6.515421,49.76187],[6.515273,49.7617],[6.515234,49.76156],[6.515284,49.76137]]},"properties":{"name":"Schlassstrooss","way_id":"66338285","highway":"residential","maxspeed":"30","edgeid":80,"vertex1":91,"vertex2":92}},{"type":"Feature","geometry":{"type":"LineString","coordinates":[[6.516418,49.76282],[6.516269,49.76264],[6.516099,49.76246],[6.515973,49.76237],[6.515805,49.76226],[6.51558,49.76215]]},"properties":{"name":"Haaptstrooss","way_id":"89683933","maxspeed":"90","highway":"primary","edgeid":111,"vertex1":91,"vertex2":125}},{"type":"Feature","geometry":{"type":"LineString","coordinates":[[6.515284,49.76137],[6.515401,49.76133],[6.515798,49.76124],[6.51618,49.76109]]},"properties":{"way_id":"88732697","highway":"residential","maxspeed":"30","edgeid":109,"vertex1":92,"vertex2":123}},{"type":"Feature","geometry":{"type":"LineString","coordinates":[[6.515284,49.76137],[6.515139,49.76116],[6.514748,49.76072],[6.514366,49.76036],[6.514072,49.76016],[6.513875,49.76006],[6.513734,49.75999],[6.513392,49.75974]]},"properties":{"name":"Duerfstrooss","way_id":"98985946","highway":"residential","maxspeed":"30","edgeid":131,"vertex1":92,"vertex2":115}},{"type":"Feature","geometry":{"type":"LineString","coordinates":[[6.514502,49.80617],[6.514642,49.80609],[6.514891,49.80595],[6.515025,49.80589],[6.515315,49.80572]]},"properties":{"name":"Sauerstraße","way_id":"68194864","highway":"residential","edgeid":81,"vertex1":93,"vertex2":94}},{"type":"Feature","geometry":{"type":"LineString","coordinates":[[6.515315,49.80572],[6.515382,49.80567]]},"properties":{"name":"Sauerstraße","way_id":"68194864","highway":"residential","edgeid":82,"vertex1":94,"vertex2":95}},{"type":"Feature","geometry":{"type":"LineString","coordinates":[[6.515382,49.80567],[6.515307,49.80558]]},"properties":{"name":"Petrusstraße","way_id":"68194866","highway":"residential","maxspeed":"10","edgeid":83,"vertex1":95,"vertex2":96}},{"type":"Feature","geometry":{"type":"LineString","coordinates":[[6.515382,49.80567],[6.515554,49.8056],[6.515854,49.80551]]},"properties":{"way_id":"438775990","highway":"service","edgeid":301,"vertex1":95,"vertex2":265}},{"type":"Feature","geometry":{"type":"LineString","coordinates":[[6.515307,49.80558],[6.515254,49.80556],[6.515149,49.80554],[6.515044,49.80545],[6.514873,49.80537],[6.51476,49.80526],[6.514535,49.805]]},"properties":{"name":"Petrusstraße","way_id":"68194866","highway":"residential","maxspeed":"10","edgeid":84,"vertex1":96,"vertex2":97}},{"type":"Feature","geometry":{"type":"LineString","coordinates":[[6.514535,49.805],[6.514478,49.805],[6.51428,49.80502],[6.513876,49.80508],[6.513775,49.80511],[6.513546,49.80523],[6.513431,49.8054]]},"properties":{"name":"Petrusstraße","way_id":"68194866","highway":"residential","maxspeed":"10","edgeid":85,"vertex1":97,"vertex2":98}},{"type":"Feature","geometry":{"type":"LineString","coordinates":[[6.514535,49.805],[6.514711,49.80494],[6.515039,49.80525],[6.515213,49.80541],[6.51528,49.80548],[6.515307,49.80558]]},"properties":{"name":"Martinstraße","way_id":"438775991","highway":"residential","edgeid":302,"vertex1":97,"vertex2":96}},{"type":"Feature","geometry":{"type":"LineString","coordinates":[[6.507524,49.75548],[6.508039,49.75571],[6.508288,49.75581],[6.508891,49.756],[6.510427,49.75639],[6.511541,49.75665],[6.512042,49.75677],[6.512432,49.75689],[6.512995,49.75708],[6.513544,49.75729],[6.514121,49.75755],[6.514704,49.7578],[6.51525,49.75803],[6.515734,49.75825],[6.516157,49.75847],[6.516485,49.75867],[6.517329,49.7592],[6.517581,49.75937],[6.518027,49.75966],[6.518188,49.75978],[6.518341,49.75992],[6.518559,49.76014],[6.519019,49.76064],[6.519588,49.76121],[6.519731,49.76136],[6.51986,49.76154],[6.520037,49.76192],[6.52058,49.76319],[6.521049,49.76419],[6.521126,49.76441],[6.521207,49.76471],[6.521289,49.76506],[6.521307,49.76538],[6.521338,49.76595],[6.521357,49.76655],[6.521276,49.76693],[6.52114,49.76733],[6.520972,49.76769],[6.520809,49.76797],[6.52065,49.76821],[6.520383,49.76855],[6.520134,49.76885],[6.519767,49.76926],[6.519432,49.76962],[6.519097,49.76986],[6.518703,49.77013],[6.517771,49.77071],[6.517021,49.77134],[6.516232,49.77199],[6.515625,49.7725],[6.51519,49.77283],[6.514968,49.77305],[6.514778,49.77327],[6.514497,49.77377]]},"properties":{"way_id":"75513680","highway":"primary","edgeid":87,"vertex1":99,"vertex2":100}},{"type":"Feature","geometry":{"type":"LineString","coordinates":[[6.508649,49.79904],[6.508762,49.79902],[6.508833,49.79902],[6.508894,49.79904],[6.508938,49.79926],[6.508911,49.79931],[6.508824,49.79935],[6.508721,49.79937]]},"properties":{"way_id":"80400830","highway":"service","edgeid":88,"vertex1":101,"vertex2":102}},{"type":"Feature","geometry":{"type":"LineString","coordinates":[[6.508649,49.79904],[6.508301,49.79715],[6.508214,49.79658]]},"properties":{"name":"Route d'Echternach","way_id":"95807057","maxspeed":"90","highway":"primary","edgeid":116,"vertex1":101,"vertex2":37}},{"type":"Feature","geometry":{"type":"LineString","coordinates":[[6.508721,49.79937],[6.508649,49.79904]]},"properties":{"name":"Route d'Echternach","way_id":"95807057","maxspeed":"90","highway":"primary","edgeid":115,"vertex1":102,"vertex2":101}},{"type":"Feature","geometry":{"type":"LineString","coordinates":[[6.518476,49.75139],[6.517641,49.75098],[6.517091,49.75076],[6.516665,49.7507],[6.515501,49.75059],[6.514799,49.75073],[6.514093,49.75086],[6.513516,49.75103],[6.513222,49.75122],[6.513234,49.75146],[6.513493,49.75173],[6.513994,49.75219],[6.514025,49.75242],[6.514015,49.75267],[6.513826,49.75288],[6.51354,49.75302],[6.513254,49.75309],[6.512376,49.75322],[6.511125,49.75338],[6.510499,49.75347],[6.510139,49.75355],[6.509604,49.75377],[6.509438,49.75383],[6.509307,49.75385],[6.509133,49.75382],[6.508874,49.75368],[6.508209,49.75324],[6.507682,49.75279],[6.507545,49.7522],[6.50736,49.75199],[6.507117,49.75186],[6.506566,49.75164],[6.505064,49.75102],[6.504553,49.75069],[6.504069,49.75027],[6.503576,49.74976],[6.503345,49.74945]]},"properties":{"way_id":"83916389","highway":"tertiary","edgeid":89,"vertex1":103,"vertex2":851}},{"type":"Feature","geometry":{"type":"LineString","coordinates":[[6.505943,49.8047],[6.506477,49.805],[6.506561,49.80509],[6.5066,49.80522],[6.506596,49.80536],[6.506531,49.80544],[6.506336,49.80561],[6.506244,49.80563],[6.505963,49.80561],[6.505862,49.80562]]},"properties":{"name":"Rue de la Sûre","way_id":"88732692","oneway":"yes","maxspeed":"50","highway":"residential","edgeid":105,"vertex1":104,"vertex2":16}},{"type":"Feature","geometry":{"type":"LineString","coordinates":[[6.508797,49.7907],[6.508938,49.79068],[6.509507,49.79085],[6.510808,49.79124]]},"properties":{"way_id":"88269042","highway":"service","edgeid":91,"vertex1":105,"vertex2":29}},{"type":"Feature","geometry":{"type":"LineString","coordinates":[[6.509778,49.78355],[6.509895,49.78348],[6.51062,49.78336],[6.51122,49.78333]]},"properties":{"way_id":"88732685","highway":"track","edgeid":92,"vertex1":106,"vertex2":24}},{"type":"Feature","geometry":{"type":"LineString","coordinates":[[6.509778,49.78355],[6.509903,49.78358],[6.510792,49.78391],[6.510861,49.78392],[6.510943,49.78393],[6.511019,49.78392]]},"properties":{"way_id":"135248373","maxspeed":"90","highway":"secondary","edgeid":190,"vertex1":106,"vertex2":61}},{"type":"Feature","geometry":{"type":"LineString","coordinates":[[6.505269,49.75602],[6.504754,49.75663]]},"properties":{"way_id":"88732686","highway":"residential","maxspeed":"30","edgeid":93,"vertex1":107,"vertex2":108}},{"type":"Feature","geometry":{"type":"LineString","coordinates":[[6.505269,49.75602],[6.504878,49.75584],[6.504547,49.7557],[6.503508,49.75525]]},"properties":{"name":"Haaptstrooss","way_id":"133411846","maxspeed":"70","highway":"primary","edgeid":163,"vertex1":107,"vertex2":1512}},{"type":"Feature","geometry":{"type":"LineString","coordinates":[[6.504754,49.75663],[6.50691,49.75769]]},"properties":{"way_id":"88732686","highway":"residential","maxspeed":"30","edgeid":94,"vertex1":108,"vertex2":109}},{"type":"Feature","geometry":{"type":"LineString","coordinates":[[6.504754,49.75663],[6.504537,49.75687]]},"properties":{"way_id":"278514436","highway":"residential","edgeid":252,"vertex1":108,"vertex2":233}},{"type":"Feature","geometry":{"type":"LineString","coordinates":[[6.50691,49.75769],[6.507366,49.7579],[6.508251,49.75822]]},"properties":{"way_id":"88732686","highway":"residential","maxspeed":"30","edgeid":95,"vertex1":109,"vertex2":110}},{"type":"Feature","geometry":{"type":"LineString","coordinates":[[6.508251,49.75822],[6.508531,49.75833]]},"properties":{"way_id":"88732686","highway":"residential","maxspeed":"30","edgeid":96,"vertex1":110,"vertex2":111}},{"type":"Feature","geometry":{"type":"LineString","coordinates":[[6.508251,49.75822],[6.509505,49.75846]]},"properties":{"way_id":"88732695","highway":"residential","maxspeed":"30","edgeid":107,"vertex1":110,"vertex2":112}},{"type":"Feature","geometry":{"type":"LineString","coordinates":[[6.508531,49.75833],[6.509292,49.75862],[6.509308,49.75861],[6.509505,49.75846]]},"properties":{"way_id":"88732686","highway":"residential","maxspeed":"30","edgeid":97,"vertex1":111,"vertex2":112}},{"type":"Feature","geometry":{"type":"LineString","coordinates":[[6.508531,49.75833],[6.508248,49.75862]]},"properties":{"way_id":"88732688","highway":"residential","maxspeed":"30","edgeid":100,"vertex1":111,"vertex2":116}},{"type":"Feature","geometry":{"type":"LineString","coordinates":[[6.509505,49.75846],[6.50967,49.75834]]},"properties":{"way_id":"88732686","highway":"residential","maxspeed":"30","edgeid":98,"vertex1":112,"vertex2":113}},{"type":"Feature","geometry":{"type":"LineString","coordinates":[[6.512815,49.76012],[6.512883,49.76006],[6.513392,49.75974]]},"properties":{"way_id":"88732687","highway":"residential","edgeid":99,"vertex1":114,"vertex2":115}},{"type":"Feature","geometry":{"type":"LineString","coordinates":[[6.512815,49.76012],[6.512734,49.76005]]},"properties":{"name":"Haaptstrooss","way_id":"133412794","highway":"primary","maxspeed":"50","edgeid":165,"vertex1":114,"vertex2":175}},{"type":"Feature","geometry":{"type":"LineString","coordinates":[[6.513392,49.75974],[6.513092,49.75949],[6.512749,49.75928],[6.512607,49.75921]]},"properties":{"name":"Duerfstrooss","way_id":"98985946","highway":"residential","maxspeed":"30","edgeid":132,"vertex1":115,"vertex2":143}},{"type":"Feature","geometry":{"type":"LineString","coordinates":[[6.508248,49.75862],[6.509099,49.759],[6.509272,49.75905],[6.509492,49.75911],[6.509864,49.75924],[6.510179,49.75939],[6.510217,49.75941]]},"properties":{"name":"Wangertswee","way_id":"88732689","highway":"residential","maxspeed":"30","edgeid":102,"vertex1":116,"vertex2":118}},{"type":"Feature","geometry":{"type":"LineString","coordinates":[[6.505977,49.75784],[6.50646,49.75795],[6.508248,49.75862]]},"properties":{"name":"Wangertswee","way_id":"88732689","highway":"residential","maxspeed":"30","edgeid":101,"vertex1":117,"vertex2":116}},{"type":"Feature","geometry":{"type":"LineString","coordinates":[[6.510217,49.75941],[6.510619,49.75928],[6.510911,49.75921],[6.511403,49.75914],[6.511645,49.75913]]},"properties":{"name":"Neie Wee","way_id":"175292595","maxspeed":"30","highway":"tertiary","edgeid":231,"vertex1":118,"vertex2":141}},{"type":"Feature","geometry":{"type":"LineString","coordinates":[[6.508434,49.76176],[6.509254,49.76212],[6.5094,49.76219],[6.509593,49.76231],[6.510267,49.76276],[6.511045,49.76334],[6.511118,49.76342]]},"properties":{"name":"E2 E3","way_id":"88732694","highway":"track","edgeid":106,"vertex1":119,"vertex2":120}},{"type":"Feature","geometry":{"type":"LineString","coordinates":[[6.508434,49.76176],[6.508441,49.76188]]},"properties":{"way_id":"232176323","highway":"tertiary","edgeid":242,"vertex1":119,"vertex2":217}},{"type":"Feature","geometry":{"type":"LineString","coordinates":[[6.511118,49.76342],[6.511118,49.76355],[6.511063,49.76374],[6.511022,49.76381],[6.510963,49.76387],[6.510826,49.76396],[6.510441,49.7642],[6.510176,49.76434],[6.509236,49.76485],[6.509054,49.76492],[6.508922,49.76496]]},"properties":{"name":"E2 E3","way_id":"175291811","highway":"track","edgeid":225,"vertex1":120,"vertex2":216}},{"type":"Feature","geometry":{"type":"LineString","coordinates":[[6.516996,49.76076],[6.516877,49.76064],[6.516624,49.76044],[6.515998,49.76003],[6.515413,49.75961],[6.514839,49.75915],[6.51461,49.75898],[6.513895,49.75854],[6.513556,49.75837],[6.513368,49.75831],[6.513278,49.7583],[6.513232,49.7583],[6.51319,49.75832],[6.513077,49.75851]]},"properties":{"way_id":"88732696","highway":"track","edgeid":108,"vertex1":121,"vertex2":122}},{"type":"Feature","geometry":{"type":"LineString","coordinates":[[6.516996,49.76076],[6.517064,49.7608]]},"properties":{"way_id":"98985947","highway":"service","edgeid":134,"vertex1":121,"vertex2":145}},{"type":"Feature","geometry":{"type":"LineString","coordinates":[[6.513077,49.75851],[6.513048,49.75856]]},"properties":{"way_id":"175456726","highway":"track","edgeid":236,"vertex1":122,"vertex2":142}},{"type":"Feature","geometry":{"type":"LineString","coordinates":[[6.51618,49.76109],[6.516996,49.76076]]},"properties":{"way_id":"98985947","highway":"service","edgeid":133,"vertex1":123,"vertex2":121}},{"type":"Feature","geometry":{"type":"LineString","coordinates":[[6.51618,49.76109],[6.515987,49.76089],[6.515737,49.76062]]},"properties":{"way_id":"323050689","highway":"service","edgeid":270,"vertex1":123,"vertex2":212}},{"type":"Feature","geometry":{"type":"LineString","coordinates":[[6.516589,49.76305],[6.516418,49.76282]]},"properties":{"name":"Haaptstrooss","way_id":"89683933","maxspeed":"90","highway":"primary","edgeid":110,"vertex1":124,"vertex2":91}},{"type":"Feature","geometry":{"type":"LineString","coordinates":[[6.51558,49.76215],[6.515325,49.76203]]},"properties":{"name":"Haaptstrooss","way_id":"175292593","maxspeed":"90","highway":"primary","edgeid":229,"vertex1":125,"vertex2":176}},{"type":"Feature","geometry":{"type":"LineString","coordinates":[[6.505537,49.80196],[6.505597,49.80199]]},"properties":{"way_id":"95386714","highway":"track","edgeid":113,"vertex1":127,"vertex2":128}},{"type":"Feature","geometry":{"type":"LineString","coordinates":[[6.505597,49.80199],[6.505721,49.80208]]},"properties":{"tunnel":"yes","way_id":"132107206","highway":"track","edgeid":155,"vertex1":128,"vertex2":166}},{"type":"Feature","geometry":{"type":"LineString","coordinates":[[6.507618,49.8008],[6.508184,49.80043],[6.508368,49.80029],[6.508486,49.80019],[6.508588,49.80008],[6.508696,49.79988],[6.508744,49.79967],[6.508749,49.79955],[6.508721,49.79937]]},"properties":{"name":"Route d'Echternach","way_id":"95807057","maxspeed":"90","highway":"primary","edgeid":114,"vertex1":129,"vertex2":102}},{"type":"Feature","geometry":{"type":"LineString","coordinates":[[6.507084,49.79329],[6.506996,49.79319],[6.506745,49.79293],[6.506583,49.79277]]},"properties":{"name":"Route d'Echternach","way_id":"95807057","maxspeed":"90","highway":"primary","edgeid":119,"vertex1":130,"vertex2":131}},{"type":"Feature","geometry":{"type":"LineString","coordinates":[[6.507084,49.79329],[6.507263,49.79327],[6.507403,49.79325]]},"properties":{"way_id":"133891381","highway":"service","edgeid":183,"vertex1":130,"vertex2":184}},{"type":"Feature","geometry":{"type":"LineString","coordinates":[[6.506583,49.79277],[6.506032,49.79226],[6.505589,49.79187],[6.505093,49.79142],[6.504928,49.79126],[6.504782,49.7911],[6.504594,49.7908],[6.504529,49.79062],[6.504467,49.79041],[6.504456,49.79029],[6.504452,49.79016],[6.504469,49.79002],[6.504492,49.78986],[6.504553,49.78967],[6.504707,49.78938]]},"properties":{"name":"Route d'Echternach","way_id":"95807057","maxspeed":"90","highway":"primary","edgeid":120,"vertex1":131,"vertex2":2}},{"type":"Feature","geometry":{"type":"LineString","coordinates":[[6.506583,49.79277],[6.506435,49.79283],[6.506352,49.79286],[6.506295,49.7929],[6.506248,49.79295]]},"properties":{"way_id":"133890995","highway":"service","edgeid":179,"vertex1":131,"vertex2":181}},{"type":"Feature","geometry":{"type":"LineString","coordinates":[[6.505283,49.78858],[6.505649,49.78809],[6.505831,49.78785],[6.506044,49.78764],[6.506341,49.78737],[6.506669,49.78714]]},"properties":{"name":"Route d'Echternach","way_id":"95807057","maxspeed":"90","highway":"primary","edgeid":122,"vertex1":132,"vertex2":133}},{"type":"Feature","geometry":{"type":"LineString","coordinates":[[6.505283,49.78858],[6.505299,49.7886],[6.505314,49.78862],[6.505333,49.78866],[6.505363,49.78874],[6.505305,49.78909],[6.505268,49.78939],[6.505325,49.78966],[6.505492,49.7901],[6.505746,49.79054],[6.505904,49.79076],[6.506254,49.79114]]},"properties":{"way_id":"132125568","highway":"track","edgeid":160,"vertex1":132,"vertex2":171}},{"type":"Feature","geometry":{"type":"LineString","coordinates":[[6.506669,49.78714],[6.506863,49.78703],[6.508936,49.78591],[6.509314,49.78573],[6.509531,49.78564],[6.509794,49.78555],[6.510109,49.78545],[6.510431,49.78537],[6.510819,49.78528],[6.511581,49.78514],[6.512776,49.78487],[6.513162,49.78476],[6.513516,49.78463]]},"properties":{"name":"Route d'Echternach","way_id":"95807057","maxspeed":"90","highway":"primary","edgeid":123,"vertex1":133,"vertex2":134}},{"type":"Feature","geometry":{"type":"LineString","coordinates":[[6.513516,49.78463],[6.513803,49.78451],[6.514022,49.78439],[6.514169,49.78428]]},"properties":{"name":"Route d'Echternach","way_id":"133607872","highway":"primary","maxspeed":"50","edgeid":171,"vertex1":134,"vertex2":179}},{"type":"Feature","geometry":{"type":"LineString","coordinates":[[6.50733,49.80098],[6.507122,49.80136]]},"properties":{"name":"Rue Neuve","way_id":"95807806","oneway":"yes","maxspeed":"50","highway":"residential","edgeid":124,"vertex1":135,"vertex2":13}},{"type":"Feature","geometry":{"type":"LineString","coordinates":[[6.50733,49.80098],[6.507618,49.8008]]},"properties":{"name":"Route d'Echternach","way_id":"133608763","maxspeed":"90","highway":"primary","edgeid":178,"vertex1":135,"vertex2":129}},{"type":"Feature","geometry":{"type":"LineString","coordinates":[[6.509593,49.79199],[6.509437,49.79183],[6.509244,49.79161],[6.509104,49.79146],[6.508746,49.79105],[6.508561,49.79079],[6.508214,49.79036],[6.508179,49.79031]]},"properties":{"way_id":"96613100","highway":"service","edgeid":126,"vertex1":137,"vertex2":138}},{"type":"Feature","geometry":{"type":"LineString","coordinates":[[6.508179,49.79031],[6.508297,49.79036],[6.508408,49.79039],[6.508587,49.7906],[6.508642,49.79065],[6.508713,49.79069],[6.508797,49.7907]]},"properties":{"way_id":"440367404","highway":"service","edgeid":314,"vertex1":138,"vertex2":105}},{"type":"Feature","geometry":{"type":"LineString","coordinates":[[6.523897,49.80732],[6.524066,49.8068],[6.524686,49.80529],[6.524838,49.80498],[6.524864,49.80434],[6.524741,49.80387],[6.524645,49.80366],[6.52447,49.80343],[6.524116,49.80308],[6.52386,49.80287]]},"properties":{"way_id":"296886603","highway":"track","edgeid":253,"vertex1":139,"vertex2":234}},{"type":"Feature","geometry":{"type":"LineString","coordinates":[[6.512362,49.75911],[6.512253,49.75913],[6.511645,49.75913]]},"properties":{"name":"Neie Wee","way_id":"98978681","highway":"residential","maxspeed":"30","edgeid":128,"vertex1":140,"vertex2":141}},{"type":"Feature","geometry":{"type":"LineString","coordinates":[[6.512362,49.75911],[6.511116,49.75856],[6.511005,49.75854],[6.510915,49.75855]]},"properties":{"name":"Duerfstrooss","way_id":"175292594","highway":"residential","maxspeed":"30","edgeid":230,"vertex1":140,"vertex2":218}},{"type":"Feature","geometry":{"type":"LineString","coordinates":[[6.511645,49.75913],[6.511488,49.759],[6.511218,49.75878],[6.510915,49.75855]]},"properties":{"name":"Haaptstrooss","way_id":"175292590","highway":"primary","maxspeed":"50","edgeid":226,"vertex1":141,"vertex2":218}},{"type":"Feature","geometry":{"type":"LineString","coordinates":[[6.513048,49.75856],[6.512891,49.75885],[6.512726,49.75909],[6.512607,49.75921]]},"properties":{"name":"Sauergaass","way_id":"98978718","highway":"residential","maxspeed":"30","edgeid":129,"vertex1":142,"vertex2":143}},{"type":"Feature","geometry":{"type":"LineString","coordinates":[[6.512607,49.75921],[6.512362,49.75911]]},"properties":{"name":"Duerfstrooss","way_id":"175292592","highway":"residential","maxspeed":"30","edgeid":228,"vertex1":143,"vertex2":140}},{"type":"Feature","geometry":{"type":"LineString","coordinates":[[6.505707,49.75728],[6.505755,49.75737],[6.506641,49.7577],[6.506789,49.75771],[6.50691,49.75769]]},"properties":{"way_id":"98978719","highway":"residential","maxspeed":"30","edgeid":130,"vertex1":144,"vertex2":109}},{"type":"Feature","geometry":{"type":"LineString","coordinates":[[6.505677,49.78262],[6.505686,49.78263],[6.505686,49.78269],[6.505565,49.78305],[6.505674,49.78312],[6.505921,49.78336],[6.506037,49.78339],[6.506278,49.78342]]},"properties":{"way_id":"110581381","highway":"track","edgeid":135,"vertex1":146,"vertex2":147}},{"type":"Feature","geometry":{"type":"LineString","coordinates":[[6.505677,49.78262],[6.506242,49.78224],[6.506667,49.78187],[6.507044,49.78164],[6.507198,49.78151],[6.507324,49.78138],[6.507569,49.78109],[6.507629,49.78103],[6.507668,49.78101],[6.507726,49.78099],[6.50779,49.78099],[6.507858,49.781],[6.507954,49.78107],[6.508592,49.78195]]},"properties":{"way_id":"437462191","maxspeed":"90","highway":"secondary","edgeid":296,"vertex1":146,"vertex2":194}},{"type":"Feature","geometry":{"type":"LineString","coordinates":[[6.506278,49.78342],[6.506739,49.78346],[6.507217,49.78352]]},"properties":{"way_id":"437462201","highway":"track","edgeid":297,"vertex1":147,"vertex2":186}},{"type":"Feature","geometry":{"type":"LineString","coordinates":[[6.505774,49.78177],[6.505449,49.7806],[6.505443,49.78021],[6.505465,49.78012],[6.505518,49.78007],[6.506005,49.77971],[6.506078,49.77964],[6.506317,49.77927]]},"properties":{"way_id":"245407670","highway":"track","edgeid":250,"vertex1":148,"vertex2":230}},{"type":"Feature","geometry":{"type":"LineString","coordinates":[[6.505774,49.78177],[6.505641,49.78158],[6.505467,49.7814],[6.505203,49.78114],[6.504981,49.78098],[6.504919,49.7809],[6.504757,49.78075],[6.504464,49.78038],[6.504204,49.78006],[6.503968,49.77988],[6.503752,49.77969]]},"properties":{"way_id":"437462183","highway":"track","edgeid":294,"vertex1":148,"vertex2":3165}},{"type":"Feature","geometry":{"type":"LineString","coordinates":[[6.510086,49.72458],[6.510282,49.725],[6.510451,49.72528],[6.510435,49.72538],[6.510358,49.72542],[6.510094,49.72548],[6.509776,49.72552],[6.509475,49.72556],[6.509317,49.72561],[6.509094,49.72573],[6.508895,49.72587],[6.508612,49.72619],[6.508352,49.72648],[6.508099,49.72669],[6.507847,49.72684],[6.507652,49.72696],[6.5074,49.72708],[6.507107,49.72719],[6.506853,49.72733],[6.506636,49.72743]]},"properties":{"way_id":"121204504","highway":"track","edgeid":139,"vertex1":149,"vertex2":150}},{"type":"Feature","geometry":{"type":"LineString","coordinates":[[6.510086,49.72458],[6.510272,49.72462],[6.510438,49.72467],[6.510831,49.72477],[6.511953,49.72508],[6.512412,49.72519]]},"properties":{"way_id":"232176375","highway":"track","edgeid":244,"vertex1":149,"vertex2":151}},{"type":"Feature","geometry":{"type":"LineString","coordinates":[[6.512412,49.72519],[6.5125,49.72507],[6.512527,49.72493],[6.512469,49.7248],[6.511886,49.72429]]},"properties":{"way_id":"121204506","highway":"track","edgeid":140,"vertex1":151,"vertex2":32}},{"type":"Feature","geometry":{"type":"LineString","coordinates":[[6.505757,49.72607],[6.50579,49.72609],[6.505836,49.72612]]},"properties":{"way_id":"121204508","highway":"track","edgeid":141,"vertex1":152,"vertex2":153}},{"type":"Feature","geometry":{"type":"LineString","coordinates":[[6.505836,49.72612],[6.50591,49.72614],[6.505967,49.72615],[6.506087,49.72613],[6.506232,49.72606],[6.506881,49.72562],[6.507308,49.72534],[6.507931,49.72495],[6.508191,49.72481],[6.50839,49.72472],[6.508555,49.72467],[6.508761,49.72461],[6.50899,49.72456],[6.509259,49.72453],[6.509507,49.72453],[6.509865,49.72454],[6.510086,49.72458]]},"properties":{"way_id":"121204508","highway":"track","edgeid":142,"vertex1":153,"vertex2":149}},{"type":"Feature","geometry":{"type":"LineString","coordinates":[[6.505836,49.72612],[6.505452,49.72631],[6.505003,49.72649],[6.504459,49.72667],[6.503811,49.72686],[6.503516,49.72693],[6.502993,49.72704],[6.502563,49.72712],[6.502051,49.72718],[6.501559,49.72723],[6.501172,49.72725],[6.500678,49.72726],[6.500168,49.72725],[6.499201,49.72722],[6.49856,49.72716],[6.497983,49.7271],[6.497715,49.72706]]},"properties":{"way_id":"433262250","maxspeed":"90","highway":"primary","edgeid":292,"vertex1":153,"vertex2":3153}},{"type":"Feature","geometry":{"type":"LineString","coordinates":[[6.512135,49.77025],[6.513697,49.76876]]},"properties":{"name":"Route d'Echternach","way_id":"124186269","maxspeed":"90","highway":"primary","edgeid":143,"vertex1":154,"vertex2":155}},{"type":"Feature","geometry":{"type":"LineString","coordinates":[[6.513697,49.76876],[6.514119,49.76836],[6.514334,49.76812],[6.514447,49.76797],[6.51455,49.7678]]},"properties":{"name":"Route d'Echternach","way_id":"124186269","maxspeed":"90","highway":"primary","edgeid":144,"vertex1":155,"vertex2":156}},{"type":"Feature","geometry":{"type":"LineString","coordinates":[[6.51455,49.7678],[6.514698,49.76744],[6.515531,49.76545],[6.515636,49.76525],[6.515774,49.76502],[6.516045,49.76467],[6.516518,49.76409],[6.516629,49.76391],[6.516693,49.76372],[6.516718,49.7635],[6.516699,49.76331],[6.516589,49.76305]]},"properties":{"name":"Route d'Echternach","way_id":"124186269","maxspeed":"90","highway":"primary","edgeid":145,"vertex1":156,"vertex2":124}},{"type":"Feature","geometry":{"type":"LineString","coordinates":[[6.51455,49.7678],[6.514653,49.76776],[6.514721,49.7677],[6.514965,49.76741],[6.515051,49.76734],[6.515111,49.76732],[6.515169,49.76732],[6.515239,49.76736],[6.515247,49.76741],[6.515213,49.76773],[6.515309,49.76833],[6.515341,49.76899]]},"properties":{"way_id":"132312903","highway":"track","edgeid":161,"vertex1":156,"vertex2":172}},{"type":"Feature","geometry":{"type":"LineString","coordinates":[[6.517568,49.79694],[6.517468,49.79705],[6.516407,49.7981],[6.516315,49.79814],[6.516215,49.79815],[6.516116,49.79814],[6.514663,49.79788],[6.514521,49.79787],[6.511901,49.79782],[6.510629,49.79784],[6.510505,49.79783],[6.510367,49.79781]]},"properties":{"way_id":"132106933","highway":"track","edgeid":146,"vertex1":157,"vertex2":158}},{"type":"Feature","geometry":{"type":"LineString","coordinates":[[6.517568,49.79694],[6.517688,49.79683]]},"properties":{"way_id":"132106934","highway":"track","edgeid":149,"vertex1":157,"vertex2":161}},{"type":"Feature","geometry":{"type":"LineString","coordinates":[[6.510367,49.79781],[6.510448,49.79773],[6.511057,49.79638],[6.511138,49.79614],[6.511216,49.79584],[6.511326,49.79523],[6.511365,49.79514],[6.511446,49.79502]]},"properties":{"way_id":"132106935","highway":"track","edgeid":151,"vertex1":158,"vertex2":159}},{"type":"Feature","geometry":{"type":"LineString","coordinates":[[6.511446,49.79502],[6.513097,49.7955],[6.514462,49.79596]]},"properties":{"way_id":"132106934","highway":"track","edgeid":147,"vertex1":159,"vertex2":160}},{"type":"Feature","geometry":{"type":"LineString","coordinates":[[6.511446,49.79502],[6.512053,49.79432],[6.512038,49.79427],[6.512008,49.79425],[6.511921,49.79422],[6.511209,49.79411],[6.510847,49.79404],[6.51039,49.79391]]},"properties":{"way_id":"132106935","highway":"track","edgeid":152,"vertex1":159,"vertex2":163}},{"type":"Feature","geometry":{"type":"LineString","coordinates":[[6.514462,49.79596],[6.514778,49.79604],[6.515982,49.79645],[6.517085,49.7969],[6.51721,49.79695],[6.517317,49.79696],[6.517428,49.79697],[6.517513,49.79696],[6.517568,49.79694]]},"properties":{"way_id":"132106934","highway":"track","edgeid":148,"vertex1":160,"vertex2":157}},{"type":"Feature","geometry":{"type":"LineString","coordinates":[[6.514462,49.79596],[6.514545,49.79592],[6.514736,49.79576],[6.515014,49.79548],[6.515435,49.79504]]},"properties":{"way_id":"315666910","highway":"track","edgeid":260,"vertex1":160,"vertex2":238}},{"type":"Feature","geometry":{"type":"LineString","coordinates":[[6.517688,49.79683],[6.517969,49.79656],[6.518038,49.79653],[6.518096,49.79652],[6.518165,49.79654]]},"properties":{"way_id":"132106934","highway":"track","edgeid":150,"vertex1":161,"vertex2":162}},{"type":"Feature","geometry":{"type":"LineString","coordinates":[[6.517688,49.79683],[6.518005,49.79679],[6.518299,49.79679],[6.518385,49.79673],[6.518262,49.79662]]},"properties":{"way_id":"134195839","highway":"track","edgeid":186,"vertex1":161,"vertex2":188}},{"type":"Feature","geometry":{"type":"LineString","coordinates":[[6.509336,49.79765],[6.510367,49.79781]]},"properties":{"way_id":"132106936","highway":"track","edgeid":153,"vertex1":164,"vertex2":158}},{"type":"Feature","geometry":{"type":"LineString","coordinates":[[6.509336,49.79765],[6.509422,49.79664],[6.509406,49.79654],[6.509341,49.79647]]},"properties":{"way_id":"169277032","highway":"secondary","edgeid":206,"vertex1":164,"vertex2":201}},{"type":"Feature","geometry":{"type":"LineString","coordinates":[[6.505962,49.80296],[6.506401,49.80303]]},"properties":{"way_id":"132107205","highway":"service","edgeid":154,"vertex1":165,"vertex2":10}},{"type":"Feature","geometry":{"type":"LineString","coordinates":[[6.505721,49.80208],[6.505817,49.80212]]},"properties":{"way_id":"132107207","highway":"track","edgeid":156,"vertex1":166,"vertex2":167}},{"type":"Feature","geometry":{"type":"LineString","coordinates":[[6.505817,49.80212],[6.506761,49.80219]]},"properties":{"way_id":"486349941","highway":"residential","edgeid":321,"vertex1":167,"vertex2":11}},{"type":"Feature","geometry":{"type":"LineString","coordinates":[[6.507186,49.80608],[6.507175,49.8061],[6.506354,49.80756]]},"properties":{"way_id":"132111291","highway":"service","edgeid":157,"vertex1":168,"vertex2":169}},{"type":"Feature","geometry":{"type":"LineString","coordinates":[[6.506354,49.80756],[6.505065,49.8072]]},"properties":{"way_id":"132111295","highway":"service","edgeid":159,"vertex1":169,"vertex2":126}},{"type":"Feature","geometry":{"type":"LineString","coordinates":[[6.50668,49.80765],[6.506354,49.80756]]},"properties":{"way_id":"132111295","highway":"service","edgeid":158,"vertex1":170,"vertex2":169}},{"type":"Feature","geometry":{"type":"LineString","coordinates":[[6.50668,49.80765],[6.506891,49.80733],[6.50696,49.80723],[6.507383,49.80649],[6.507478,49.80633]]},"properties":{"way_id":"171134427","highway":"service","maxspeed":"10","edgeid":218,"vertex1":170,"vertex2":211}},{"type":"Feature","geometry":{"type":"LineString","coordinates":[[6.506433,49.75652],[6.505269,49.75602]]},"properties":{"name":"Haaptstrooss","way_id":"133411846","maxspeed":"70","highway":"primary","edgeid":162,"vertex1":173,"vertex2":107}},{"type":"Feature","geometry":{"type":"LineString","coordinates":[[6.513994,49.76112],[6.513423,49.76064],[6.512959,49.76024],[6.512815,49.76012]]},"properties":{"name":"Haaptstrooss","way_id":"133412794","highway":"primary","maxspeed":"50","edgeid":164,"vertex1":174,"vertex2":114}},{"type":"Feature","geometry":{"type":"LineString","coordinates":[[6.512734,49.76005],[6.512243,49.75964],[6.511645,49.75913]]},"properties":{"name":"Haaptstrooss","way_id":"133412794","highway":"primary","maxspeed":"50","edgeid":166,"vertex1":175,"vertex2":141}},{"type":"Feature","geometry":{"type":"LineString","coordinates":[[6.512734,49.76005],[6.512526,49.76009],[6.512247,49.76014],[6.511861,49.76023],[6.511694,49.76034]]},"properties":{"way_id":"313650772","highway":"service","edgeid":258,"vertex1":175,"vertex2":236}},{"type":"Feature","geometry":{"type":"LineString","coordinates":[[6.515325,49.76203],[6.515106,49.76192],[6.514817,49.76176],[6.514512,49.76155],[6.51438,49.76144],[6.513994,49.76112]]},"properties":{"name":"Haaptstrooss","way_id":"133412796","maxspeed":"90","highway":"primary","edgeid":167,"vertex1":176,"vertex2":174}},{"type":"Feature","geometry":{"type":"LineString","coordinates":[[6.513659,49.76891],[6.513695,49.76882],[6.513697,49.76876]]},"properties":{"way_id":"133607460","highway":"track","edgeid":168,"vertex1":177,"vertex2":155}},{"type":"Feature","geometry":{"type":"LineString","coordinates":[[6.514749,49.7825],[6.514745,49.78242],[6.514676,49.78211],[6.514575,49.78189],[6.514418,49.78165],[6.510603,49.77751],[6.510327,49.77717],[6.510114,49.77685],[6.509925,49.77649],[6.509572,49.77558],[6.509469,49.77526],[6.509339,49.77478],[6.509279,49.77433],[6.509263,49.77388],[6.509299,49.77357],[6.509382,49.77322],[6.509506,49.77285],[6.509696,49.7725],[6.509947,49.77216],[6.510231,49.77187],[6.510636,49.77153]]},"properties":{"name":"Route d'Echternach","way_id":"133607628","maxspeed":"90","highway":"primary","edgeid":169,"vertex1":178,"vertex2":83}},{"type":"Feature","geometry":{"type":"LineString","coordinates":[[6.514169,49.78428],[6.514288,49.78416],[6.514372,49.78404],[6.514414,49.78392]]},"properties":{"name":"Route d'Echternach","way_id":"133607873","highway":"primary","maxspeed":"50","edgeid":172,"vertex1":179,"vertex2":22}},{"type":"Feature","geometry":{"type":"LineString","coordinates":[[6.506257,49.80167],[6.506924,49.80124]]},"properties":{"name":"Route d'Echternach","way_id":"133608763","maxspeed":"90","highway":"primary","edgeid":176,"vertex1":180,"vertex2":14}},{"type":"Feature","geometry":{"type":"LineString","coordinates":[[6.506248,49.79295],[6.505984,49.79326]]},"properties":{"way_id":"133890995","highway":"service","edgeid":180,"vertex1":181,"vertex2":182}},{"type":"Feature","geometry":{"type":"LineString","coordinates":[[6.505984,49.79326],[6.505888,49.79338],[6.505881,49.79343],[6.505917,49.79346],[6.505982,49.7935],[6.506149,49.79355]]},"properties":{"way_id":"133890995","highway":"service","edgeid":181,"vertex1":182,"vertex2":183}},{"type":"Feature","geometry":{"type":"LineString","coordinates":[[6.505984,49.79326],[6.505677,49.79317],[6.505618,49.79313],[6.505578,49.79307],[6.505564,49.793],[6.505583,49.79295],[6.505628,49.7929],[6.505688,49.79287],[6.505732,49.79285],[6.505823,49.79284],[6.50591,49.79284],[6.506248,49.79295]]},"properties":{"way_id":"133890996","highway":"service","edgeid":182,"vertex1":182,"vertex2":181}},{"type":"Feature","geometry":{"type":"LineString","coordinates":[[6.507403,49.79325],[6.507876,49.7932]]},"properties":{"way_id":"367859792","highway":"service","edgeid":287,"vertex1":184,"vertex2":260}},{"type":"Feature","geometry":{"type":"LineString","coordinates":[[6.507217,49.78352],[6.507091,49.78393],[6.506802,49.78483],[6.506806,49.78496],[6.506847,49.78509],[6.506825,49.78552],[6.506741,49.78561],[6.506179,49.78596],[6.505982,49.78605],[6.505688,49.78646],[6.505671,49.7866]]},"properties":{"way_id":"134195837","highway":"track","edgeid":185,"vertex1":186,"vertex2":187}},{"type":"Feature","geometry":{"type":"LineString","coordinates":[[6.507217,49.78352],[6.508039,49.7836],[6.50816,49.78358],[6.508345,49.78354],[6.5085,49.78352],[6.509082,49.7836],[6.509209,49.7836],[6.509254,49.78357]]},"properties":{"way_id":"437462201","highway":"track","edgeid":298,"vertex1":186,"vertex2":195}},{"type":"Feature","geometry":{"type":"LineString","coordinates":[[6.518015,49.79968],[6.52052,49.79837]]},"properties":{"way_id":"134195843","highway":"track","edgeid":188,"vertex1":190,"vertex2":191}},{"type":"Feature","geometry":{"type":"LineString","coordinates":[[6.518015,49.79968],[6.517375,49.7993],[6.517037,49.79903],[6.516733,49.79887],[6.516402,49.79876],[6.515987,49.79866],[6.515573,49.79857],[6.515248,49.79852],[6.514847,49.79851],[6.513732,49.79846],[6.513328,49.79846],[6.512282,49.7985]]},"properties":{"way_id":"296886665","highway":"unclassified","edgeid":256,"vertex1":190,"vertex2":86}},{"type":"Feature","geometry":{"type":"LineString","coordinates":[[6.50962,49.78354],[6.509707,49.78354],[6.509778,49.78355]]},"properties":{"way_id":"135248373","maxspeed":"90","highway":"secondary","edgeid":189,"vertex1":192,"vertex2":106}},{"type":"Feature","geometry":{"type":"LineString","coordinates":[[6.508592,49.78195],[6.508543,49.78292],[6.508565,49.78304],[6.508654,49.78339],[6.508714,49.78347],[6.508783,49.7835],[6.508856,49.78352],[6.509254,49.78357]]},"properties":{"way_id":"135248721","maxspeed":"90","highway":"secondary","edgeid":194,"vertex1":194,"vertex2":195}},{"type":"Feature","geometry":{"type":"LineString","coordinates":[[6.509254,49.78357],[6.509338,49.78357],[6.50962,49.78354]]},"properties":{"way_id":"135248721","maxspeed":"90","highway":"secondary","edgeid":195,"vertex1":195,"vertex2":192}},{"type":"Feature","geometry":{"type":"LineString","coordinates":[[6.553815,49.81818],[6.553455,49.81821],[6.55308,49.81821],[6.552726,49.8182],[6.55229,49.81811],[6.551863,49.81799],[6.551446,49.81785],[6.55105,49.8177],[6.548563,49.81667],[6.5467,49.81586],[6.545944,49.81555],[6.543288,49.81449],[6.542814,49.81436],[6.54232,49.81424],[6.541536,49.81413],[6.540991,49.81409],[6.539848,49.81417],[6.539582,49.81418],[6.538119,49.81411],[6.536759,49.81416],[6.535805,49.81412],[6.535337,49.81415],[6.534875,49.81416],[6.533745,49.81407],[6.53287,49.81394],[6.53267,49.81388],[6.532136,49.81364],[6.531744,49.81351],[6.531323,49.81344],[6.530255,49.81333],[6.529829,49.81336],[6.528837,49.81366],[6.52745,49.81432],[6.527189,49.81452],[6.527111,49.81464],[6.526649,49.81607],[6.526585,49.81627],[6.526414,49.81651],[6.526281,49.8166],[6.52612,49.81667],[6.525944,49.8167],[6.525769,49.8167],[6.525612,49.81667],[6.525482,49.8166],[6.525274,49.81643],[6.525127,49.81622],[6.52492,49.81578],[6.524444,49.81479],[6.524311,49.81464],[6.524117,49.81453],[6.523853,49.81449],[6.523343,49.81449],[6.52298,49.81444],[6.521869,49.81407],[6.521084,49.81391],[6.52064,49.81389],[6.520469,49.81384],[6.520489,49.81377],[6.520518,49.81368]]},"properties":{"way_id":"135398876","highway":"secondary","edgeid":196,"vertex1":196,"vertex2":26}},{"type":"Feature","geometry":{"type":"LineString","coordinates":[[6.507461,49.80398],[6.507179,49.80446]]},"properties":{"way_id":"135862124","highway":"residential","edgeid":198,"vertex1":197,"vertex2":198}},{"type":"Feature","geometry":{"type":"LineString","coordinates":[[6.507461,49.80398],[6.507528,49.80397],[6.507691,49.80392],[6.507747,49.80393],[6.508031,49.80396],[6.508231,49.80408]]},"properties":{"way_id":"186947006","highway":"unclassified","edgeid":239,"vertex1":197,"vertex2":222}},{"type":"Feature","geometry":{"type":"LineString","coordinates":[[6.507179,49.80446],[6.50718,49.80459],[6.507156,49.80472],[6.507039,49.8052],[6.50698,49.80539],[6.506965,49.80544]]},"properties":{"name":"Rue de la Gare","way_id":"433262254","oneway":"yes","maxspeed":"50","highway":"tertiary","edgeid":293,"vertex1":198,"vertex2":263}},{"type":"Feature","geometry":{"type":"LineString","coordinates":[[6.513341,49.8079],[6.513584,49.80798],[6.513797,49.80806],[6.513938,49.80817],[6.514144,49.80829],[6.514503,49.80858],[6.515386,49.80955],[6.516119,49.8104],[6.516374,49.8107],[6.516652,49.81104],[6.516714,49.81112],[6.517441,49.81197],[6.517819,49.81234],[6.518152,49.81259],[6.518669,49.81291],[6.519204,49.81315],[6.520255,49.81358],[6.520424,49.81364],[6.520518,49.81368]]},"properties":{"name":"Echternacherstraße","way_id":"151063203","highway":"primary","edgeid":199,"vertex1":199,"vertex2":26}},{"type":"Feature","geometry":{"type":"LineString","coordinates":[[6.512127,49.80122],[6.512277,49.80129]]},"properties":{"way_id":"169277037","highway":"unclassified","edgeid":211,"vertex1":200,"vertex2":81}},{"type":"Feature","geometry":{"type":"LineString","coordinates":[[6.509341,49.79647],[6.509258,49.79644],[6.509151,49.79643]]},"properties":{"way_id":"169277032","highway":"secondary","edgeid":207,"vertex1":201,"vertex2":56}},{"type":"Feature","geometry":{"type":"LineString","coordinates":[[6.509341,49.79647],[6.509396,49.79643],[6.509439,49.79637],[6.509443,49.79625],[6.509429,49.79575],[6.509406,49.79541],[6.509359,49.79504],[6.509267,49.79462]]},"properties":{"way_id":"316375797","highway":"service","edgeid":261,"vertex1":201,"vertex2":239}},{"type":"Feature","geometry":{"type":"LineString","coordinates":[[6.509105,49.80276],[6.509005,49.80312]]},"properties":{"way_id":"169277033","highway":"service","edgeid":208,"vertex1":202,"vertex2":203}},{"type":"Feature","geometry":{"type":"LineString","coordinates":[[6.509005,49.80312],[6.508953,49.80326],[6.508819,49.8033],[6.508624,49.80325]]},"properties":{"way_id":"169277040","highway":"service","edgeid":214,"vertex1":203,"vertex2":207}},{"type":"Feature","geometry":{"type":"LineString","coordinates":[[6.517175,49.80117],[6.517066,49.8011]]},"properties":{"way_id":"169277035","highway":"track","edgeid":209,"vertex1":204,"vertex2":205}},{"type":"Feature","geometry":{"type":"LineString","coordinates":[[6.517066,49.8011],[6.516777,49.80096],[6.516481,49.80075],[6.516207,49.80055],[6.515514,49.80013],[6.51478,49.79977],[6.514555,49.79961],[6.514216,49.79947],[6.513927,49.79943],[6.513704,49.79939],[6.513488,49.79937],[6.513266,49.79933],[6.513105,49.79934],[6.513006,49.7993],[6.512772,49.79932],[6.512695,49.79934],[6.512564,49.79934],[6.512474,49.79937],[6.512466,49.79944],[6.51267,49.7995],[6.512798,49.79961],[6.512473,49.79953],[6.512196,49.79952],[6.511948,49.79952],[6.511696,49.79953],[6.511365,49.79961],[6.5108,49.79963],[6.51066,49.79961],[6.510625,49.79954],[6.510639,49.79926]]},"properties":{"way_id":"169277038","highway":"track","edgeid":212,"vertex1":205,"vertex2":206}},{"type":"Feature","geometry":{"type":"LineString","coordinates":[[6.510639,49.79926],[6.510499,49.79934],[6.510428,49.79947],[6.510427,49.79968]]},"properties":{"way_id":"169277041","highway":"service","edgeid":215,"vertex1":206,"vertex2":208}},{"type":"Feature","geometry":{"type":"LineString","coordinates":[[6.517577,49.80085],[6.517953,49.80117],[6.518702,49.8017],[6.519228,49.80207],[6.519752,49.80243]]},"properties":{"way_id":"169277042","highway":"track","edgeid":216,"vertex1":209,"vertex2":210}},{"type":"Feature","geometry":{"type":"LineString","coordinates":[[6.515737,49.76062],[6.51573,49.76056],[6.515742,49.76035],[6.51567,49.76027],[6.515256,49.75994]]},"properties":{"way_id":"171134437","highway":"service","edgeid":219,"vertex1":212,"vertex2":213}},{"type":"Feature","geometry":{"type":"LineString","coordinates":[[6.506172,49.76645],[6.506085,49.76651]]},"properties":{"name":"E2 E3","way_id":"175291800","highway":"track","edgeid":220,"vertex1":214,"vertex2":215}},{"type":"Feature","geometry":{"type":"LineString","coordinates":[[6.506085,49.76651],[6.505956,49.76658],[6.500157,49.76885]]},"properties":{"name":"E2 E3","way_id":"175291800","highway":"track","edgeid":221,"vertex1":215,"vertex2":1734}},{"type":"Feature","geometry":{"type":"LineString","coordinates":[[6.508922,49.76496],[6.508385,49.76512],[6.507747,49.76533],[6.507477,49.76543],[6.507109,49.76561],[6.506637,49.76587],[6.506481,49.76601],[6.506172,49.76645]]},"properties":{"name":"E2 E3","way_id":"175291801","highway":"track","edgeid":222,"vertex1":216,"vertex2":214}},{"type":"Feature","geometry":{"type":"LineString","coordinates":[[6.508441,49.76188],[6.508413,49.76191],[6.508363,49.76195],[6.508236,49.76199],[6.50784,49.76206],[6.507384,49.76223],[6.506837,49.76247],[6.506385,49.76262],[6.506119,49.76267],[6.505713,49.7627],[6.505461,49.76276],[6.503868,49.76322],[6.503702,49.76324],[6.503574,49.76323],[6.503462,49.76318],[6.502521,49.76239],[6.502358,49.76228],[6.50187,49.76206],[6.501256,49.76176],[6.501087,49.76173],[6.501052,49.76173]]},"properties":{"way_id":"175291809","highway":"tertiary","edgeid":224,"vertex1":217,"vertex2":2487}},{"type":"Feature","geometry":{"type":"LineString","coordinates":[[6.510915,49.75855],[6.510672,49.7584],[6.510422,49.75825],[6.509936,49.75803],[6.507041,49.75679],[6.506433,49.75652]]},"properties":{"name":"Haaptstrooss","way_id":"175292590","highway":"primary","maxspeed":"50","edgeid":227,"vertex1":218,"vertex2":173}},{"type":"Feature","geometry":{"type":"LineString","coordinates":[[6.50462,49.75745],[6.504754,49.75748],[6.504983,49.75755],[6.50569,49.7578],[6.505835,49.75785],[6.505977,49.75784]]},"properties":{"way_id":"175454872","highway":"track","edgeid":232,"vertex1":219,"vertex2":117}},{"type":"Feature","geometry":{"type":"LineString","coordinates":[[6.514338,49.76548],[6.514511,49.76542],[6.51461,49.76535],[6.514759,49.76521],[6.515389,49.76434],[6.515529,49.7641],[6.515718,49.76359],[6.51585,49.76309],[6.515868,49.7628],[6.51582,49.76272],[6.515473,49.76247],[6.51541,49.76238],[6.515424,49.76232],[6.515484,49.76225],[6.51558,49.76215]]},"properties":{"way_id":"175455945","highway":"track","edgeid":235,"vertex1":220,"vertex2":125}},{"type":"Feature","geometry":{"type":"LineString","coordinates":[[6.508893,49.78728],[6.50855,49.78745],[6.508362,49.78755],[6.508225,49.78762],[6.50808,49.78769]]},"properties":{"way_id":"440367404","highway":"service","edgeid":312,"vertex1":221,"vertex2":74}},{"type":"Feature","geometry":{"type":"LineString","coordinates":[[6.505098,49.72823],[6.505463,49.72817],[6.505699,49.72805],[6.505935,49.72795],[6.506171,49.72777],[6.506636,49.72743]]},"properties":{"way_id":"232176373","highway":"track","edgeid":243,"vertex1":223,"vertex2":150}},{"type":"Feature","geometry":{"type":"LineString","coordinates":[[6.508904,49.75425],[6.509265,49.75403]]},"properties":{"way_id":"208598931","highway":"track","edgeid":241,"vertex1":224,"vertex2":225}},{"type":"Feature","geometry":{"type":"LineString","coordinates":[[6.50473,49.73159],[6.503768,49.73244],[6.503368,49.73288],[6.503004,49.7333],[6.502767,49.7337],[6.502649,49.73404],[6.50258,49.7343],[6.502527,49.73452],[6.502511,49.73487],[6.502514,49.73525],[6.502538,49.73556],[6.502632,49.73615],[6.502808,49.73704],[6.503124,49.73825],[6.503354,49.739],[6.503664,49.73984],[6.503932,49.74054],[6.504129,49.74117],[6.504176,49.74153],[6.504227,49.74196]]},"properties":{"way_id":"238173032","highway":"primary","edgeid":246,"vertex1":226,"vertex2":227}},{"type":"Feature","geometry":{"type":"LineString","coordinates":[[6.514652,49.7859],[6.51499,49.78571],[6.516591,49.78488],[6.51702,49.7846],[6.517417,49.78425],[6.517723,49.78394],[6.517983,49.78356],[6.518137,49.78323],[6.518196,49.78294],[6.518175,49.78274],[6.518102,49.78245],[6.517726,49.78185],[6.517184,49.7811],[6.516693,49.78052],[6.516393,49.78023],[6.516295,49.78013],[6.515949,49.77977],[6.515588,49.77942],[6.514829,49.77882],[6.514332,49.7783],[6.51409,49.77797],[6.513945,49.77774],[6.51385,49.77743]]},"properties":{"name":"Echternacher Straße","way_id":"238173033","highway":"primary","edgeid":248,"vertex1":228,"vertex2":31}},{"type":"Feature","geometry":{"type":"LineString","coordinates":[[6.514652,49.7859],[6.514314,49.78545],[6.514016,49.78555]]},"properties":{"way_id":"391746645","highway":"service","edgeid":288,"vertex1":228,"vertex2":261}},{"type":"Feature","geometry":{"type":"LineString","coordinates":[[6.515199,49.78297],[6.515296,49.78337]]},"properties":{"way_id":"244007909","highway":"residential","edgeid":249,"vertex1":229,"vertex2":59}},{"type":"Feature","geometry":{"type":"LineString","coordinates":[[6.514723,49.80833],[6.514988,49.80821],[6.515283,49.80811],[6.515912,49.80787],[6.516362,49.80772]]},"properties":{"name":"Am Bahndamm","way_id":"260883375","highway":"residential","edgeid":251,"vertex1":231,"vertex2":232}},{"type":"Feature","geometry":{"type":"LineString","coordinates":[[6.516362,49.80772],[6.516134,49.80741],[6.515948,49.80721],[6.515562,49.80685]]},"properties":{"name":"Bahnhofstraße","way_id":"438778369","highway":"residential","edgeid":308,"vertex1":232,"vertex2":271}},{"type":"Feature","geometry":{"type":"LineString","coordinates":[[6.52386,49.80287],[6.523415,49.80252],[6.522911,49.80218],[6.522674,49.80204],[6.522123,49.80182],[6.520691,49.80108],[6.52001,49.80066],[6.518015,49.79968]]},"properties":{"way_id":"296886665","highway":"unclassified","edgeid":255,"vertex1":234,"vertex2":190}},{"type":"Feature","geometry":{"type":"LineString","coordinates":[[6.513397,49.7637],[6.513663,49.76407],[6.513753,49.76425],[6.5138,49.76444],[6.513794,49.7646],[6.513753,49.76483],[6.513675,49.76513],[6.513694,49.76524],[6.513819,49.76537],[6.51396,49.76544],[6.514054,49.76546],[6.514338,49.76548]]},"properties":{"way_id":"313967321","highway":"track","edgeid":259,"vertex1":237,"vertex2":220}},{"type":"Feature","geometry":{"type":"LineString","coordinates":[[6.509267,49.79462],[6.5092,49.79435],[6.50902,49.79374]]},"properties":{"way_id":"316375797","highway":"service","edgeid":262,"vertex1":239,"vertex2":240}},{"type":"Feature","geometry":{"type":"LineString","coordinates":[[6.509267,49.79462],[6.50912,49.79447],[6.509026,49.79432],[6.508585,49.79318]]},"properties":{"way_id":"316375798","highway":"service","edgeid":265,"vertex1":239,"vertex2":243}},{"type":"Feature","geometry":{"type":"LineString","coordinates":[[6.50902,49.79374],[6.508849,49.79316]]},"properties":{"way_id":"316375797","highway":"service","edgeid":263,"vertex1":240,"vertex2":241}},{"type":"Feature","geometry":{"type":"LineString","coordinates":[[6.50902,49.79374],[6.509571,49.79367],[6.509685,49.79367],[6.509818,49.7937],[6.51039,49.79391]]},"properties":{"way_id":"316375799","highway":"service","edgeid":266,"vertex1":240,"vertex2":163}},{"type":"Feature","geometry":{"type":"LineString","coordinates":[[6.508849,49.79316],[6.508828,49.7931],[6.508749,49.79304],[6.508662,49.79301],[6.508483,49.79303]]},"properties":{"way_id":"316375797","highway":"service","edgeid":264,"vertex1":241,"vertex2":242}},{"type":"Feature","geometry":{"type":"LineString","coordinates":[[6.508849,49.79316],[6.509013,49.79314],[6.509245,49.79319],[6.509759,49.79345],[6.509964,49.79352]]},"properties":{"way_id":"327182117","highway":"service","edgeid":278,"vertex1":241,"vertex2":252}},{"type":"Feature","geometry":{"type":"LineString","coordinates":[[6.505931,49.73041],[6.505848,49.73043],[6.505744,49.73049],[6.505601,49.73061],[6.505462,49.73074],[6.505239,49.73092],[6.505022,49.73106],[6.504861,49.73116],[6.504668,49.73125],[6.50452,49.73132],[6.504478,49.73136],[6.504464,49.73141]]},"properties":{"way_id":"322856382","highway":"secondary","edgeid":267,"vertex1":244,"vertex2":245}},{"type":"Feature","geometry":{"type":"LineString","coordinates":[[6.504464,49.73141],[6.50448,49.73146],[6.504534,49.73149],[6.50473,49.73159]]},"properties":{"way_id":"322856383","highway":"secondary","edgeid":268,"vertex1":245,"vertex2":226}},{"type":"Feature","geometry":{"type":"LineString","coordinates":[[6.50605,49.73046],[6.506004,49.73043],[6.505931,49.73041]]},"properties":{"way_id":"322856387","highway":"secondary","edgeid":269,"vertex1":246,"vertex2":244}},{"type":"Feature","geometry":{"type":"LineString","coordinates":[[6.510512,49.80499],[6.510443,49.80505],[6.510051,49.80517],[6.509727,49.80527]]},"properties":{"way_id":"325930943","highway":"service","edgeid":273,"vertex1":247,"vertex2":248}},{"type":"Feature","geometry":{"type":"LineString","coordinates":[[6.510512,49.80499],[6.510722,49.80497],[6.510872,49.80499],[6.511009,49.80507],[6.511151,49.80515]]},"properties":{"way_id":"325930944","highway":"service","edgeid":275,"vertex1":247,"vertex2":249}},{"type":"Feature","geometry":{"type":"LineString","coordinates":[[6.509727,49.80527],[6.509635,49.80527]]},"properties":{"way_id":"350949882","highway":"service","edgeid":284,"vertex1":248,"vertex2":5}},{"type":"Feature","geometry":{"type":"LineString","coordinates":[[6.504156,49.8081],[6.503877,49.80835],[6.50349,49.8087],[6.503402,49.80878],[6.50341,49.80885],[6.503493,49.80898],[6.503467,49.80902],[6.503398,49.80908]]},"properties":{"way_id":"325932150","highway":"service","edgeid":276,"vertex1":250,"vertex2":2474}},{"type":"Feature","geometry":{"type":"LineString","coordinates":[[6.509964,49.79352],[6.509898,49.79362],[6.510386,49.7938]]},"properties":{"way_id":"327182118","highway":"service","edgeid":279,"vertex1":252,"vertex2":253}},{"type":"Feature","geometry":{"type":"LineString","coordinates":[[6.509964,49.79352],[6.510035,49.79343]]},"properties":{"way_id":"327182119","highway":"service","edgeid":280,"vertex1":252,"vertex2":254}},{"type":"Feature","geometry":{"type":"LineString","coordinates":[[6.509964,49.79352],[6.510508,49.7937]]},"properties":{"way_id":"327182121","highway":"service","edgeid":283,"vertex1":252,"vertex2":257}},{"type":"Feature","geometry":{"type":"LineString","coordinates":[[6.510035,49.79343],[6.510121,49.79332]]},"properties":{"way_id":"327182119","highway":"service","edgeid":281,"vertex1":254,"vertex2":255}},{"type":"Feature","geometry":{"type":"LineString","coordinates":[[6.510035,49.79343],[6.510552,49.7936]]},"properties":{"way_id":"327182120","highway":"service","edgeid":282,"vertex1":254,"vertex2":256}},{"type":"Feature","geometry":{"type":"LineString","coordinates":[[6.527357,49.79885],[6.525901,49.79955],[6.525852,49.79956]]},"properties":{"way_id":"417048398","highway":"track","edgeid":290,"vertex1":262,"vertex2":28}},{"type":"Feature","geometry":{"type":"LineString","coordinates":[[6.506965,49.80544],[6.506925,49.80556],[6.506902,49.80565],[6.506907,49.8057],[6.506927,49.80575]]},"properties":{"name":"Rue de la Gare","way_id":"486349939","oneway":"yes","maxspeed":"50","highway":"tertiary","edgeid":319,"vertex1":263,"vertex2":42}},{"type":"Feature","geometry":{"type":"LineString","coordinates":[[6.515375,49.80619],[6.515666,49.8061],[6.515512,49.8059],[6.515315,49.80572]]},"properties":{"name":"Gangolfstraße","way_id":"438007633","highway":"residential","edgeid":299,"vertex1":264,"vertex2":94}},{"type":"Feature","geometry":{"type":"LineString","coordinates":[[6.515854,49.80551],[6.515962,49.80563],[6.516144,49.80594],[6.516345,49.80631],[6.516613,49.80673],[6.516924,49.80725],[6.517035,49.80764],[6.517058,49.80784],[6.517029,49.80792],[6.516946,49.80796],[6.516575,49.80813]]},"properties":{"way_id":"438775987","highway":"track","edgeid":300,"vertex1":265,"vertex2":266}},{"type":"Feature","geometry":{"type":"LineString","coordinates":[[6.516575,49.80813],[6.516518,49.808],[6.516362,49.80772]]},"properties":{"name":"Bahnhofstraße","way_id":"438778369","highway":"residential","edgeid":307,"vertex1":266,"vertex2":232}},{"type":"Feature","geometry":{"type":"LineString","coordinates":[[6.517524,49.81104],[6.517383,49.81054],[6.517297,49.81007],[6.517214,49.8096],[6.517145,49.80934]]},"properties":{"name":"Bahnhofstraße","way_id":"438776626","highway":"residential","edgeid":303,"vertex1":267,"vertex2":268}},{"type":"Feature","geometry":{"type":"LineString","coordinates":[[6.517145,49.80934],[6.517132,49.8093],[6.517076,49.80912],[6.516963,49.8089],[6.516796,49.80858],[6.516611,49.80821]]},"properties":{"name":"Bahnhofstraße","way_id":"438776626","highway":"residential","edgeid":304,"vertex1":268,"vertex2":269}},{"type":"Feature","geometry":{"type":"LineString","coordinates":[[6.516611,49.80821],[6.516575,49.80813]]},"properties":{"name":"Bahnhofstraße","way_id":"438778369","highway":"residential","edgeid":306,"vertex1":269,"vertex2":266}},{"type":"Feature","geometry":{"type":"LineString","coordinates":[[6.516326,49.80978],[6.51634,49.80972],[6.516393,49.80963],[6.516495,49.80955],[6.516654,49.80948],[6.51689,49.80942],[6.517037,49.80938],[6.517145,49.80934]]},"properties":{"name":"Bahnhofstraße","way_id":"438776627","highway":"residential","edgeid":305,"vertex1":270,"vertex2":268}},{"type":"Feature","geometry":{"type":"LineString","coordinates":[[6.507451,49.75551],[6.507524,49.75548]]},"properties":{"way_id":"440367396","highway":"service","edgeid":309,"vertex1":272,"vertex2":99}},{"type":"Feature","geometry":{"type":"LineString","coordinates":[[6.512877,49.78563],[6.512055,49.78589],[6.511502,49.78607],[6.510932,49.78626],[6.510335,49.78647],[6.509603,49.78679],[6.50915,49.78701],[6.509093,49.7871],[6.509012,49.78719],[6.508893,49.78728]]},"properties":{"way_id":"440367404","highway":"service","edgeid":311,"vertex1":273,"vertex2":221}},{"type":"Feature","geometry":{"type":"LineString","coordinates":[[6.507144,49.80186],[6.507094,49.80198]]},"properties":{"tunnel":"building_passage","way_id":"486349940","oneway":"yes","highway":"service","edgeid":320,"vertex1":274,"vertex2":275}},{"type":"Feature","geometry":{"type":"LineString","coordinates":[[6.507094,49.80198],[6.50708,49.80201],[6.50697,49.80202]]},"properties":{"way_id":"486349948","oneway":"yes","highway":"service","edgeid":329,"vertex1":275,"vertex2":279}},{"type":"Feature","geometry":{"type":"LineString","coordinates":[[6.506392,49.80616],[6.506154,49.80636]]},"properties":{"way_id":"486349942","highway":"service","edgeid":322,"vertex1":276,"vertex2":277}},{"type":"Feature","geometry":{"type":"LineString","coordinates":[[6.506392,49.80616],[6.506498,49.80604],[6.506608,49.80593],[6.506637,49.8059]]},"properties":{"way_id":"486349949","oneway":"yes","highway":"service","edgeid":330,"vertex1":276,"vertex2":46}},{"type":"Feature","geometry":{"type":"LineString","coordinates":[[6.507473,49.80192],[6.50746,49.80195],[6.507453,49.80198],[6.507452,49.80201],[6.507468,49.80209],[6.507453,49.80212],[6.507425,49.80213],[6.507382,49.80214],[6.507314,49.80213],[6.507035,49.80208],[6.506988,49.80205],[6.50697,49.80202]]},"properties":{"way_id":"486349944","oneway":"yes","highway":"service","edgeid":323,"vertex1":278,"vertex2":279}},{"type":"Feature","geometry":{"type":"LineString","coordinates":[[6.50697,49.80202],[6.506979,49.80193],[6.507099,49.80166],[6.507118,49.80164],[6.507135,49.80162],[6.507167,49.80161],[6.507189,49.80161]]},"properties":{"way_id":"486349944","oneway":"yes","highway":"service","edgeid":324,"vertex1":279,"vertex2":280}},{"type":"Feature","geometry":{"type":"LineString","coordinates":[[6.507189,49.80161],[6.507202,49.80161],[6.50723,49.80163],[6.507237,49.80166],[6.507144,49.80186]]},"properties":{"way_id":"486349944","oneway":"yes","highway":"service","edgeid":325,"vertex1":280,"vertex2":274}},{"type":"Feature","geometry":{"type":"LineString","coordinates":[[6.507189,49.80161],[6.507213,49.80156]]},"properties":{"way_id":"486349946","highway":"service","edgeid":326,"vertex1":280,"vertex2":281}},{"type":"Feature","geometry":{"type":"LineString","coordinates":[[6.507213,49.80156],[6.507061,49.80153]]},"properties":{"way_id":"486349946","highway":"service","edgeid":327,"vertex1":281,"vertex2":12}},{"type":"Feature","geometry":{"type":"LineString","coordinates":[[6.507213,49.80156],[6.507598,49.80165],[6.507473,49.80192]]},"properties":{"way_id":"486349947","highway":"service","edgeid":328,"vertex1":281,"vertex2":278}}]}