{"type":"FeatureCollection","features":[{"type":"Feature","geometry":{"type":"LineString","coordinates":[[6.503906,49.72448],[6.679688,49.72448],[6.679688,49.61071],[6.503906,49.61071],[6.503906,49.72448]]},"properties":{"id":"1428517","zoom":"11"}},{"type":"Feature","geometry":{"type":"LineString","coordinates":[[6.504435,49.71452],[6.504498,49.71452]]},"properties":{"name":"Grand-Rue","way_id":"6073456","highway":"primary","maxspeed":"50","edgeid":1,"vertex1":0,"vertex2":1}},{"type":"Feature","geometry":{"type":"LineString","coordinates":[[6.504498,49.71452],[6.504604,49.71451],[6.505018,49.71446],[6.505272,49.71442],[6.505458,49.71439]]},"properties":{"name":"Grand-Rue","way_id":"6073456","highway":"primary","maxspeed":"50","edgeid":2,"vertex1":1,"vertex2":2}},{"type":"Feature","geometry":{"type":"LineString","coordinates":[[6.504498,49.71452],[6.504487,49.71429]]},"properties":{"way_id":"487191134","highway":"service","edgeid":73,"vertex1":1,"vertex2":58}},{"type":"Feature","geometry":{"type":"LineString","coordinates":[[6.505458,49.71439],[6.505452,49.71432],[6.505455,49.71426]]},"properties":{"name":"Rue des Ponts","way_id":"10755221","maxspeed":"50","highway":"secondary","edgeid":9,"vertex1":2,"vertex2":11}},{"type":"Feature","geometry":{"type":"LineString","coordinates":[[6.505458,49.71439],[6.505578,49.71437],[6.505702,49.71437],[6.505865,49.71437],[6.506081,49.71436]]},"properties":{"name":"Grand-Rue","way_id":"30243757","highway":"primary","maxspeed":"50","edgeid":18,"vertex1":2,"vertex2":9}},{"type":"Feature","geometry":{"type":"LineString","coordinates":[[6.50717,49.71429],[6.507297,49.71421],[6.507362,49.71412]]},"properties":{"name":"Moselstraße","way_id":"8067983","highway":"primary","maxspeed":"30","edgeid":3,"vertex1":3,"vertex2":4}},{"type":"Feature","geometry":{"type":"LineString","coordinates":[[6.50717,49.71429],[6.507229,49.71434],[6.507285,49.71442],[6.507324,49.71458]]},"properties":{"way_id":"24612369","highway":"primary","edgeid":12,"vertex1":3,"vertex2":13}},{"type":"Feature","geometry":{"type":"LineString","coordinates":[[6.507362,49.71412],[6.507399,49.714],[6.507444,49.71383],[6.5075,49.71365],[6.50769,49.71337],[6.507813,49.71326],[6.507963,49.71318],[6.508609,49.713],[6.509295,49.71276],[6.50962,49.71263],[6.509801,49.71257],[6.510021,49.71253],[6.510454,49.71241],[6.510771,49.71234],[6.511131,49.7123]]},"properties":{"name":"Moselstraße","way_id":"8067983","highway":"primary","maxspeed":"30","edgeid":4,"vertex1":4,"vertex2":5}},{"type":"Feature","geometry":{"type":"LineString","coordinates":[[6.507362,49.71412],[6.507358,49.71432],[6.507324,49.71458]]},"properties":{"way_id":"329892595","oneway":"yes","highway":"primary_link","edgeid":52,"vertex1":4,"vertex2":13}},{"type":"Feature","geometry":{"type":"LineString","coordinates":[[6.509447,49.71062],[6.50876,49.71083],[6.508304,49.71103],[6.507728,49.71134],[6.507101,49.71173],[6.50675,49.71192],[6.506721,49.71193],[6.506245,49.7121],[6.505945,49.71217],[6.505182,49.71229]]},"properties":{"name":"Moselstraße","way_id":"9812302","highway":"residential","edgeid":5,"vertex1":6,"vertex2":7}},{"type":"Feature","geometry":{"type":"LineString","coordinates":[[6.505182,49.71229],[6.504497,49.7123],[6.504185,49.71227],[6.503908,49.71224]]},"properties":{"name":"Moselstraße","way_id":"9812302","highway":"residential","edgeid":6,"vertex1":7,"vertex2":8}},{"type":"Feature","geometry":{"type":"LineString","coordinates":[[6.503908,49.71224],[6.503692,49.7122],[6.503257,49.71214]]},"properties":{"name":"Moselstraße","way_id":"9812302","highway":"residential","edgeid":7,"vertex1":8,"vertex2":31}},{"type":"Feature","geometry":{"type":"LineString","coordinates":[[6.503908,49.71224],[6.503902,49.71234],[6.503921,49.71243]]},"properties":{"name":"Fährstraße","way_id":"31045944","highway":"service","edgeid":23,"vertex1":8,"vertex2":22}},{"type":"Feature","geometry":{"type":"LineString","coordinates":[[6.506081,49.71436],[6.507082,49.7143]]},"properties":{"bridge":"yes","way_id":"10755133","highway":"primary","edgeid":8,"vertex1":9,"vertex2":10}},{"type":"Feature","geometry":{"type":"LineString","coordinates":[[6.507082,49.7143],[6.50717,49.71429]]},"properties":{"name":"Moselstraße","way_id":"11777316","highway":"primary","edgeid":11,"vertex1":10,"vertex2":3}},{"type":"Feature","geometry":{"type":"LineString","coordinates":[[6.505455,49.71426],[6.505466,49.71421],[6.50551,49.71414],[6.505548,49.71412],[6.50561,49.7141],[6.506029,49.71402],[6.506094,49.714]]},"properties":{"name":"Rue des Ponts","way_id":"10755221","maxspeed":"50","highway":"secondary","edgeid":10,"vertex1":11,"vertex2":12}},{"type":"Feature","geometry":{"type":"LineString","coordinates":[[6.505455,49.71426],[6.505498,49.71425],[6.50597,49.71416]]},"properties":{"way_id":"41199662","highway":"service","edgeid":33,"vertex1":11,"vertex2":31}},{"type":"Feature","geometry":{"type":"LineString","coordinates":[[6.506094,49.714],[6.506185,49.7147]]},"properties":{"name":"Rue de la Moselle","way_id":"94088905","highway":"residential","edgeid":34,"vertex1":12,"vertex2":27}},{"type":"Feature","geometry":{"type":"LineString","coordinates":[[6.507324,49.71458],[6.507321,49.71541],[6.507276,49.7158],[6.50722,49.716],[6.507125,49.71621],[6.50687,49.71655],[6.506663,49.71677],[6.506453,49.71695],[6.506251,49.71709],[6.504107,49.71843],[6.501882,49.7198],[6.501496,49.72005]]},"properties":{"way_id":"24612369","highway":"primary","edgeid":13,"vertex1":13,"vertex2":112}},{"type":"Feature","geometry":{"type":"LineString","coordinates":[[6.517902,49.72415],[6.517824,49.72433]]},"properties":{"bridge":"yes","way_id":"24619066","highway":"primary","edgeid":14,"vertex1":14,"vertex2":15}},{"type":"Feature","geometry":{"type":"LineString","coordinates":[[6.504471,49.71529],[6.506026,49.71535]]},"properties":{"name":"Rue des Romains","way_id":"26570710","highway":"residential","maxspeed":"30","edgeid":17,"vertex1":16,"vertex2":17}},{"type":"Feature","geometry":{"type":"LineString","coordinates":[[6.504471,49.71529],[6.504472,49.71518],[6.504438,49.7146],[6.504435,49.71452]]},"properties":{"name":"Rue des Sports","way_id":"185162631","oneway":"yes","highway":"residential","maxspeed":"30","edgeid":50,"vertex1":16,"vertex2":0}},{"type":"Feature","geometry":{"type":"LineString","coordinates":[[6.506026,49.71535],[6.506031,49.71469]]},"properties":{"name":"Rue de la Sûre","way_id":"380637121","highway":"residential","maxspeed":"30","edgeid":53,"vertex1":17,"vertex2":28}},{"type":"Feature","geometry":{"type":"LineString","coordinates":[[6.504456,49.71103],[6.504383,49.7111],[6.504142,49.71146],[6.504065,49.71157],[6.504042,49.71163],[6.504017,49.71175],[6.503986,49.71198],[6.503908,49.71224]]},"properties":{"name":"Fährstraße","way_id":"31025961","highway":"residential","edgeid":19,"vertex1":18,"vertex2":8}},{"type":"Feature","geometry":{"type":"LineString","coordinates":[[6.505189,49.71159],[6.505191,49.71181],[6.505192,49.71195],[6.505174,49.71213],[6.505182,49.71229]]},"properties":{"name":"Pützstraße","way_id":"31025962","highway":"residential","edgeid":20,"vertex1":19,"vertex2":7}},{"type":"Feature","geometry":{"type":"LineString","coordinates":[[6.504138,49.71252],[6.504029,49.71349]]},"properties":{"name":"Wasserbillig - Oberbillig","way_id":"31045942","motorcar":"yes","route":"ferry","edgeid":21,"vertex1":20,"vertex2":21}},{"type":"Feature","geometry":{"type":"LineString","coordinates":[[6.503921,49.71243],[6.504138,49.71252]]},"properties":{"name":"Fährstraße","way_id":"31045944","highway":"service","edgeid":24,"vertex1":22,"vertex2":20}},{"type":"Feature","geometry":{"type":"LineString","coordinates":[[6.505816,49.72385],[6.506468,49.72369],[6.506973,49.72346],[6.507447,49.72318],[6.507696,49.72303],[6.508024,49.72279],[6.509553,49.72115],[6.50986,49.72083],[6.510148,49.72055],[6.510437,49.72035],[6.51086,49.7202],[6.511215,49.72012],[6.511522,49.72008],[6.512037,49.72008],[6.512788,49.7202],[6.513998,49.72061],[6.515517,49.72128],[6.516468,49.72185],[6.517335,49.72255],[6.517841,49.72334],[6.517987,49.72396],[6.517902,49.72415]]},"properties":{"way_id":"238173030","highway":"primary","edgeid":51,"vertex1":23,"vertex2":14}},{"type":"Feature","geometry":{"type":"LineString","coordinates":[[6.513432,49.71161],[6.512877,49.71159],[6.512234,49.71163],[6.511453,49.71173],[6.510283,49.71202],[6.509077,49.71246],[6.508058,49.71294],[6.507907,49.71305],[6.507663,49.71321],[6.507402,49.71351],[6.507276,49.71369]]},"properties":{"way_id":"34915962","highway":"track","edgeid":27,"vertex1":25,"vertex2":26}},{"type":"Feature","geometry":{"type":"LineString","coordinates":[[6.506185,49.7147],[6.506031,49.71469]]},"properties":{"way_id":"35170020","oneway":"yes","highway":"residential","edgeid":28,"vertex1":27,"vertex2":28}},{"type":"Feature","geometry":{"type":"LineString","coordinates":[[6.506031,49.71469],[6.506018,49.71454],[6.505939,49.71451],[6.50553,49.71447],[6.505458,49.71439]]},"properties":{"way_id":"35170020","oneway":"yes","highway":"residential","edgeid":29,"vertex1":28,"vertex2":2}},{"type":"Feature","geometry":{"type":"LineString","coordinates":[[6.504828,49.71366],[6.505053,49.71366],[6.505921,49.71363],[6.506021,49.71366]]},"properties":{"name":"Rue de la Moselle","way_id":"39598209","maxspeed":"50","highway":"secondary","edgeid":31,"vertex1":29,"vertex2":30}},{"type":"Feature","geometry":{"type":"LineString","coordinates":[[6.504828,49.71366],[6.505019,49.71358],[6.505857,49.71354],[6.506021,49.71366]]},"properties":{"way_id":"170753854","highway":"service","edgeid":43,"vertex1":29,"vertex2":30}},{"type":"Feature","geometry":{"type":"LineString","coordinates":[[6.506021,49.71366],[6.506069,49.71371],[6.506114,49.71384],[6.506142,49.71392],[6.506127,49.71397],[6.506094,49.714]]},"properties":{"name":"Rue de la Moselle","way_id":"39598209","maxspeed":"50","highway":"secondary","edgeid":32,"vertex1":30,"vertex2":12}},{"type":"Feature","geometry":{"type":"LineString","coordinates":[[6.511125,49.72339],[6.510942,49.72337],[6.510752,49.72335],[6.510332,49.72335],[6.510107,49.72337],[6.509808,49.7234],[6.509626,49.72343],[6.509163,49.72353]]},"properties":{"way_id":"124186264","maxspeed":"90","highway":"primary","edgeid":37,"vertex1":33,"vertex2":34}},{"type":"Feature","geometry":{"type":"LineString","coordinates":[[6.511125,49.72339],[6.511173,49.72336],[6.51122,49.72332]]},"properties":{"way_id":"133407978","highway":"track","edgeid":40,"vertex1":33,"vertex2":35}},{"type":"Feature","geometry":{"type":"LineString","coordinates":[[6.509163,49.72353],[6.50885,49.72363],[6.508568,49.72374],[6.50827,49.72388],[6.508039,49.72402],[6.507795,49.7242],[6.507667,49.72431],[6.507556,49.72442],[6.506962,49.72522],[6.506768,49.72543],[6.506683,49.72551],[6.506433,49.72573],[6.506252,49.72587],[6.506055,49.72599],[6.505836,49.72612]]},"properties":{"way_id":"433262250","maxspeed":"90","highway":"primary","edgeid":54,"vertex1":34,"vertex2":153}},{"type":"Feature","geometry":{"type":"LineString","coordinates":[[6.51122,49.72332],[6.511456,49.72336]]},"properties":{"way_id":"133407975","highway":"track","edgeid":38,"vertex1":35,"vertex2":36}},{"type":"Feature","geometry":{"type":"LineString","coordinates":[[6.511456,49.72336],[6.511671,49.72323],[6.513043,49.72234]]},"properties":{"way_id":"133407977","highway":"track","edgeid":39,"vertex1":36,"vertex2":37}},{"type":"Feature","geometry":{"type":"LineString","coordinates":[[6.512743,49.72398],[6.5129,49.72392],[6.513015,49.72387],[6.513135,49.72382]]},"properties":{"way_id":"133408212","highway":"track","edgeid":41,"vertex1":38,"vertex2":39}},{"type":"Feature","geometry":{"type":"LineString","coordinates":[[6.512743,49.72398],[6.512433,49.72374],[6.512283,49.72366],[6.512113,49.72357],[6.511956,49.72351],[6.511781,49.72345],[6.511456,49.72336]]},"properties":{"way_id":"133408213","highway":"track","edgeid":42,"vertex1":38,"vertex2":36}},{"type":"Feature","geometry":{"type":"LineString","coordinates":[[6.513135,49.72382],[6.515194,49.72293]]},"properties":{"way_id":"171134436","highway":"track","edgeid":44,"vertex1":39,"vertex2":40}},{"type":"Feature","geometry":{"type":"LineString","coordinates":[[6.506135,49.71765],[6.506103,49.71761]]},"properties":{"name":"Brüderwies","way_id":"175053182","highway":"unclassified","edgeid":47,"vertex1":41,"vertex2":42}},{"type":"Feature","geometry":{"type":"LineString","coordinates":[[6.506103,49.71761],[6.506047,49.71755],[6.506005,49.7175],[6.506002,49.71745],[6.506026,49.71741],[6.506088,49.71741],[6.506146,49.71743],[6.506173,49.71747],[6.506182,49.71753],[6.506161,49.7176]]},"properties":{"name":"Brüderwies","way_id":"175053182","highway":"unclassified","edgeid":48,"vertex1":42,"vertex2":43}},{"type":"Feature","geometry":{"type":"LineString","coordinates":[[6.506161,49.7176],[6.506135,49.71765]]},"properties":{"name":"Brüderwies","way_id":"175053182","highway":"unclassified","edgeid":49,"vertex1":43,"vertex2":41}},{"type":"Feature","geometry":{"type":"LineString","coordinates":[[6.511827,49.724],[6.512084,49.72412],[6.512256,49.72421],[6.512465,49.72428],[6.512569,49.72433]]},"properties":{"way_id":"433262273","highway":"track","edgeid":55,"vertex1":44,"vertex2":45}},{"type":"Feature","geometry":{"type":"LineString","coordinates":[[6.511827,49.724],[6.511486,49.72379],[6.511148,49.72367],[6.510696,49.72356],[6.510453,49.72353],[6.510208,49.72351],[6.509655,49.72348],[6.509163,49.72353]]},"properties":{"way_id":"433262278","highway":"track","edgeid":56,"vertex1":44,"vertex2":34}},{"type":"Feature","geometry":{"type":"LineString","coordinates":[[6.505316,49.71629],[6.505199,49.71624]]},"properties":{"way_id":"441991676","highway":"service","maxspeed":"5","edgeid":57,"vertex1":46,"vertex2":47}},{"type":"Feature","geometry":{"type":"LineString","coordinates":[[6.505199,49.71624],[6.505087,49.71636],[6.504954,49.71648],[6.504879,49.71654],[6.504802,49.71659],[6.504676,49.71668],[6.504471,49.71681],[6.504414,49.71683],[6.504371,49.71683],[6.50433,49.71682],[6.504276,49.71679]]},"properties":{"way_id":"441991677","highway":"service","maxspeed":"5","edgeid":60,"vertex1":47,"vertex2":50}},{"type":"Feature","geometry":{"type":"LineString","coordinates":[[6.505824,49.71555],[6.505686,49.71572],[6.50568,49.71572]]},"properties":{"way_id":"441991677","highway":"service","maxspeed":"5","edgeid":58,"vertex1":48,"vertex2":49}},{"type":"Feature","geometry":{"type":"LineString","coordinates":[[6.505824,49.71555],[6.505894,49.71555]]},"properties":{"way_id":"441991680","highway":"service","maxspeed":"5","edgeid":67,"vertex1":48,"vertex2":55}},{"type":"Feature","geometry":{"type":"LineString","coordinates":[[6.50568,49.71572],[6.505607,49.71581],[6.505224,49.71622],[6.505199,49.71624]]},"properties":{"way_id":"441991677","highway":"service","maxspeed":"5","edgeid":59,"vertex1":49,"vertex2":47}},{"type":"Feature","geometry":{"type":"LineString","coordinates":[[6.50568,49.71572],[6.505717,49.71574],[6.505894,49.71555]]},"properties":{"way_id":"441991681","highway":"service","maxspeed":"5","edgeid":71,"vertex1":49,"vertex2":55}},{"type":"Feature","geometry":{"type":"LineString","coordinates":[[6.504276,49.71679],[6.504112,49.71671],[6.503946,49.71663]]},"properties":{"way_id":"441991677","highway":"service","maxspeed":"5","edgeid":61,"vertex1":50,"vertex2":51}},{"type":"Feature","geometry":{"type":"LineString","coordinates":[[6.504276,49.71679],[6.505418,49.71562]]},"properties":{"way_id":"441991680","highway":"service","maxspeed":"5","edgeid":65,"vertex1":50,"vertex2":54}},{"type":"Feature","geometry":{"type":"LineString","coordinates":[[6.503946,49.71663],[6.503866,49.71658],[6.503772,49.7165]]},"properties":{"way_id":"441991677","highway":"service","maxspeed":"5","edgeid":62,"vertex1":51,"vertex2":253}},{"type":"Feature","geometry":{"type":"LineString","coordinates":[[6.504563,49.71604],[6.504507,49.71607],[6.504459,49.7161],[6.504396,49.71616],[6.503946,49.71663]]},"properties":{"way_id":"441991678","highway":"service","maxspeed":"5","edgeid":63,"vertex1":52,"vertex2":51}},{"type":"Feature","geometry":{"type":"LineString","coordinates":[[6.505776,49.71592],[6.505617,49.71614],[6.505488,49.71627],[6.505429,49.71629],[6.505364,49.7163],[6.505316,49.71629]]},"properties":{"way_id":"441991679","highway":"service","maxspeed":"5","edgeid":64,"vertex1":53,"vertex2":46}},{"type":"Feature","geometry":{"type":"LineString","coordinates":[[6.505418,49.71562],[6.505502,49.71553],[6.505824,49.71555]]},"properties":{"way_id":"441991680","highway":"service","maxspeed":"5","edgeid":66,"vertex1":54,"vertex2":48}},{"type":"Feature","geometry":{"type":"LineString","coordinates":[[6.505418,49.71562],[6.50568,49.71572]]},"properties":{"way_id":"441991681","highway":"service","maxspeed":"5","edgeid":70,"vertex1":54,"vertex2":49}},{"type":"Feature","geometry":{"type":"LineString","coordinates":[[6.505894,49.71555],[6.506231,49.71556]]},"properties":{"way_id":"441991680","highway":"service","maxspeed":"5","edgeid":68,"vertex1":55,"vertex2":56}},{"type":"Feature","geometry":{"type":"LineString","coordinates":[[6.505894,49.71555],[6.505927,49.71551],[6.505449,49.71549],[6.505409,49.71554],[6.505445,49.71555],[6.50539,49.71561]]},"properties":{"way_id":"441991681","highway":"service","maxspeed":"5","edgeid":72,"vertex1":55,"vertex2":57}},{"type":"Feature","geometry":{"type":"LineString","coordinates":[[6.50539,49.71561],[6.505418,49.71562]]},"properties":{"way_id":"441991681","highway":"service","maxspeed":"5","edgeid":69,"vertex1":57,"vertex2":54}}]}