{"type":"FeatureCollection","features":[{"type":"Feature","geometry":{"type":"LineString","coordinates":[[5.800781,49.49667],[5.976563,49.49667],[5.976563,49.38237],[5.800781,49.38237],[5.800781,49.49667]]},"properties":{"id":"1432609","zoom":"11"}},{"type":"Feature","geometry":{"type":"LineString","coordinates":[[5.968589,49.49566],[5.968667,49.49562],[5.968788,49.49556],[5.968902,49.4955],[5.969048,49.49539],[5.969447,49.49516],[5.969578,49.4951],[5.969957,49.49495],[5.970266,49.49485],[5.970484,49.49475],[5.970676,49.49465],[5.970816,49.49456],[5.970948,49.49448]]},"properties":{"name":"Boulevard Prince Henri","way_id":"23025393","oneway":"yes","highway":"primary","maxspeed":"50","edgeid":0,"vertex1":0,"vertex2":1}},{"type":"Feature","geometry":{"type":"LineString","coordinates":[[5.968589,49.49566],[5.96866,49.49567],[5.968722,49.49569],[5.96877,49.49573]]},"properties":{"way_id":"377211624","highway":"primary","maxspeed":"50","junction":"roundabout","edgeid":319,"vertex1":0,"vertex2":108}},{"type":"Feature","geometry":{"type":"LineString","coordinates":[[5.970948,49.49448],[5.971136,49.49438],[5.971335,49.49429],[5.972292,49.49389],[5.972825,49.4936],[5.97284,49.49356],[5.972836,49.4935]]},"properties":{"name":"Boulevard Prince Henri","way_id":"23025393","oneway":"yes","highway":"primary","maxspeed":"50","edgeid":1,"vertex1":1,"vertex2":2}},{"type":"Feature","geometry":{"type":"LineString","coordinates":[[5.972836,49.4935],[5.972786,49.49347],[5.972752,49.49343]]},"properties":{"name":"Rond-Point Um Däich","way_id":"377211623","highway":"primary","maxspeed":"50","junction":"roundabout","edgeid":318,"vertex1":2,"vertex2":72}},{"type":"Feature","geometry":{"type":"LineString","coordinates":[[5.974787,49.49177],[5.974425,49.49221]]},"properties":{"way_id":"23025426","highway":"primary","maxspeed":"50","edgeid":2,"vertex1":3,"vertex2":4}},{"type":"Feature","geometry":{"type":"LineString","coordinates":[[5.974787,49.49177],[5.974832,49.49172]]},"properties":{"name":"Boulevard Prince Henri","way_id":"28023904","highway":"primary","maxspeed":"50","edgeid":76,"vertex1":3,"vertex2":82}},{"type":"Feature","geometry":{"type":"LineString","coordinates":[[5.974425,49.49221],[5.97421,49.49245]]},"properties":{"way_id":"23025426","highway":"primary","maxspeed":"50","edgeid":3,"vertex1":4,"vertex2":5}},{"type":"Feature","geometry":{"type":"LineString","coordinates":[[5.974425,49.49221],[5.975589,49.49258],[5.976001,49.49271]]},"properties":{"name":"Rue Louis Pasteur","way_id":"23964829","highway":"residential","edgeid":33,"vertex1":4,"vertex2":44}},{"type":"Feature","geometry":{"type":"LineString","coordinates":[[5.97421,49.49245],[5.973945,49.49274]]},"properties":{"way_id":"23025426","highway":"primary","maxspeed":"50","edgeid":4,"vertex1":5,"vertex2":6}},{"type":"Feature","geometry":{"type":"LineString","coordinates":[[5.97421,49.49245],[5.97399,49.49237]]},"properties":{"way_id":"363829475","oneway":"yes","highway":"service","edgeid":295,"vertex1":5,"vertex2":260}},{"type":"Feature","geometry":{"type":"LineString","coordinates":[[5.973945,49.49274],[5.973869,49.49284]]},"properties":{"way_id":"23025426","highway":"primary","maxspeed":"50","edgeid":5,"vertex1":6,"vertex2":7}},{"type":"Feature","geometry":{"type":"LineString","coordinates":[[5.973945,49.49274],[5.97629,49.49338]]},"properties":{"name":"Rue Caspar-Mathias Spoo","way_id":"23964857","highway":"residential","oneway":"-1","edgeid":34,"vertex1":6,"vertex2":45}},{"type":"Feature","geometry":{"type":"LineString","coordinates":[[5.973869,49.49284],[5.973631,49.49311],[5.97352,49.49323],[5.973391,49.49332],[5.973235,49.49337]]},"properties":{"way_id":"96260469","oneway":"yes","highway":"primary","maxspeed":"50","edgeid":99,"vertex1":7,"vertex2":107}},{"type":"Feature","geometry":{"type":"LineString","coordinates":[[5.972991,49.49353],[5.972941,49.49359],[5.972867,49.49364],[5.972813,49.49367]]},"properties":{"name":"Boulevard Prince Henri","way_id":"23025438","oneway":"yes","highway":"primary","maxspeed":"50","edgeid":6,"vertex1":8,"vertex2":9}},{"type":"Feature","geometry":{"type":"LineString","coordinates":[[5.972991,49.49353],[5.972909,49.49352],[5.972836,49.4935]]},"properties":{"name":"Rond-Point Um Däich","way_id":"377211622","highway":"primary","maxspeed":"50","junction":"roundabout","edgeid":317,"vertex1":8,"vertex2":2}},{"type":"Feature","geometry":{"type":"LineString","coordinates":[[5.972813,49.49367],[5.972861,49.49378],[5.972847,49.49394],[5.972506,49.49459]]},"properties":{"name":"Rue de Stalingrad","way_id":"24432289","oneway":"yes","highway":"residential","maxspeed":"30","edgeid":67,"vertex1":9,"vertex2":53}},{"type":"Feature","geometry":{"type":"LineString","coordinates":[[5.972813,49.49367],[5.972316,49.49394],[5.971379,49.49433],[5.971002,49.49452],[5.970684,49.4947],[5.970439,49.49483]]},"properties":{"name":"Boulevard Prince Henri","way_id":"96623193","oneway":"yes","highway":"primary","maxspeed":"50","edgeid":101,"vertex1":9,"vertex2":54}},{"type":"Feature","geometry":{"type":"LineString","coordinates":[[5.968636,49.49598],[5.968532,49.49608],[5.968443,49.49621],[5.968322,49.49648]]},"properties":{"name":"Rue du 1er Mai","way_id":"23025447","highway":"primary","maxspeed":"50","edgeid":7,"vertex1":10,"vertex2":11}},{"type":"Feature","geometry":{"type":"LineString","coordinates":[[5.968636,49.49598],[5.968566,49.49599],[5.968496,49.49599],[5.96843,49.49597],[5.968372,49.49594],[5.968324,49.4959]]},"properties":{"way_id":"377211624","highway":"primary","maxspeed":"50","junction":"roundabout","edgeid":321,"vertex1":10,"vertex2":266}},{"type":"Feature","geometry":{"type":"LineString","coordinates":[[5.968322,49.49648],[5.968351,49.49631],[5.968383,49.49619],[5.9684,49.49608],[5.968386,49.496],[5.968324,49.4959]]},"properties":{"name":"Rue du 1er Mai","way_id":"369587877","oneway":"yes","highway":"primary","maxspeed":"50","edgeid":304,"vertex1":11,"vertex2":266}},{"type":"Feature","geometry":{"type":"LineString","coordinates":[[5.968322,49.49648],[5.968297,49.49658],[5.968276,49.49672],[5.968256,49.49691],[5.968223,49.49714]]},"properties":{"way_id":"370069643","highway":"primary","maxspeed":"50","edgeid":307,"vertex1":11,"vertex2":3067}},{"type":"Feature","geometry":{"type":"LineString","coordinates":[[5.973164,49.49326],[5.973268,49.49327],[5.973354,49.49325],[5.973496,49.49314],[5.973568,49.49309]]},"properties":{"way_id":"23056595","oneway":"yes","highway":"primary","maxspeed":"50","edgeid":8,"vertex1":12,"vertex2":13}},{"type":"Feature","geometry":{"type":"LineString","coordinates":[[5.973164,49.49326],[5.973202,49.49329],[5.973226,49.49333]]},"properties":{"name":"Rond-Point Um Däich","way_id":"382489364","highway":"primary","maxspeed":"50","junction":"roundabout","edgeid":328,"vertex1":12,"vertex2":269}},{"type":"Feature","geometry":{"type":"LineString","coordinates":[[5.973568,49.49309],[5.973605,49.49306],[5.973869,49.49284]]},"properties":{"way_id":"23056595","oneway":"yes","highway":"primary","maxspeed":"50","edgeid":9,"vertex1":13,"vertex2":7}},{"type":"Feature","geometry":{"type":"LineString","coordinates":[[5.968289,49.4864],[5.967183,49.48581],[5.966568,49.4854],[5.96611,49.48504],[5.965763,49.48475]]},"properties":{"way_id":"23165585","maxspeed":"90","highway":"primary","edgeid":10,"vertex1":14,"vertex2":15}},{"type":"Feature","geometry":{"type":"LineString","coordinates":[[5.968289,49.4864],[5.969042,49.48681],[5.97023,49.4876],[5.971074,49.48826],[5.971327,49.48838],[5.9718,49.48853],[5.973719,49.48905]]},"properties":{"way_id":"23964301","maxspeed":"90","highway":"primary","edgeid":22,"vertex1":14,"vertex2":29}},{"type":"Feature","geometry":{"type":"LineString","coordinates":[[5.965763,49.48475],[5.965619,49.48458],[5.965576,49.48452],[5.965566,49.48444],[5.965644,49.48418]]},"properties":{"way_id":"23165585","maxspeed":"90","highway":"primary","edgeid":11,"vertex1":15,"vertex2":16}},{"type":"Feature","geometry":{"type":"LineString","coordinates":[[5.965763,49.48475],[5.965678,49.48486],[5.965729,49.4852],[5.965875,49.48548],[5.965889,49.48552]]},"properties":{"way_id":"184937877","highway":"service","edgeid":141,"vertex1":15,"vertex2":139}},{"type":"Feature","geometry":{"type":"LineString","coordinates":[[5.965644,49.48418],[5.965644,49.48418],[5.965618,49.48402],[5.965479,49.48384],[5.96525,49.4836]]},"properties":{"way_id":"23165585","maxspeed":"90","highway":"primary","edgeid":12,"vertex1":16,"vertex2":17}},{"type":"Feature","geometry":{"type":"LineString","coordinates":[[5.97597,49.48515],[5.976055,49.48669]]},"properties":{"name":"Rue des Mines","way_id":"23963146","highway":"residential","edgeid":13,"vertex1":18,"vertex2":19}},{"type":"Feature","geometry":{"type":"LineString","coordinates":[[5.97597,49.48515],[5.975955,49.48496],[5.97627,49.48495]]},"properties":{"name":"Place des Mines","way_id":"24032736","highway":"residential","edgeid":64,"vertex1":18,"vertex2":28}},{"type":"Feature","geometry":{"type":"LineString","coordinates":[[5.976055,49.48669],[5.976069,49.48699]]},"properties":{"name":"Rue des Mines","way_id":"362363814","highway":"residential","edgeid":252,"vertex1":19,"vertex2":20}},{"type":"Feature","geometry":{"type":"LineString","coordinates":[[5.976069,49.48699],[5.976089,49.48741],[5.976027,49.48756]]},"properties":{"name":"Rue des Mines","way_id":"362363814","highway":"residential","edgeid":253,"vertex1":20,"vertex2":229}},{"type":"Feature","geometry":{"type":"LineString","coordinates":[[5.976171,49.48418],[5.976754,49.48446]]},"properties":{"name":"Rue Pierre Kersch","way_id":"23963176","highway":"residential","edgeid":15,"vertex1":21,"vertex2":37}},{"type":"Feature","geometry":{"type":"LineString","coordinates":[[5.968934,49.48586],[5.968918,49.4858],[5.96932,49.48525]]},"properties":{"name":"Kazebierg","way_id":"23964094","highway":"residential","edgeid":16,"vertex1":22,"vertex2":23}},{"type":"Feature","geometry":{"type":"LineString","coordinates":[[5.968934,49.48586],[5.968891,49.48584],[5.968266,49.48562]]},"properties":{"way_id":"37815489","highway":"track","edgeid":86,"vertex1":22,"vertex2":91}},{"type":"Feature","geometry":{"type":"LineString","coordinates":[[5.96932,49.48525],[5.969885,49.48466]]},"properties":{"name":"Kazebierg","way_id":"23964094","highway":"residential","edgeid":17,"vertex1":23,"vertex2":24}},{"type":"Feature","geometry":{"type":"LineString","coordinates":[[5.96932,49.48525],[5.969779,49.48542],[5.970163,49.4855],[5.970551,49.48561],[5.971438,49.48582]]},"properties":{"name":"Rue de la Lorraine","way_id":"23964098","highway":"residential","edgeid":18,"vertex1":23,"vertex2":25}},{"type":"Feature","geometry":{"type":"LineString","coordinates":[[5.971438,49.48582],[5.97123,49.48632]]},"properties":{"name":"Rue de la Lorraine","way_id":"23964098","highway":"residential","edgeid":19,"vertex1":25,"vertex2":26}},{"type":"Feature","geometry":{"type":"LineString","coordinates":[[5.971438,49.48582],[5.971521,49.48563]]},"properties":{"way_id":"23964101","highway":"residential","edgeid":20,"vertex1":25,"vertex2":27}},{"type":"Feature","geometry":{"type":"LineString","coordinates":[[5.97123,49.48632],[5.96987,49.4861],[5.969289,49.48596],[5.968934,49.48586]]},"properties":{"name":"Rue Barbourg","way_id":"362363794","highway":"residential","edgeid":247,"vertex1":26,"vertex2":22}},{"type":"Feature","geometry":{"type":"LineString","coordinates":[[5.971521,49.48563],[5.971591,49.48541]]},"properties":{"way_id":"399133728","highway":"service","edgeid":336,"vertex1":27,"vertex2":196}},{"type":"Feature","geometry":{"type":"LineString","coordinates":[[5.97627,49.48495],[5.976754,49.48446]]},"properties":{"name":"Rue des Mineurs","way_id":"23964109","highway":"residential","edgeid":21,"vertex1":28,"vertex2":37}},{"type":"Feature","geometry":{"type":"LineString","coordinates":[[5.97627,49.48495],[5.976389,49.48495],[5.976404,49.48513]]},"properties":{"name":"Place des Mines","way_id":"24032736","highway":"residential","edgeid":65,"vertex1":28,"vertex2":71}},{"type":"Feature","geometry":{"type":"LineString","coordinates":[[5.973719,49.48905],[5.973902,49.48907],[5.974223,49.48909]]},"properties":{"name":"Rue d'Audun","way_id":"331455979","highway":"primary","maxspeed":"50","edgeid":234,"vertex1":29,"vertex2":104}},{"type":"Feature","geometry":{"type":"LineString","coordinates":[[5.97527,49.48903],[5.975253,49.48907],[5.975218,49.4891],[5.97517,49.48913]]},"properties":{"way_id":"23964306","highway":"primary","maxspeed":"50","junction":"roundabout","edgeid":23,"vertex1":30,"vertex2":31}},{"type":"Feature","geometry":{"type":"LineString","coordinates":[[5.97527,49.48903],[5.975397,49.48909],[5.975549,49.48913]]},"properties":{"name":"Rue d'Audun","way_id":"150248345","oneway":"yes","maxspeed":"50","highway":"tertiary","edgeid":126,"vertex1":30,"vertex2":128}},{"type":"Feature","geometry":{"type":"LineString","coordinates":[[5.97517,49.48913],[5.975132,49.48914],[5.975091,49.48915]]},"properties":{"way_id":"424926870","highway":"primary","maxspeed":"50","junction":"roundabout","edgeid":349,"vertex1":31,"vertex2":32}},{"type":"Feature","geometry":{"type":"LineString","coordinates":[[5.975091,49.48915],[5.975045,49.48925]]},"properties":{"way_id":"23964350","oneway":"yes","highway":"primary","maxspeed":"50","edgeid":24,"vertex1":32,"vertex2":33}},{"type":"Feature","geometry":{"type":"LineString","coordinates":[[5.975091,49.48915],[5.975036,49.48915],[5.974982,49.48915],[5.974932,49.48914]]},"properties":{"way_id":"424926870","highway":"primary","maxspeed":"50","junction":"roundabout","edgeid":350,"vertex1":32,"vertex2":125}},{"type":"Feature","geometry":{"type":"LineString","coordinates":[[5.975045,49.48925],[5.974978,49.48918],[5.974932,49.48914]]},"properties":{"way_id":"150248334","oneway":"yes","highway":"primary","maxspeed":"50","edgeid":121,"vertex1":33,"vertex2":125}},{"type":"Feature","geometry":{"type":"LineString","coordinates":[[5.973099,49.49313],[5.973104,49.49323]]},"properties":{"name":"Rue des Acacias","way_id":"23964378","oneway":"yes","highway":"primary","maxspeed":"50","edgeid":25,"vertex1":34,"vertex2":35}},{"type":"Feature","geometry":{"type":"LineString","coordinates":[[5.973104,49.49323],[5.973135,49.49324],[5.973164,49.49326]]},"properties":{"name":"Rond-Point Um Däich","way_id":"382489364","highway":"primary","maxspeed":"50","junction":"roundabout","edgeid":327,"vertex1":35,"vertex2":12}},{"type":"Feature","geometry":{"type":"LineString","coordinates":[[5.975668,49.48917],[5.975657,49.48926],[5.975624,49.48952],[5.975603,49.48968],[5.975635,49.48975],[5.975599,49.48997],[5.975566,49.49005]]},"properties":{"name":"Avenue des Terres-Rouges","way_id":"23964391","highway":"residential","edgeid":26,"vertex1":36,"vertex2":37}},{"type":"Feature","geometry":{"type":"LineString","coordinates":[[5.975668,49.48917],[5.975541,49.48918],[5.975369,49.48915],[5.97517,49.48913]]},"properties":{"name":"Rue d'Audun","way_id":"150248343","oneway":"yes","maxspeed":"50","highway":"tertiary","edgeid":125,"vertex1":36,"vertex2":31}},{"type":"Feature","geometry":{"type":"LineString","coordinates":[[5.975566,49.49005],[5.975475,49.49028]]},"properties":{"name":"Avenue des Terres-Rouges","way_id":"23964391","highway":"residential","edgeid":27,"vertex1":37,"vertex2":38}},{"type":"Feature","geometry":{"type":"LineString","coordinates":[[5.975475,49.49028],[5.97533,49.49061],[5.975273,49.4907],[5.975238,49.49075],[5.975202,49.4908],[5.97513,49.49088],[5.975099,49.49091]]},"properties":{"name":"Avenue des Terres-Rouges","way_id":"23964391","highway":"residential","edgeid":28,"vertex1":38,"vertex2":39}},{"type":"Feature","geometry":{"type":"LineString","coordinates":[[5.975475,49.49028],[5.9751,49.49025],[5.975143,49.49004]]},"properties":{"way_id":"105449969","oneway":"yes","highway":"service","edgeid":104,"vertex1":38,"vertex2":41}},{"type":"Feature","geometry":{"type":"LineString","coordinates":[[5.975099,49.49091],[5.97478,49.49128]]},"properties":{"name":"Avenue des Terres-Rouges","way_id":"25687152","highway":"service","edgeid":72,"vertex1":39,"vertex2":78}},{"type":"Feature","geometry":{"type":"LineString","coordinates":[[5.974919,49.49003],[5.975143,49.49004]]},"properties":{"way_id":"23964409","highway":"residential","edgeid":29,"vertex1":40,"vertex2":41}},{"type":"Feature","geometry":{"type":"LineString","coordinates":[[5.974919,49.49003],[5.975045,49.48925]]},"properties":{"way_id":"150248335","highway":"primary","maxspeed":"50","edgeid":124,"vertex1":40,"vertex2":33}},{"type":"Feature","geometry":{"type":"LineString","coordinates":[[5.975143,49.49004],[5.975332,49.49005],[5.975566,49.49005]]},"properties":{"way_id":"23964409","highway":"residential","edgeid":30,"vertex1":41,"vertex2":37}},{"type":"Feature","geometry":{"type":"LineString","coordinates":[[5.975942,49.4908],[5.976901,49.49123]]},"properties":{"name":"Rue Zénon Bernard","way_id":"23964769","oneway":"yes","highway":"residential","maxspeed":"30","edgeid":31,"vertex1":42,"vertex2":47}},{"type":"Feature","geometry":{"type":"LineString","coordinates":[[5.975942,49.4908],[5.976345,49.49059],[5.976683,49.49046],[5.97715,49.49033],[5.977598,49.49025],[5.977927,49.49021],[5.978301,49.49019],[5.978581,49.4902],[5.97901,49.49023]]},"properties":{"name":"Boulevard Prince Henri","way_id":"28023904","highway":"primary","maxspeed":"50","edgeid":79,"vertex1":42,"vertex2":779}},{"type":"Feature","geometry":{"type":"LineString","coordinates":[[5.976086,49.49211],[5.974832,49.49172]]},"properties":{"name":"Rue de l'Alzette","way_id":"284983829","highway":"residential","edgeid":190,"vertex1":43,"vertex2":82}},{"type":"Feature","geometry":{"type":"LineString","coordinates":[[5.976001,49.49271],[5.976105,49.49268],[5.976637,49.49284]]},"properties":{"way_id":"285046133","oneway":"yes","highway":"service","edgeid":192,"vertex1":44,"vertex2":2660}},{"type":"Feature","geometry":{"type":"LineString","coordinates":[[5.97629,49.49338],[5.977576,49.49399]]},"properties":{"name":"Rue Caspar-Mathias Spoo","way_id":"23964857","highway":"residential","oneway":"-1","edgeid":35,"vertex1":45,"vertex2":53}},{"type":"Feature","geometry":{"type":"LineString","coordinates":[[5.97629,49.49338],[5.976774,49.49303],[5.976852,49.49298]]},"properties":{"name":"Rue du Brill","way_id":"34347788","oneway":"yes","highway":"residential","edgeid":81,"vertex1":45,"vertex2":912}},{"type":"Feature","geometry":{"type":"LineString","coordinates":[[5.973178,49.49347],[5.975028,49.49392]]},"properties":{"name":"Rue du Canal","way_id":"23964865","highway":"residential","edgeid":36,"vertex1":46,"vertex2":47}},{"type":"Feature","geometry":{"type":"LineString","coordinates":[[5.973178,49.49347],[5.973125,49.4935],[5.973061,49.49353],[5.972991,49.49353]]},"properties":{"name":"Rond-Point Um Däich","way_id":"377211622","highway":"primary","maxspeed":"50","junction":"roundabout","edgeid":316,"vertex1":46,"vertex2":8}},{"type":"Feature","geometry":{"type":"LineString","coordinates":[[5.975028,49.49392],[5.975287,49.49398]]},"properties":{"name":"Rue du Canal","way_id":"23964865","highway":"residential","edgeid":37,"vertex1":47,"vertex2":48}},{"type":"Feature","geometry":{"type":"LineString","coordinates":[[5.975287,49.49398],[5.975627,49.49406]]},"properties":{"name":"Rue du Canal","way_id":"23964865","highway":"residential","edgeid":38,"vertex1":48,"vertex2":49}},{"type":"Feature","geometry":{"type":"LineString","coordinates":[[5.975627,49.49406],[5.976609,49.4943]]},"properties":{"name":"Rue du Canal","way_id":"23964865","highway":"residential","edgeid":39,"vertex1":49,"vertex2":55}},{"type":"Feature","geometry":{"type":"LineString","coordinates":[[5.975627,49.49406],[5.975826,49.49372],[5.97629,49.49338]]},"properties":{"name":"Rue du Brill","way_id":"34347788","oneway":"yes","highway":"residential","edgeid":80,"vertex1":49,"vertex2":45}},{"type":"Feature","geometry":{"type":"LineString","coordinates":[[5.974747,49.49485],[5.974732,49.49487],[5.974493,49.49481]]},"properties":{"name":"Rue des Argentins","way_id":"23977917","highway":"residential","edgeid":40,"vertex1":50,"vertex2":51}},{"type":"Feature","geometry":{"type":"LineString","coordinates":[[5.974747,49.49485],[5.974889,49.49462]]},"properties":{"name":"Rue des Argentins","way_id":"405994024","highway":"residential","edgeid":340,"vertex1":50,"vertex2":272}},{"type":"Feature","geometry":{"type":"LineString","coordinates":[[5.974493,49.49481],[5.975028,49.49392]]},"properties":{"name":"Rue des Champs","way_id":"23977919","highway":"residential","edgeid":42,"vertex1":51,"vertex2":47}},{"type":"Feature","geometry":{"type":"LineString","coordinates":[[5.974254,49.49519],[5.974493,49.49481]]},"properties":{"name":"Rue des Champs","way_id":"23977919","highway":"residential","edgeid":41,"vertex1":52,"vertex2":51}},{"type":"Feature","geometry":{"type":"LineString","coordinates":[[5.972506,49.49459],[5.973333,49.49485],[5.97348,49.49493],[5.974254,49.49519]]},"properties":{"name":"Rue Thomas Edison","way_id":"23977923","highway":"residential","edgeid":43,"vertex1":53,"vertex2":52}},{"type":"Feature","geometry":{"type":"LineString","coordinates":[[5.972506,49.49459],[5.972126,49.49529]]},"properties":{"name":"Rue de Stalingrad","way_id":"370069654","highway":"residential","maxspeed":"30","edgeid":308,"vertex1":53,"vertex2":57}},{"type":"Feature","geometry":{"type":"LineString","coordinates":[[5.970439,49.49483],[5.970996,49.49496]]},"properties":{"name":"Rue Victor Hugo","way_id":"23977937","highway":"residential","edgeid":44,"vertex1":54,"vertex2":55}},{"type":"Feature","geometry":{"type":"LineString","coordinates":[[5.970439,49.49483],[5.970272,49.49489],[5.969967,49.495],[5.969584,49.49515],[5.96946,49.49521],[5.969108,49.49542],[5.96892,49.49556],[5.968861,49.49562],[5.96877,49.49573]]},"properties":{"name":"Boulevard Prince Henri","way_id":"96623193","oneway":"yes","highway":"primary","maxspeed":"50","edgeid":102,"vertex1":54,"vertex2":108}},{"type":"Feature","geometry":{"type":"LineString","coordinates":[[5.970996,49.49496],[5.971597,49.49512]]},"properties":{"name":"Rue Victor Hugo","way_id":"23977937","highway":"residential","edgeid":45,"vertex1":55,"vertex2":56}},{"type":"Feature","geometry":{"type":"LineString","coordinates":[[5.970996,49.49496],[5.970348,49.49599],[5.970201,49.49605],[5.970141,49.49608],[5.970099,49.49612],[5.969803,49.49658],[5.969785,49.49665],[5.969797,49.49671],[5.969807,49.49672],[5.969831,49.49679],[5.969829,49.49683],[5.969817,49.49689],[5.969825,49.49693],[5.969877,49.49697],[5.969948,49.497],[5.97044,49.49713]]},"properties":{"name":"Rue Jean l'Aveugle","way_id":"23978197","highway":"residential","edgeid":57,"vertex1":55,"vertex2":80}},{"type":"Feature","geometry":{"type":"LineString","coordinates":[[5.971597,49.49512],[5.971835,49.4952],[5.972126,49.49529]]},"properties":{"name":"Rue Victor Hugo","way_id":"23977937","highway":"residential","edgeid":46,"vertex1":56,"vertex2":57}},{"type":"Feature","geometry":{"type":"LineString","coordinates":[[5.971597,49.49512],[5.971252,49.49574]]},"properties":{"name":"Rue du Viaduc","way_id":"23978186","highway":"residential","edgeid":55,"vertex1":56,"vertex2":66}},{"type":"Feature","geometry":{"type":"LineString","coordinates":[[5.972126,49.49529],[5.971773,49.49589]]},"properties":{"name":"Place de Stalingrad","way_id":"96623189","highway":"residential","maxspeed":"30","edgeid":100,"vertex1":57,"vertex2":61}},{"type":"Feature","geometry":{"type":"LineString","coordinates":[[5.972126,49.49529],[5.974318,49.49609]]},"properties":{"name":"Rue Victor Hugo","way_id":"96623216","highway":"residential","edgeid":103,"vertex1":57,"vertex2":109}},{"type":"Feature","geometry":{"type":"LineString","coordinates":[[5.974507,49.49585],[5.974819,49.4954],[5.974789,49.49535]]},"properties":{"name":"Rue Jean Jaurès","way_id":"23977952","oneway":"yes","highway":"residential","edgeid":47,"vertex1":58,"vertex2":59}},{"type":"Feature","geometry":{"type":"LineString","coordinates":[[5.974507,49.49585],[5.974405,49.49598]]},"properties":{"name":"Rue Jean Jaurès","way_id":"373627226","highway":"residential","edgeid":309,"vertex1":58,"vertex2":268}},{"type":"Feature","geometry":{"type":"LineString","coordinates":[[5.974507,49.49585],[5.974405,49.49598]]},"properties":{"name":"Place Victor Hugo","way_id":"460847742","highway":"service","edgeid":356,"vertex1":58,"vertex2":268}},{"type":"Feature","geometry":{"type":"LineString","coordinates":[[5.974789,49.49535],[5.974254,49.49519]]},"properties":{"name":"Rue Edison","way_id":"373627229","oneway":"yes","highway":"residential","edgeid":311,"vertex1":59,"vertex2":52}},{"type":"Feature","geometry":{"type":"LineString","coordinates":[[5.973568,49.49662],[5.971899,49.49595],[5.971773,49.49589]]},"properties":{"name":"Rue Abbé Jules Lemire","way_id":"23978009","highway":"residential","edgeid":48,"vertex1":60,"vertex2":61}},{"type":"Feature","geometry":{"type":"LineString","coordinates":[[5.973568,49.49662],[5.973176,49.4968],[5.972901,49.49695],[5.97267,49.49713],[5.972514,49.4973],[5.972464,49.49738]]},"properties":{"name":"Rue Jean Jaurès","way_id":"405994028","highway":"residential","edgeid":346,"vertex1":60,"vertex2":67}},{"type":"Feature","geometry":{"type":"LineString","coordinates":[[5.971773,49.49589],[5.971758,49.49593],[5.97176,49.49601],[5.971783,49.49713],[5.971717,49.49731],[5.971667,49.49741]]},"properties":{"name":"Rue Sidney Thomas","way_id":"23978162","highway":"residential","edgeid":54,"vertex1":61,"vertex2":77}},{"type":"Feature","geometry":{"type":"LineString","coordinates":[[5.971773,49.49589],[5.971715,49.49585],[5.971501,49.4958],[5.971252,49.49574]]},"properties":{"name":"Place de Stalingrad","way_id":"369852257","highway":"residential","edgeid":306,"vertex1":61,"vertex2":66}},{"type":"Feature","geometry":{"type":"LineString","coordinates":[[5.975317,49.4961],[5.97488,49.49596]]},"properties":{"name":"Place Victor Hugo","way_id":"23978027","oneway":"yes","highway":"residential","edgeid":49,"vertex1":62,"vertex2":63}},{"type":"Feature","geometry":{"type":"LineString","coordinates":[[5.975317,49.4961],[5.975194,49.49627]]},"properties":{"name":"Rue Sainte-Barbe","way_id":"23978030","oneway":"yes","highway":"residential","edgeid":51,"vertex1":62,"vertex2":64}},{"type":"Feature","geometry":{"type":"LineString","coordinates":[[5.975317,49.4961],[5.97488,49.49596]]},"properties":{"name":"Place Victor Hugo","way_id":"460847742","highway":"service","edgeid":361,"vertex1":62,"vertex2":63}},{"type":"Feature","geometry":{"type":"LineString","coordinates":[[5.97488,49.49596],[5.974507,49.49585]]},"properties":{"name":"Place Victor Hugo","way_id":"23978027","oneway":"yes","highway":"residential","edgeid":50,"vertex1":63,"vertex2":58}},{"type":"Feature","geometry":{"type":"LineString","coordinates":[[5.97488,49.49596],[5.974507,49.49585]]},"properties":{"name":"Place Victor Hugo","way_id":"460847742","highway":"service","edgeid":362,"vertex1":63,"vertex2":58}},{"type":"Feature","geometry":{"type":"LineString","coordinates":[[5.975194,49.49627],[5.97511,49.49638]]},"properties":{"name":"Rue Sainte-Barbe","way_id":"23978030","oneway":"yes","highway":"residential","edgeid":52,"vertex1":64,"vertex2":65}},{"type":"Feature","geometry":{"type":"LineString","coordinates":[[5.975194,49.49627],[5.975317,49.4961]]},"properties":{"name":"Place Victor Hugo","way_id":"460847742","highway":"service","edgeid":360,"vertex1":64,"vertex2":62}},{"type":"Feature","geometry":{"type":"LineString","coordinates":[[5.97511,49.49638],[5.976414,49.49686]]},"properties":{"name":"Rue Victor Hugo","way_id":"405994026","highway":"residential","edgeid":343,"vertex1":65,"vertex2":68}},{"type":"Feature","geometry":{"type":"LineString","coordinates":[[5.97511,49.49638],[5.975194,49.49627]]},"properties":{"name":"Place Victor Hugo","way_id":"460847742","highway":"service","edgeid":359,"vertex1":65,"vertex2":64}},{"type":"Feature","geometry":{"type":"LineString","coordinates":[[5.971252,49.49574],[5.97044,49.49713]]},"properties":{"name":"Rue du Viaduc","way_id":"23978186","highway":"residential","edgeid":56,"vertex1":66,"vertex2":80}},{"type":"Feature","geometry":{"type":"LineString","coordinates":[[5.969545,49.49522],[5.969537,49.49529],[5.969274,49.49571]]},"properties":{"name":"Rue Henry Bessemer","way_id":"23978203","highway":"residential","edgeid":58,"vertex1":67,"vertex2":68}},{"type":"Feature","geometry":{"type":"LineString","coordinates":[[5.969274,49.49571],[5.969105,49.49596]]},"properties":{"name":"Rue Henry Bessemer","way_id":"23978203","highway":"residential","edgeid":59,"vertex1":68,"vertex2":69}},{"type":"Feature","geometry":{"type":"LineString","coordinates":[[5.969274,49.49571],[5.969089,49.49569],[5.96899,49.49572],[5.968971,49.4958],[5.969054,49.49591],[5.969105,49.49596]]},"properties":{"name":"Rue Henry Bessemer","way_id":"23978235","highway":"residential","edgeid":62,"vertex1":68,"vertex2":69}},{"type":"Feature","geometry":{"type":"LineString","coordinates":[[5.969105,49.49596],[5.968814,49.49646]]},"properties":{"name":"Rue Henry Bessemer","way_id":"23978203","highway":"residential","edgeid":60,"vertex1":69,"vertex2":70}},{"type":"Feature","geometry":{"type":"LineString","coordinates":[[5.968814,49.49646],[5.968403,49.49715]]},"properties":{"name":"Rue Henry Bessemer","way_id":"23978203","highway":"residential","edgeid":61,"vertex1":70,"vertex2":82}},{"type":"Feature","geometry":{"type":"LineString","coordinates":[[5.968814,49.49646],[5.968508,49.49639],[5.968726,49.49605]]},"properties":{"way_id":"369587883","highway":"service","edgeid":305,"vertex1":70,"vertex2":267}},{"type":"Feature","geometry":{"type":"LineString","coordinates":[[5.976404,49.48513],[5.977542,49.4854],[5.977958,49.48545]]},"properties":{"name":"Rue des Sports","way_id":"24032676","highway":"residential","edgeid":63,"vertex1":71,"vertex2":90}},{"type":"Feature","geometry":{"type":"LineString","coordinates":[[5.976404,49.48513],[5.97597,49.48515]]},"properties":{"name":"Place des Mines","way_id":"24032736","highway":"residential","edgeid":66,"vertex1":71,"vertex2":18}},{"type":"Feature","geometry":{"type":"LineString","coordinates":[[5.972752,49.49343],[5.972609,49.49344],[5.972231,49.49361]]},"properties":{"name":"Rue de Belval","way_id":"24665138","oneway":"yes","maxspeed":"50","highway":"secondary","edgeid":68,"vertex1":72,"vertex2":73}},{"type":"Feature","geometry":{"type":"LineString","coordinates":[[5.972752,49.49343],[5.972736,49.49337],[5.972752,49.49331],[5.972797,49.49326]]},"properties":{"name":"Rond-Point Um Däich","way_id":"141242070","highway":"primary","maxspeed":"50","junction":"roundabout","edgeid":120,"vertex1":72,"vertex2":110}},{"type":"Feature","geometry":{"type":"LineString","coordinates":[[5.972231,49.49361],[5.972565,49.49337],[5.972797,49.49326]]},"properties":{"name":"Rue de Belval","way_id":"105450429","oneway":"yes","maxspeed":"50","highway":"secondary","edgeid":105,"vertex1":73,"vertex2":110}},{"type":"Feature","geometry":{"type":"LineString","coordinates":[[5.972231,49.49361],[5.971921,49.49379],[5.971629,49.49392],[5.971411,49.49401],[5.971179,49.49409],[5.971012,49.49414],[5.970824,49.49417],[5.970675,49.49419]]},"properties":{"name":"Rue de Belval","way_id":"105450434","maxspeed":"50","highway":"secondary","edgeid":106,"vertex1":73,"vertex2":111}},{"type":"Feature","geometry":{"type":"LineString","coordinates":[[5.959578,49.49476],[5.957609,49.49452],[5.957354,49.4945],[5.957124,49.4945],[5.956867,49.49451]]},"properties":{"name":"Rue de Belval","way_id":"24685804","maxspeed":"50","highway":"secondary","edgeid":69,"vertex1":74,"vertex2":75}},{"type":"Feature","geometry":{"type":"LineString","coordinates":[[5.956867,49.49451],[5.956552,49.49454],[5.956264,49.49459],[5.956002,49.49465],[5.955584,49.49476]]},"properties":{"name":"Rue de Belval","way_id":"24685804","maxspeed":"50","highway":"secondary","edgeid":70,"vertex1":75,"vertex2":76}},{"type":"Feature","geometry":{"type":"LineString","coordinates":[[5.955584,49.49476],[5.954829,49.49495],[5.954712,49.49498]]},"properties":{"name":"Rue de Belval","way_id":"362761969","maxspeed":"50","highway":"secondary","edgeid":266,"vertex1":76,"vertex2":217}},{"type":"Feature","geometry":{"type":"LineString","coordinates":[[5.886836,49.49597],[5.887544,49.49504],[5.887724,49.49471],[5.887886,49.49443]]},"properties":{"way_id":"367134775","highway":"track","edgeid":303,"vertex1":77,"vertex2":265}},{"type":"Feature","geometry":{"type":"LineString","coordinates":[[5.954946,49.49421],[5.9552,49.49424]]},"properties":{"name":"Rue de Belval","way_id":"27021394","highway":"residential","edgeid":73,"vertex1":79,"vertex2":80}},{"type":"Feature","geometry":{"type":"LineString","coordinates":[[5.9552,49.49424],[5.956666,49.49441],[5.956867,49.49451]]},"properties":{"name":"Rue de Belval","way_id":"27021394","highway":"residential","edgeid":74,"vertex1":80,"vertex2":75}},{"type":"Feature","geometry":{"type":"LineString","coordinates":[[5.9552,49.49424],[5.954587,49.49483],[5.954554,49.49492],[5.954566,49.49502]]},"properties":{"name":"Rue de Belval","way_id":"27021396","highway":"residential","edgeid":75,"vertex1":80,"vertex2":81}},{"type":"Feature","geometry":{"type":"LineString","coordinates":[[5.954566,49.49502],[5.954332,49.49511]]},"properties":{"name":"Rue de Belval","way_id":"362761969","maxspeed":"50","highway":"secondary","edgeid":268,"vertex1":81,"vertex2":240}},{"type":"Feature","geometry":{"type":"LineString","coordinates":[[5.974832,49.49172],[5.974985,49.49154],[5.975227,49.4913]]},"properties":{"name":"Boulevard Prince Henri","way_id":"28023904","highway":"primary","maxspeed":"50","edgeid":77,"vertex1":82,"vertex2":83}},{"type":"Feature","geometry":{"type":"LineString","coordinates":[[5.975227,49.4913],[5.975254,49.49127],[5.975398,49.49115],[5.975718,49.49093],[5.975902,49.49083],[5.975942,49.4908]]},"properties":{"name":"Boulevard Prince Henri","way_id":"28023904","highway":"primary","maxspeed":"50","edgeid":78,"vertex1":83,"vertex2":42}},{"type":"Feature","geometry":{"type":"LineString","coordinates":[[5.975227,49.4913],[5.975008,49.4912]]},"properties":{"way_id":"343334858","oneway":"yes","highway":"service","edgeid":237,"vertex1":83,"vertex2":215}},{"type":"Feature","geometry":{"type":"LineString","coordinates":[[5.976184,49.47392],[5.976163,49.47401]]},"properties":{"way_id":"35163965","highway":"track","edgeid":82,"vertex1":84,"vertex2":85}},{"type":"Feature","geometry":{"type":"LineString","coordinates":[[5.976184,49.47392],[5.976412,49.47331],[5.976761,49.47266],[5.976991,49.47222],[5.977147,49.47216],[5.97737,49.47217],[5.977649,49.47221]]},"properties":{"way_id":"342243550","highway":"track","edgeid":235,"vertex1":84,"vertex2":1235}},{"type":"Feature","geometry":{"type":"LineString","coordinates":[[5.976163,49.47401],[5.976125,49.47419]]},"properties":{"way_id":"169155659","highway":"service","edgeid":127,"vertex1":85,"vertex2":129}},{"type":"Feature","geometry":{"type":"LineString","coordinates":[[5.975879,49.46274],[5.975538,49.46293],[5.975267,49.46298],[5.975048,49.46311],[5.974984,49.4632],[5.974739,49.46338],[5.97464,49.46358],[5.974368,49.46378],[5.97429,49.46387],[5.97395,49.46429],[5.973507,49.46555],[5.973408,49.46634],[5.97318,49.46689],[5.973005,49.467],[5.972862,49.46709],[5.971482,49.4672],[5.971308,49.46721]]},"properties":{"way_id":"35163982","highway":"track","edgeid":83,"vertex1":86,"vertex2":87}},{"type":"Feature","geometry":{"type":"LineString","coordinates":[[5.975879,49.46274],[5.976137,49.46286],[5.976697,49.46282],[5.977307,49.46273],[5.97803,49.46246],[5.978306,49.46232],[5.978626,49.46206]]},"properties":{"way_id":"431624664","highway":"track","edgeid":352,"vertex1":86,"vertex2":1778}},{"type":"Feature","geometry":{"type":"LineString","coordinates":[[5.971308,49.46721],[5.970935,49.46721],[5.969932,49.46704],[5.969615,49.46702],[5.969431,49.46696],[5.969379,49.46695],[5.969187,49.46684]]},"properties":{"way_id":"35163982","highway":"track","edgeid":84,"vertex1":87,"vertex2":88}},{"type":"Feature","geometry":{"type":"LineString","coordinates":[[5.971774,49.48043],[5.971819,49.48032],[5.971973,49.48019],[5.972221,49.48011],[5.972239,49.48005],[5.972121,49.47974],[5.971863,49.47934],[5.971075,49.47885],[5.970463,49.4784],[5.970088,49.47823],[5.969626,49.47785],[5.969267,49.47737],[5.969057,49.47711],[5.968465,49.4765]]},"properties":{"way_id":"35163984","highway":"track","edgeid":85,"vertex1":89,"vertex2":90}},{"type":"Feature","geometry":{"type":"LineString","coordinates":[[5.968465,49.4765],[5.968986,49.47653],[5.969176,49.47647],[5.969297,49.47639],[5.969306,49.47631],[5.969228,49.47623],[5.969193,49.47618],[5.969226,49.47606],[5.969244,49.47602],[5.96939,49.47565],[5.969662,49.47527],[5.970454,49.47483],[5.971272,49.47451]]},"properties":{"way_id":"189802997","highway":"track","edgeid":182,"vertex1":90,"vertex2":176}},{"type":"Feature","geometry":{"type":"LineString","coordinates":[[5.968266,49.48562],[5.967323,49.48515],[5.967066,49.48501],[5.966633,49.48483]]},"properties":{"way_id":"184936799","highway":"track","edgeid":136,"vertex1":91,"vertex2":133}},{"type":"Feature","geometry":{"type":"LineString","coordinates":[[5.969969,49.47005],[5.970232,49.46966],[5.970426,49.4692],[5.970576,49.46889],[5.970962,49.46842],[5.971155,49.4681],[5.971155,49.46787],[5.97141,49.46766],[5.971448,49.46751],[5.971308,49.46721]]},"properties":{"way_id":"58605044","highway":"track","edgeid":87,"vertex1":92,"vertex2":87}},{"type":"Feature","geometry":{"type":"LineString","coordinates":[[5.974939,49.45605],[5.975339,49.45582],[5.97579,49.45577],[5.97609,49.45577],[5.976841,49.45606],[5.977614,49.45648],[5.977848,49.4567],[5.978024,49.45706],[5.978404,49.45716],[5.979111,49.45742],[5.979234,49.4575]]},"properties":{"way_id":"58605276","highway":"track","edgeid":88,"vertex1":93,"vertex2":1194}},{"type":"Feature","geometry":{"type":"LineString","coordinates":[[5.975136,49.46719],[5.975149,49.46767],[5.975129,49.4679],[5.975102,49.46805],[5.975117,49.46808]]},"properties":{"way_id":"58666637","highway":"track","edgeid":89,"vertex1":94,"vertex2":95}},{"type":"Feature","geometry":{"type":"LineString","coordinates":[[5.975117,49.46808],[5.97517,49.46806],[5.975271,49.46795],[5.975479,49.46762],[5.975626,49.46703],[5.975659,49.46653],[5.975685,49.46634],[5.975745,49.46627]]},"properties":{"way_id":"263998646","highway":"track","edgeid":187,"vertex1":95,"vertex2":118}},{"type":"Feature","geometry":{"type":"LineString","coordinates":[[5.975117,49.46808],[5.974732,49.46854],[5.97465,49.46867],[5.974601,49.46878],[5.974493,49.46903],[5.974321,49.46954],[5.974578,49.46965],[5.975085,49.46993]]},"properties":{"way_id":"285452121","highway":"track","edgeid":194,"vertex1":95,"vertex2":122}},{"type":"Feature","geometry":{"type":"LineString","coordinates":[[5.973173,49.49299],[5.973099,49.49313]]},"properties":{"name":"Rue des Acacias","way_id":"69332115","oneway":"yes","highway":"primary","maxspeed":"50","edgeid":91,"vertex1":96,"vertex2":34}},{"type":"Feature","geometry":{"type":"LineString","coordinates":[[5.973173,49.49299],[5.973781,49.49242],[5.974031,49.49216],[5.974314,49.49184],[5.974419,49.4917],[5.974496,49.49156]]},"properties":{"name":"Rue des Acacias","way_id":"180973735","highway":"primary","maxspeed":"50","edgeid":133,"vertex1":96,"vertex2":126}},{"type":"Feature","geometry":{"type":"LineString","coordinates":[[5.967947,49.4957],[5.967752,49.4957]]},"properties":{"name":"An der Schmelz","way_id":"71786407","maxspeed":"50","highway":"unclassified","edgeid":92,"vertex1":97,"vertex2":98}},{"type":"Feature","geometry":{"type":"LineString","coordinates":[[5.967947,49.4957],[5.968164,49.49569],[5.968381,49.49569]]},"properties":{"name":"An der Schmelz","way_id":"71786409","oneway":"yes","maxspeed":"50","highway":"unclassified","edgeid":93,"vertex1":97,"vertex2":99}},{"type":"Feature","geometry":{"type":"LineString","coordinates":[[5.967752,49.4957],[5.966938,49.49574],[5.966666,49.49577],[5.96645,49.49582],[5.96627,49.49591],[5.96612,49.49599]]},"properties":{"name":"An der Schmelz","way_id":"377211630","maxspeed":"50","highway":"unclassified","edgeid":322,"vertex1":98,"vertex2":101}},{"type":"Feature","geometry":{"type":"LineString","coordinates":[[5.968381,49.49569],[5.968405,49.49568],[5.968525,49.49565],[5.968589,49.49566]]},"properties":{"way_id":"364160052","highway":"primary","maxspeed":"50","junction":"roundabout","edgeid":299,"vertex1":99,"vertex2":0}},{"type":"Feature","geometry":{"type":"LineString","coordinates":[[5.968294,49.49584],[5.968125,49.49574],[5.967947,49.4957]]},"properties":{"name":"An der Schmelz","way_id":"71786412","oneway":"yes","maxspeed":"50","highway":"unclassified","edgeid":94,"vertex1":100,"vertex2":97}},{"type":"Feature","geometry":{"type":"LineString","coordinates":[[5.968294,49.49584],[5.968291,49.49581],[5.968307,49.49576],[5.968346,49.49572],[5.968381,49.49569]]},"properties":{"way_id":"382492784","highway":"primary","maxspeed":"50","junction":"roundabout","edgeid":332,"vertex1":100,"vertex2":99}},{"type":"Feature","geometry":{"type":"LineString","coordinates":[[5.96612,49.49599],[5.965969,49.49607],[5.965856,49.49612],[5.965736,49.49617]]},"properties":{"way_id":"93359153","highway":"service","motorcar":"no","edgeid":95,"vertex1":101,"vertex2":102}},{"type":"Feature","geometry":{"type":"LineString","coordinates":[[5.965736,49.49617],[5.966076,49.49625],[5.967597,49.49685],[5.967765,49.49693],[5.967922,49.49704],[5.968002,49.49718],[5.968037,49.49742]]},"properties":{"way_id":"326024630","highway":"service","motorcar":"no","edgeid":227,"vertex1":102,"vertex2":5579}},{"type":"Feature","geometry":{"type":"LineString","coordinates":[[5.965736,49.49617],[5.965631,49.4962],[5.965509,49.49621],[5.965327,49.49622],[5.962913,49.49614],[5.962453,49.49613],[5.962174,49.49614],[5.961923,49.49617],[5.960979,49.49637],[5.959962,49.49661],[5.958687,49.49692],[5.951504,49.49862],[5.951232,49.4987],[5.951012,49.49878]]},"properties":{"way_id":"364154096","highway":"service","motorcar":"no","edgeid":298,"vertex1":102,"vertex2":5232}},{"type":"Feature","geometry":{"type":"LineString","coordinates":[[5.966907,49.49512],[5.967204,49.49508],[5.970033,49.49453],[5.9706,49.4944],[5.970676,49.4944],[5.970948,49.49448]]},"properties":{"way_id":"95785780","highway":"service","edgeid":96,"vertex1":103,"vertex2":1}},{"type":"Feature","geometry":{"type":"LineString","coordinates":[[5.974223,49.48909],[5.974504,49.48905],[5.974669,49.48902],[5.974827,49.48897]]},"properties":{"name":"Rue d'Audun","way_id":"96019553","oneway":"yes","highway":"primary","maxspeed":"50","edgeid":97,"vertex1":104,"vertex2":105}},{"type":"Feature","geometry":{"type":"LineString","coordinates":[[5.974827,49.48897],[5.97486,49.48892],[5.974912,49.48889],[5.974979,49.48886],[5.975054,49.48886],[5.975128,49.48887],[5.975193,49.4889],[5.975241,49.48893],[5.975268,49.48898],[5.97527,49.48903]]},"properties":{"way_id":"382489362","highway":"primary","maxspeed":"50","junction":"roundabout","edgeid":324,"vertex1":105,"vertex2":30}},{"type":"Feature","geometry":{"type":"LineString","coordinates":[[5.974866,49.4891],[5.974804,49.48909],[5.974697,49.48908],[5.974461,49.48911],[5.974223,49.48909]]},"properties":{"name":"Rue d'Audun","way_id":"96019554","oneway":"yes","highway":"primary","maxspeed":"50","edgeid":98,"vertex1":106,"vertex2":104}},{"type":"Feature","geometry":{"type":"LineString","coordinates":[[5.974866,49.4891],[5.974832,49.48906],[5.974819,49.48901],[5.974827,49.48897]]},"properties":{"way_id":"424926869","highway":"primary","maxspeed":"50","junction":"roundabout","edgeid":348,"vertex1":106,"vertex2":105}},{"type":"Feature","geometry":{"type":"LineString","coordinates":[[5.973235,49.49337],[5.973221,49.49342],[5.973178,49.49347]]},"properties":{"name":"Rond-Point Um Däich","way_id":"377211622","highway":"primary","maxspeed":"50","junction":"roundabout","edgeid":315,"vertex1":107,"vertex2":46}},{"type":"Feature","geometry":{"type":"LineString","coordinates":[[5.96877,49.49573],[5.968801,49.49578],[5.96881,49.49583],[5.968795,49.49588],[5.968759,49.49592],[5.968704,49.49596],[5.968636,49.49598]]},"properties":{"way_id":"377211624","highway":"primary","maxspeed":"50","junction":"roundabout","edgeid":320,"vertex1":108,"vertex2":10}},{"type":"Feature","geometry":{"type":"LineString","coordinates":[[5.974318,49.49609],[5.97511,49.49638]]},"properties":{"name":"Rue Victor Hugo","way_id":"405994027","highway":"residential","edgeid":344,"vertex1":109,"vertex2":65}},{"type":"Feature","geometry":{"type":"LineString","coordinates":[[5.974318,49.49609],[5.974245,49.49618],[5.974079,49.49633],[5.973799,49.49651],[5.973568,49.49662]]},"properties":{"name":"Rue Jean Jaurès","way_id":"405994028","highway":"residential","edgeid":345,"vertex1":109,"vertex2":60}},{"type":"Feature","geometry":{"type":"LineString","coordinates":[[5.974318,49.49609],[5.97511,49.49638]]},"properties":{"name":"Place Victor Hugo","way_id":"460847742","highway":"service","edgeid":358,"vertex1":109,"vertex2":65}},{"type":"Feature","geometry":{"type":"LineString","coordinates":[[5.972797,49.49326],[5.972841,49.49324],[5.972892,49.49322]]},"properties":{"name":"Rond-Point Um Däich","way_id":"382489365","highway":"primary","maxspeed":"50","junction":"roundabout","edgeid":329,"vertex1":110,"vertex2":132}},{"type":"Feature","geometry":{"type":"LineString","coordinates":[[5.970675,49.49419],[5.969614,49.49433],[5.969307,49.49435],[5.968596,49.49437]]},"properties":{"name":"Rue de Belval","way_id":"105450434","maxspeed":"50","highway":"secondary","edgeid":107,"vertex1":111,"vertex2":112}},{"type":"Feature","geometry":{"type":"LineString","coordinates":[[5.970675,49.49419],[5.970683,49.49412],[5.970702,49.49392]]},"properties":{"way_id":"324189312","highway":"service","edgeid":202,"vertex1":111,"vertex2":190}},{"type":"Feature","geometry":{"type":"LineString","coordinates":[[5.968596,49.49437],[5.968049,49.49437],[5.96711,49.49435],[5.967029,49.49435]]},"properties":{"name":"Rue de Belval","way_id":"105450434","maxspeed":"50","highway":"secondary","edgeid":108,"vertex1":112,"vertex2":113}},{"type":"Feature","geometry":{"type":"LineString","coordinates":[[5.968596,49.49437],[5.968596,49.49431],[5.968594,49.49419]]},"properties":{"way_id":"324189314","highway":"service","edgeid":205,"vertex1":112,"vertex2":193}},{"type":"Feature","geometry":{"type":"LineString","coordinates":[[5.967029,49.49435],[5.966778,49.49435],[5.966418,49.49437],[5.96595,49.49441],[5.964843,49.49451],[5.962301,49.49461],[5.961346,49.49474]]},"properties":{"name":"Rue de Belval","way_id":"105450434","maxspeed":"50","highway":"secondary","edgeid":109,"vertex1":113,"vertex2":114}},{"type":"Feature","geometry":{"type":"LineString","coordinates":[[5.967029,49.49435],[5.967042,49.49428]]},"properties":{"way_id":"324981477","highway":"service","edgeid":207,"vertex1":113,"vertex2":195}},{"type":"Feature","geometry":{"type":"LineString","coordinates":[[5.961346,49.49474],[5.960797,49.4948]]},"properties":{"name":"Rue de Belval","way_id":"362761977","maxspeed":"50","highway":"secondary","edgeid":271,"vertex1":114,"vertex2":243}},{"type":"Feature","geometry":{"type":"LineString","coordinates":[[5.925725,49.49536],[5.925901,49.49553],[5.926368,49.49591],[5.926476,49.49596],[5.926743,49.49599],[5.927176,49.49591],[5.927841,49.49588],[5.928262,49.4959],[5.928678,49.49603],[5.929257,49.49619],[5.929944,49.49649],[5.930416,49.49674],[5.930555,49.49688]]},"properties":{"way_id":"106887629","highway":"track","edgeid":110,"vertex1":115,"vertex2":3507}},{"type":"Feature","geometry":{"type":"LineString","coordinates":[[5.940295,49.49614],[5.94039,49.49611],[5.940546,49.49587],[5.940659,49.49569],[5.941013,49.49512],[5.94167,49.49434],[5.942091,49.49395],[5.942509,49.49358]]},"properties":{"way_id":"106895451","highway":"track","edgeid":111,"vertex1":116,"vertex2":117}},{"type":"Feature","geometry":{"type":"LineString","coordinates":[[5.940295,49.49614],[5.940402,49.49592],[5.940421,49.49578],[5.940376,49.49567],[5.9403,49.49557]]},"properties":{"way_id":"363601952","highway":"track","edgeid":293,"vertex1":116,"vertex2":254}},{"type":"Feature","geometry":{"type":"LineString","coordinates":[[5.975745,49.46627],[5.975879,49.46659],[5.976001,49.46698],[5.976016,49.46713],[5.976092,49.46728],[5.976209,49.4681],[5.976294,49.46847]]},"properties":{"way_id":"376293791","highway":"track","edgeid":312,"vertex1":118,"vertex2":119}},{"type":"Feature","geometry":{"type":"LineString","coordinates":[[5.976294,49.46847],[5.976435,49.4683],[5.976712,49.46798],[5.977361,49.46764],[5.977523,49.46748],[5.977665,49.46734],[5.978014,49.46717],[5.978181,49.46701]]},"properties":{"way_id":"116589359","highway":"track","edgeid":113,"vertex1":119,"vertex2":1424}},{"type":"Feature","geometry":{"type":"LineString","coordinates":[[5.976294,49.46847],[5.976348,49.46871],[5.976519,49.46907],[5.976761,49.46977]]},"properties":{"way_id":"376293791","highway":"track","edgeid":313,"vertex1":119,"vertex2":1777}},{"type":"Feature","geometry":{"type":"LineString","coordinates":[[5.975385,49.49091],[5.975442,49.49087],[5.975531,49.49081],[5.97572,49.4907],[5.976053,49.49054],[5.976276,49.49045],[5.976501,49.49036],[5.976866,49.49026],[5.977315,49.49017],[5.977592,49.49012],[5.977896,49.49009],[5.978348,49.49006],[5.978771,49.49007],[5.979035,49.4901]]},"properties":{"way_id":"132325755","oneway":"yes","highway":"service","edgeid":115,"vertex1":121,"vertex2":1607}},{"type":"Feature","geometry":{"type":"LineString","coordinates":[[5.975085,49.46993],[5.974592,49.47006]]},"properties":{"way_id":"141057096","highway":"track","edgeid":118,"vertex1":122,"vertex2":123}},{"type":"Feature","geometry":{"type":"LineString","coordinates":[[5.974592,49.47006],[5.974568,49.47007]]},"properties":{"way_id":"141057096","highway":"track","edgeid":119,"vertex1":123,"vertex2":124}},{"type":"Feature","geometry":{"type":"LineString","coordinates":[[5.974932,49.48914],[5.974896,49.48912],[5.974866,49.4891]]},"properties":{"way_id":"382489363","highway":"primary","maxspeed":"50","junction":"roundabout","edgeid":325,"vertex1":125,"vertex2":106}},{"type":"Feature","geometry":{"type":"LineString","coordinates":[[5.974496,49.49156],[5.974569,49.49137],[5.974626,49.49115],[5.974782,49.49061],[5.974911,49.49008]]},"properties":{"way_id":"150248335","highway":"primary","maxspeed":"50","edgeid":122,"vertex1":126,"vertex2":127}},{"type":"Feature","geometry":{"type":"LineString","coordinates":[[5.974911,49.49008],[5.974919,49.49003]]},"properties":{"way_id":"150248335","highway":"primary","maxspeed":"50","edgeid":123,"vertex1":127,"vertex2":40}},{"type":"Feature","geometry":{"type":"LineString","coordinates":[[5.974911,49.49008],[5.974821,49.49011],[5.974686,49.49036],[5.974417,49.49082],[5.974341,49.49088],[5.974234,49.49088],[5.974016,49.49084]]},"properties":{"way_id":"184952148","highway":"service","motorcar":"no","edgeid":161,"vertex1":127,"vertex2":161}},{"type":"Feature","geometry":{"type":"LineString","coordinates":[[5.975549,49.48913],[5.975668,49.48917]]},"properties":{"name":"Rue d'Audun","way_id":"382489369","oneway":"yes","maxspeed":"50","highway":"tertiary","edgeid":330,"vertex1":128,"vertex2":36}},{"type":"Feature","geometry":{"type":"LineString","coordinates":[[5.976125,49.47419],[5.976217,49.47469]]},"properties":{"way_id":"169155659","highway":"service","edgeid":128,"vertex1":129,"vertex2":130}},{"type":"Feature","geometry":{"type":"LineString","coordinates":[[5.976125,49.47419],[5.975729,49.4742]]},"properties":{"way_id":"359526453","highway":"service","edgeid":238,"vertex1":129,"vertex2":216}},{"type":"Feature","geometry":{"type":"LineString","coordinates":[[5.976217,49.47469],[5.97622,49.4747]]},"properties":{"way_id":"169155659","highway":"service","edgeid":129,"vertex1":130,"vertex2":131}},{"type":"Feature","geometry":{"type":"LineString","coordinates":[[5.976217,49.47469],[5.975919,49.4747]]},"properties":{"way_id":"210411241","highway":"service","edgeid":186,"vertex1":130,"vertex2":179}},{"type":"Feature","geometry":{"type":"LineString","coordinates":[[5.97622,49.4747],[5.976399,49.47535],[5.97699,49.47604],[5.977182,49.47627]]},"properties":{"way_id":"169155659","highway":"service","edgeid":130,"vertex1":131,"vertex2":930}},{"type":"Feature","geometry":{"type":"LineString","coordinates":[[5.97622,49.4747],[5.976388,49.47461],[5.97654,49.47447],[5.976913,49.47443]]},"properties":{"way_id":"285452435","highway":"track","edgeid":195,"vertex1":131,"vertex2":2665}},{"type":"Feature","geometry":{"type":"LineString","coordinates":[[5.972892,49.49322],[5.973018,49.49311],[5.973173,49.49299]]},"properties":{"name":"Rue des Acacias","way_id":"180973734","oneway":"yes","highway":"primary","maxspeed":"50","edgeid":132,"vertex1":132,"vertex2":96}},{"type":"Feature","geometry":{"type":"LineString","coordinates":[[5.972892,49.49322],[5.972963,49.49321],[5.973035,49.49321],[5.973104,49.49323]]},"properties":{"name":"Rond-Point Um Däich","way_id":"382489364","highway":"primary","maxspeed":"50","junction":"roundabout","edgeid":326,"vertex1":132,"vertex2":35}},{"type":"Feature","geometry":{"type":"LineString","coordinates":[[5.966633,49.48483],[5.9664,49.48465]]},"properties":{"way_id":"184936797","highway":"track","edgeid":134,"vertex1":133,"vertex2":134}},{"type":"Feature","geometry":{"type":"LineString","coordinates":[[5.9664,49.48465],[5.965982,49.48437],[5.965847,49.48427],[5.965644,49.48418]]},"properties":{"way_id":"184936797","highway":"track","edgeid":135,"vertex1":134,"vertex2":16}},{"type":"Feature","geometry":{"type":"LineString","coordinates":[[5.9664,49.48465],[5.966631,49.48458],[5.966865,49.48446],[5.967409,49.48405]]},"properties":{"way_id":"184936801","highway":"track","edgeid":137,"vertex1":134,"vertex2":135}},{"type":"Feature","geometry":{"type":"LineString","coordinates":[[5.970925,49.48352],[5.970788,49.48357],[5.970584,49.48372],[5.970359,49.48396],[5.970248,49.48413]]},"properties":{"way_id":"184936809","highway":"track","edgeid":138,"vertex1":136,"vertex2":137}},{"type":"Feature","geometry":{"type":"LineString","coordinates":[[5.970248,49.48413],[5.969955,49.48457],[5.969885,49.48466]]},"properties":{"way_id":"328457980","highway":"track","edgeid":228,"vertex1":137,"vertex2":24}},{"type":"Feature","geometry":{"type":"LineString","coordinates":[[5.970248,49.48413],[5.970521,49.484],[5.970785,49.48394],[5.971228,49.48396],[5.971681,49.48401],[5.972069,49.48405],[5.972457,49.48395],[5.972723,49.48387],[5.9729,49.48374]]},"properties":{"way_id":"328457981","highway":"track","edgeid":229,"vertex1":137,"vertex2":211}},{"type":"Feature","geometry":{"type":"LineString","coordinates":[[5.968733,49.48213],[5.968637,49.48226],[5.968619,49.48256],[5.968498,49.48283],[5.968253,49.48318],[5.968083,49.48345],[5.96771,49.4838],[5.96753,49.48396],[5.967409,49.48405]]},"properties":{"way_id":"184936816","highway":"track","edgeid":139,"vertex1":138,"vertex2":135}},{"type":"Feature","geometry":{"type":"LineString","coordinates":[[5.965889,49.48552],[5.965847,49.48556]]},"properties":{"way_id":"184937874","highway":"service","edgeid":140,"vertex1":139,"vertex2":140}},{"type":"Feature","geometry":{"type":"LineString","coordinates":[[5.965847,49.48556],[5.966055,49.48571],[5.966137,49.48577],[5.966246,49.48585]]},"properties":{"way_id":"184937878","highway":"service","motorcar":"no","edgeid":144,"vertex1":140,"vertex2":143}},{"type":"Feature","geometry":{"type":"LineString","coordinates":[[5.965363,49.48519],[5.965717,49.48545],[5.965762,49.48549]]},"properties":{"way_id":"184937878","highway":"service","motorcar":"no","edgeid":142,"vertex1":141,"vertex2":142}},{"type":"Feature","geometry":{"type":"LineString","coordinates":[[5.965762,49.48549],[5.965847,49.48556]]},"properties":{"way_id":"184937878","highway":"service","motorcar":"no","edgeid":143,"vertex1":142,"vertex2":140}},{"type":"Feature","geometry":{"type":"LineString","coordinates":[[5.965762,49.48549],[5.965537,49.48559],[5.965244,49.48577],[5.965249,49.48584],[5.965555,49.48608],[5.966049,49.48656],[5.966678,49.48724],[5.967052,49.48766]]},"properties":{"way_id":"184937879","highway":"track","edgeid":145,"vertex1":142,"vertex2":144}},{"type":"Feature","geometry":{"type":"LineString","coordinates":[[5.973766,49.49084],[5.973752,49.49088]]},"properties":{"way_id":"184952110","highway":"service","motorcar":"no","edgeid":146,"vertex1":145,"vertex2":146}},{"type":"Feature","geometry":{"type":"LineString","coordinates":[[5.973766,49.49084],[5.973939,49.49042],[5.974203,49.48968],[5.974214,49.48956],[5.974066,49.48915]]},"properties":{"way_id":"184952158","highway":"service","motorcar":"no","edgeid":164,"vertex1":145,"vertex2":153}},{"type":"Feature","geometry":{"type":"LineString","coordinates":[[5.973752,49.49088],[5.973522,49.49092]]},"properties":{"way_id":"184952110","highway":"service","motorcar":"no","edgeid":147,"vertex1":146,"vertex2":147}},{"type":"Feature","geometry":{"type":"LineString","coordinates":[[5.973752,49.49088],[5.973752,49.49108]]},"properties":{"way_id":"184952146","highway":"service","motorcar":"no","edgeid":157,"vertex1":146,"vertex2":157}},{"type":"Feature","geometry":{"type":"LineString","coordinates":[[5.973522,49.49092],[5.973429,49.49093],[5.973209,49.49096],[5.973015,49.49094],[5.972795,49.49097],[5.972575,49.49104],[5.972195,49.49117],[5.972098,49.4912]]},"properties":{"way_id":"184952110","highway":"service","motorcar":"no","edgeid":148,"vertex1":147,"vertex2":148}},{"type":"Feature","geometry":{"type":"LineString","coordinates":[[5.973522,49.49092],[5.973299,49.49118]]},"properties":{"way_id":"184952133","highway":"service","motorcar":"no","edgeid":153,"vertex1":147,"vertex2":155}},{"type":"Feature","geometry":{"type":"LineString","coordinates":[[5.973676,49.48753],[5.974662,49.48777],[5.974503,49.48804],[5.974731,49.4881]]},"properties":{"way_id":"184952114","highway":"service","motorcar":"no","edgeid":149,"vertex1":149,"vertex2":150}},{"type":"Feature","geometry":{"type":"LineString","coordinates":[[5.974731,49.4881],[5.977104,49.48869],[5.977199,49.4887],[5.977558,49.48871],[5.978057,49.48881],[5.97825,49.48891]]},"properties":{"way_id":"184952114","highway":"service","motorcar":"no","edgeid":150,"vertex1":150,"vertex2":2303}},{"type":"Feature","geometry":{"type":"LineString","coordinates":[[5.974731,49.4881],[5.974423,49.48863]]},"properties":{"way_id":"184952136","highway":"track","edgeid":154,"vertex1":150,"vertex2":156}},{"type":"Feature","geometry":{"type":"LineString","coordinates":[[5.974254,49.4889],[5.974559,49.48891]]},"properties":{"way_id":"184952120","highway":"service","motorcar":"no","edgeid":151,"vertex1":151,"vertex2":152}},{"type":"Feature","geometry":{"type":"LineString","coordinates":[[5.974254,49.4889],[5.974423,49.48863]]},"properties":{"way_id":"184952140","highway":"service","motorcar":"no","edgeid":156,"vertex1":151,"vertex2":156}},{"type":"Feature","geometry":{"type":"LineString","coordinates":[[5.974066,49.48915],[5.97408,49.48901]]},"properties":{"bridge":"yes","way_id":"184952125","highway":"service","motorcar":"no","edgeid":152,"vertex1":153,"vertex2":154}},{"type":"Feature","geometry":{"type":"LineString","coordinates":[[5.97408,49.48901],[5.974146,49.48895],[5.974254,49.4889]]},"properties":{"way_id":"184952140","highway":"service","motorcar":"no","edgeid":155,"vertex1":154,"vertex2":151}},{"type":"Feature","geometry":{"type":"LineString","coordinates":[[5.973752,49.49108],[5.973678,49.49125]]},"properties":{"way_id":"184952146","highway":"service","motorcar":"no","edgeid":158,"vertex1":157,"vertex2":158}},{"type":"Feature","geometry":{"type":"LineString","coordinates":[[5.973752,49.49108],[5.973964,49.49109],[5.974039,49.49106],[5.974179,49.49105],[5.974256,49.49106],[5.97427,49.49109],[5.974016,49.49173]]},"properties":{"way_id":"184955576","highway":"track","edgeid":166,"vertex1":157,"vertex2":163}},{"type":"Feature","geometry":{"type":"LineString","coordinates":[[5.973678,49.49125],[5.973489,49.49166],[5.973448,49.49176]]},"properties":{"way_id":"184952146","highway":"service","motorcar":"no","edgeid":159,"vertex1":158,"vertex2":159}},{"type":"Feature","geometry":{"type":"LineString","coordinates":[[5.973678,49.49125],[5.973406,49.49122],[5.973299,49.49118]]},"properties":{"way_id":"184955577","highway":"track","edgeid":167,"vertex1":158,"vertex2":155}},{"type":"Feature","geometry":{"type":"LineString","coordinates":[[5.973448,49.49176],[5.973326,49.49202]]},"properties":{"way_id":"184952146","highway":"service","motorcar":"no","edgeid":160,"vertex1":159,"vertex2":160}},{"type":"Feature","geometry":{"type":"LineString","coordinates":[[5.973448,49.49176],[5.973551,49.49177],[5.973661,49.49177],[5.973804,49.49173],[5.973835,49.49177],[5.973916,49.49177],[5.974016,49.49173]]},"properties":{"way_id":"184955575","highway":"track","edgeid":165,"vertex1":159,"vertex2":163}},{"type":"Feature","geometry":{"type":"LineString","coordinates":[[5.974016,49.49084],[5.973766,49.49084]]},"properties":{"way_id":"184952148","highway":"service","motorcar":"no","edgeid":162,"vertex1":161,"vertex2":145}},{"type":"Feature","geometry":{"type":"LineString","coordinates":[[5.974016,49.49084],[5.97417,49.49065],[5.974409,49.49046],[5.97452,49.49013],[5.974602,49.48978],[5.97468,49.48967],[5.97471,49.48943]]},"properties":{"way_id":"184952156","highway":"service","motorcar":"no","edgeid":163,"vertex1":161,"vertex2":162}},{"type":"Feature","geometry":{"type":"LineString","coordinates":[[5.972564,49.49271],[5.973031,49.49221],[5.973326,49.49202]]},"properties":{"way_id":"184955578","highway":"track","edgeid":168,"vertex1":164,"vertex2":160}},{"type":"Feature","geometry":{"type":"LineString","coordinates":[[5.974294,49.48503],[5.974404,49.48448]]},"properties":{"way_id":"189686849","highway":"track","edgeid":169,"vertex1":165,"vertex2":166}},{"type":"Feature","geometry":{"type":"LineString","coordinates":[[5.974404,49.48448],[5.974785,49.48462],[5.974384,49.48505],[5.974294,49.48503]]},"properties":{"way_id":"189686849","highway":"track","edgeid":170,"vertex1":166,"vertex2":165}},{"type":"Feature","geometry":{"type":"LineString","coordinates":[[5.974404,49.48448],[5.974434,49.48436],[5.974491,49.48426]]},"properties":{"way_id":"362363793","highway":"track","edgeid":244,"vertex1":166,"vertex2":213}},{"type":"Feature","geometry":{"type":"LineString","coordinates":[[5.976268,49.48314],[5.976493,49.48331],[5.976836,49.4834],[5.977067,49.48346],[5.977169,49.48339],[5.977206,49.48325],[5.977255,49.48306],[5.977324,49.48296],[5.977409,49.48291]]},"properties":{"way_id":"189686879","highway":"track","edgeid":171,"vertex1":167,"vertex2":2307}},{"type":"Feature","geometry":{"type":"LineString","coordinates":[[5.976268,49.48314],[5.976337,49.48309]]},"properties":{"way_id":"189781234","highway":"track","edgeid":181,"vertex1":167,"vertex2":175}},{"type":"Feature","geometry":{"type":"LineString","coordinates":[[5.97526,49.48381],[5.974991,49.48362],[5.974551,49.48348],[5.973999,49.48335],[5.973721,49.48317],[5.973529,49.48309]]},"properties":{"way_id":"189687135","highway":"track","edgeid":172,"vertex1":168,"vertex2":169}},{"type":"Feature","geometry":{"type":"LineString","coordinates":[[5.97526,49.48381],[5.975886,49.48346],[5.976268,49.48314]]},"properties":{"way_id":"189781234","highway":"track","edgeid":180,"vertex1":168,"vertex2":167}},{"type":"Feature","geometry":{"type":"LineString","coordinates":[[5.973529,49.48309],[5.973536,49.48302],[5.973528,49.48298],[5.973465,49.48285],[5.973436,49.48272],[5.97218,49.48251],[5.971608,49.4824]]},"properties":{"way_id":"189687135","highway":"track","edgeid":173,"vertex1":169,"vertex2":170}},{"type":"Feature","geometry":{"type":"LineString","coordinates":[[5.971608,49.4824],[5.971333,49.48234],[5.97093,49.48228],[5.97056,49.48221],[5.969805,49.48195]]},"properties":{"way_id":"189687135","highway":"track","edgeid":174,"vertex1":170,"vertex2":171}},{"type":"Feature","geometry":{"type":"LineString","coordinates":[[5.969805,49.48195],[5.969631,49.48199],[5.969549,49.48202],[5.96915,49.48201],[5.968855,49.48206],[5.968733,49.48213]]},"properties":{"way_id":"210393502","highway":"track","edgeid":185,"vertex1":171,"vertex2":138}},{"type":"Feature","geometry":{"type":"LineString","coordinates":[[5.97382,49.47115],[5.974181,49.47041],[5.974353,49.47017],[5.974592,49.47006]]},"properties":{"way_id":"189692247","highway":"track","edgeid":175,"vertex1":172,"vertex2":123}},{"type":"Feature","geometry":{"type":"LineString","coordinates":[[5.975747,49.47986],[5.975713,49.48006],[5.975842,49.48037]]},"properties":{"way_id":"429903694","highway":"track","edgeid":351,"vertex1":173,"vertex2":276}},{"type":"Feature","geometry":{"type":"LineString","coordinates":[[5.976337,49.48309],[5.976735,49.48232],[5.976998,49.48174],[5.977013,49.48132]]},"properties":{"way_id":"189781232","highway":"track","edgeid":178,"vertex1":175,"vertex2":2316}},{"type":"Feature","geometry":{"type":"LineString","coordinates":[[5.971272,49.47451],[5.971835,49.47434],[5.972141,49.47408],[5.972336,49.47371],[5.972496,49.47361],[5.972389,49.47289],[5.972321,49.47245],[5.972693,49.47203],[5.973642,49.47146],[5.97382,49.47115]]},"properties":{"way_id":"189781233","highway":"track","edgeid":179,"vertex1":176,"vertex2":172}},{"type":"Feature","geometry":{"type":"LineString","coordinates":[[5.943915,49.49555],[5.944068,49.4954],[5.944122,49.49535]]},"properties":{"name":"Liaison Micheville","way_id":"309495205","oneway":"yes","highway":"trunk","edgeid":199,"vertex1":177,"vertex2":185}},{"type":"Feature","geometry":{"type":"LineString","coordinates":[[5.944001,49.49559],[5.94366,49.49604],[5.943415,49.49643],[5.943235,49.49676],[5.943071,49.49721],[5.943033,49.49736],[5.943016,49.49754],[5.943088,49.49773]]},"properties":{"name":"Liaison Micheville","way_id":"199317385","oneway":"yes","highway":"trunk_link","edgeid":184,"vertex1":178,"vertex2":4237}},{"type":"Feature","geometry":{"type":"LineString","coordinates":[[5.944001,49.49559],[5.943829,49.49573],[5.943573,49.49601],[5.943328,49.4964],[5.943142,49.49673]]},"properties":{"name":"Liaison Micheville","way_id":"468023925","oneway":"yes","highway":"trunk","edgeid":376,"vertex1":178,"vertex2":5948}},{"type":"Feature","geometry":{"type":"LineString","coordinates":[[5.949208,49.48814],[5.949277,49.48823],[5.949476,49.48863],[5.949559,49.48883],[5.949666,49.48911],[5.949696,49.48917],[5.949709,49.4892],[5.949814,49.48938],[5.949881,49.48962],[5.950004,49.49006],[5.950093,49.49034],[5.950157,49.49056],[5.950165,49.49074],[5.950162,49.49089],[5.950144,49.49101],[5.950098,49.49129],[5.950055,49.49151],[5.950025,49.49203],[5.949991,49.4924],[5.95,49.49266]]},"properties":{"way_id":"276692933","highway":"track","edgeid":188,"vertex1":180,"vertex2":181}},{"type":"Feature","geometry":{"type":"LineString","coordinates":[[5.972134,49.48199],[5.972359,49.48186],[5.972557,49.48175],[5.972604,49.48163],[5.972509,49.48141],[5.972294,49.48116],[5.97208,49.4809],[5.971774,49.48043]]},"properties":{"way_id":"285447964","highway":"track","edgeid":193,"vertex1":183,"vertex2":89}},{"type":"Feature","geometry":{"type":"LineString","coordinates":[[5.972134,49.48199],[5.971774,49.48214],[5.971656,49.48227],[5.971608,49.4824]]},"properties":{"way_id":"285452800","highway":"track","edgeid":196,"vertex1":183,"vertex2":170}},{"type":"Feature","geometry":{"type":"LineString","coordinates":[[5.94458,49.49554],[5.945189,49.49524],[5.946105,49.49477],[5.946305,49.49465],[5.946582,49.49433],[5.949531,49.49343],[5.950135,49.49324],[5.95062,49.49314],[5.950812,49.4931],[5.951004,49.49311]]},"properties":{"way_id":"443582644","highway":"track","edgeid":355,"vertex1":184,"vertex2":277}},{"type":"Feature","geometry":{"type":"LineString","coordinates":[[5.944122,49.49535],[5.94465,49.49494],[5.945232,49.49463],[5.945638,49.49444],[5.946602,49.49409],[5.948793,49.49344],[5.949989,49.49308],[5.950741,49.49282],[5.952241,49.49223],[5.954077,49.49135],[5.957323,49.48975],[5.957891,49.48938],[5.958332,49.48899],[5.958881,49.48831],[5.959055,49.48796],[5.959237,49.48743],[5.959451,49.48648]]},"properties":{"name":"Liaison Micheville","way_id":"468023924","oneway":"yes","highway":"trunk","edgeid":374,"vertex1":185,"vertex2":286}},{"type":"Feature","geometry":{"type":"LineString","coordinates":[[5.974507,49.48692],[5.97459,49.48673],[5.974732,49.48642],[5.974783,49.4863]]},"properties":{"way_id":"318712819","highway":"service","edgeid":200,"vertex1":186,"vertex2":187}},{"type":"Feature","geometry":{"type":"LineString","coordinates":[[5.974507,49.48692],[5.974087,49.48679],[5.973744,49.48671]]},"properties":{"name":"Rue Barbourg","way_id":"362363798","highway":"residential","edgeid":249,"vertex1":186,"vertex2":228}},{"type":"Feature","geometry":{"type":"LineString","coordinates":[[5.974783,49.4863],[5.974819,49.48622],[5.974877,49.48605],[5.974905,49.48596],[5.974922,49.48589]]},"properties":{"way_id":"362363821","highway":"service","edgeid":255,"vertex1":187,"vertex2":230}},{"type":"Feature","geometry":{"type":"LineString","coordinates":[[5.974343,49.48644],[5.974382,49.48644]]},"properties":{"way_id":"318712820","highway":"service","edgeid":201,"vertex1":188,"vertex2":189}},{"type":"Feature","geometry":{"type":"LineString","coordinates":[[5.974382,49.48644],[5.974427,49.48644],[5.974497,49.48642],[5.974597,49.48638],[5.97474,49.48631],[5.974783,49.4863]]},"properties":{"way_id":"362649536","highway":"service","edgeid":257,"vertex1":189,"vertex2":187}},{"type":"Feature","geometry":{"type":"LineString","coordinates":[[5.970702,49.49392],[5.970795,49.4935]]},"properties":{"way_id":"324189312","highway":"service","edgeid":203,"vertex1":190,"vertex2":191}},{"type":"Feature","geometry":{"type":"LineString","coordinates":[[5.970702,49.49392],[5.970447,49.49395]]},"properties":{"way_id":"324189313","highway":"service","edgeid":204,"vertex1":190,"vertex2":192}},{"type":"Feature","geometry":{"type":"LineString","coordinates":[[5.970447,49.49395],[5.970466,49.494]]},"properties":{"way_id":"393878684","highway":"service","edgeid":333,"vertex1":192,"vertex2":270}},{"type":"Feature","geometry":{"type":"LineString","coordinates":[[5.968594,49.49419],[5.96859,49.49396],[5.968753,49.49396]]},"properties":{"way_id":"324189314","highway":"service","edgeid":206,"vertex1":193,"vertex2":194}},{"type":"Feature","geometry":{"type":"LineString","coordinates":[[5.967042,49.49428],[5.967013,49.49413]]},"properties":{"way_id":"362761956","highway":"service","edgeid":263,"vertex1":195,"vertex2":238}},{"type":"Feature","geometry":{"type":"LineString","coordinates":[[5.971591,49.48541],[5.97218,49.48463]]},"properties":{"way_id":"325924356","highway":"service","edgeid":208,"vertex1":196,"vertex2":197}},{"type":"Feature","geometry":{"type":"LineString","coordinates":[[5.971591,49.48541],[5.970957,49.4852],[5.971565,49.48443]]},"properties":{"way_id":"325924373","highway":"service","edgeid":220,"vertex1":196,"vertex2":209}},{"type":"Feature","geometry":{"type":"LineString","coordinates":[[5.97218,49.48463],[5.972855,49.48484],[5.972598,49.48519]]},"properties":{"way_id":"325924371","highway":"service","edgeid":217,"vertex1":197,"vertex2":201}},{"type":"Feature","geometry":{"type":"LineString","coordinates":[[5.973132,49.48659],[5.973164,49.4865]]},"properties":{"way_id":"325924358","highway":"service","edgeid":209,"vertex1":198,"vertex2":199}},{"type":"Feature","geometry":{"type":"LineString","coordinates":[[5.973132,49.48659],[5.972505,49.4865]]},"properties":{"name":"Rue Barbourg","way_id":"362363799","highway":"residential","edgeid":251,"vertex1":198,"vertex2":226}},{"type":"Feature","geometry":{"type":"LineString","coordinates":[[5.973164,49.4865],[5.973179,49.48638],[5.97329,49.48629]]},"properties":{"way_id":"325924366","oneway":"yes","highway":"service","edgeid":213,"vertex1":199,"vertex2":200}},{"type":"Feature","geometry":{"type":"LineString","coordinates":[[5.97329,49.48629],[5.973259,49.48641],[5.973164,49.4865]]},"properties":{"way_id":"325924360","oneway":"yes","highway":"service","edgeid":210,"vertex1":200,"vertex2":199}},{"type":"Feature","geometry":{"type":"LineString","coordinates":[[5.97329,49.48629],[5.973322,49.48624]]},"properties":{"way_id":"325924375","highway":"service","edgeid":221,"vertex1":200,"vertex2":207}},{"type":"Feature","geometry":{"type":"LineString","coordinates":[[5.972598,49.48519],[5.9733,49.48541],[5.972916,49.48592]]},"properties":{"way_id":"325924362","highway":"service","edgeid":211,"vertex1":201,"vertex2":202}},{"type":"Feature","geometry":{"type":"LineString","coordinates":[[5.972598,49.48519],[5.972262,49.48564]]},"properties":{"way_id":"325924371","highway":"service","edgeid":218,"vertex1":201,"vertex2":210}},{"type":"Feature","geometry":{"type":"LineString","coordinates":[[5.972916,49.48592],[5.97284,49.4859]]},"properties":{"way_id":"325924375","highway":"service","edgeid":225,"vertex1":202,"vertex2":208}},{"type":"Feature","geometry":{"type":"LineString","coordinates":[[5.973432,49.48607],[5.973627,49.48613],[5.973743,49.48598]]},"properties":{"way_id":"325924364","highway":"service","edgeid":212,"vertex1":203,"vertex2":204}},{"type":"Feature","geometry":{"type":"LineString","coordinates":[[5.973432,49.48607],[5.973337,49.48604]]},"properties":{"way_id":"325924375","highway":"service","edgeid":223,"vertex1":203,"vertex2":205}},{"type":"Feature","geometry":{"type":"LineString","coordinates":[[5.973337,49.48604],[5.973963,49.4852],[5.973732,49.48513]]},"properties":{"way_id":"325924367","highway":"service","edgeid":214,"vertex1":205,"vertex2":206}},{"type":"Feature","geometry":{"type":"LineString","coordinates":[[5.973337,49.48604],[5.972916,49.48592]]},"properties":{"way_id":"325924375","highway":"service","edgeid":224,"vertex1":205,"vertex2":202}},{"type":"Feature","geometry":{"type":"LineString","coordinates":[[5.973322,49.48624],[5.972755,49.48607],[5.97284,49.4859]]},"properties":{"way_id":"325924369","highway":"service","edgeid":215,"vertex1":207,"vertex2":208}},{"type":"Feature","geometry":{"type":"LineString","coordinates":[[5.973322,49.48624],[5.973432,49.48607]]},"properties":{"way_id":"325924375","highway":"service","edgeid":222,"vertex1":207,"vertex2":203}},{"type":"Feature","geometry":{"type":"LineString","coordinates":[[5.97284,49.4859],[5.972581,49.48578],[5.972262,49.48564]]},"properties":{"way_id":"325924375","highway":"service","edgeid":226,"vertex1":208,"vertex2":210}},{"type":"Feature","geometry":{"type":"LineString","coordinates":[[5.971565,49.48443],[5.97218,49.48463]]},"properties":{"way_id":"325924371","highway":"service","edgeid":216,"vertex1":209,"vertex2":197}},{"type":"Feature","geometry":{"type":"LineString","coordinates":[[5.972262,49.48564],[5.971591,49.48541]]},"properties":{"way_id":"325924373","highway":"service","edgeid":219,"vertex1":210,"vertex2":196}},{"type":"Feature","geometry":{"type":"LineString","coordinates":[[5.9729,49.48374],[5.973047,49.48351]]},"properties":{"way_id":"328457982","highway":"track","edgeid":230,"vertex1":211,"vertex2":212}},{"type":"Feature","geometry":{"type":"LineString","coordinates":[[5.973047,49.48351],[5.973104,49.48335],[5.973145,49.48325],[5.973213,49.48318],[5.973315,49.48314],[5.973398,49.48313],[5.973493,49.4831],[5.973529,49.48309]]},"properties":{"way_id":"328457982","highway":"track","edgeid":231,"vertex1":212,"vertex2":169}},{"type":"Feature","geometry":{"type":"LineString","coordinates":[[5.973047,49.48351],[5.973223,49.48357],[5.97338,49.48365],[5.973473,49.48371],[5.973663,49.48381],[5.97389,49.48393],[5.974034,49.484],[5.974135,49.48409],[5.974208,49.48418],[5.974236,49.4842],[5.974263,49.48422],[5.974345,49.48425],[5.974491,49.48426]]},"properties":{"way_id":"328457983","highway":"track","edgeid":232,"vertex1":212,"vertex2":213}},{"type":"Feature","geometry":{"type":"LineString","coordinates":[[5.974491,49.48426],[5.974588,49.48416]]},"properties":{"way_id":"362363793","highway":"track","edgeid":245,"vertex1":213,"vertex2":225}},{"type":"Feature","geometry":{"type":"LineString","coordinates":[[5.975008,49.4912],[5.975093,49.49112],[5.975249,49.491],[5.975385,49.49091]]},"properties":{"way_id":"343333900","oneway":"yes","highway":"service","edgeid":236,"vertex1":215,"vertex2":121}},{"type":"Feature","geometry":{"type":"LineString","coordinates":[[5.975008,49.4912],[5.974854,49.49137],[5.97432,49.49199],[5.974041,49.49231],[5.97399,49.49237]]},"properties":{"way_id":"363829478","oneway":"yes","highway":"service","edgeid":297,"vertex1":215,"vertex2":260}},{"type":"Feature","geometry":{"type":"LineString","coordinates":[[5.954712,49.49498],[5.954772,49.49512]]},"properties":{"way_id":"360815367","highway":"service","edgeid":239,"vertex1":217,"vertex2":218}},{"type":"Feature","geometry":{"type":"LineString","coordinates":[[5.954712,49.49498],[5.954566,49.49502]]},"properties":{"name":"Rue de Belval","way_id":"362761969","maxspeed":"50","highway":"secondary","edgeid":267,"vertex1":217,"vertex2":81}},{"type":"Feature","geometry":{"type":"LineString","coordinates":[[5.938954,49.49517],[5.938357,49.49502]]},"properties":{"way_id":"361371978","highway":"track","edgeid":240,"vertex1":219,"vertex2":220}},{"type":"Feature","geometry":{"type":"LineString","coordinates":[[5.938357,49.49502],[5.937681,49.49489],[5.937113,49.49476]]},"properties":{"way_id":"362814193","highway":"track","edgeid":281,"vertex1":220,"vertex2":251}},{"type":"Feature","geometry":{"type":"LineString","coordinates":[[5.939342,49.49526],[5.938954,49.49517]]},"properties":{"way_id":"361371979","highway":"track","edgeid":241,"vertex1":221,"vertex2":219}},{"type":"Feature","geometry":{"type":"LineString","coordinates":[[5.940205,49.49641],[5.940228,49.49635]]},"properties":{"way_id":"362814194","highway":"track","edgeid":282,"vertex1":222,"vertex2":253}},{"type":"Feature","geometry":{"type":"LineString","coordinates":[[5.959589,49.4865],[5.959379,49.48743],[5.959187,49.488],[5.958989,49.48835],[5.958458,49.48902],[5.958013,49.48941],[5.957445,49.48978],[5.954159,49.49143],[5.952326,49.49231],[5.950799,49.49294],[5.950099,49.49317],[5.948871,49.49354],[5.946676,49.49417],[5.945721,49.49452],[5.94533,49.4947],[5.944758,49.49503],[5.944211,49.49541]]},"properties":{"name":"Liaison Micheville","way_id":"361567664","oneway":"yes","highway":"trunk","edgeid":243,"vertex1":223,"vertex2":224}},{"type":"Feature","geometry":{"type":"LineString","coordinates":[[5.944211,49.49541],[5.944175,49.49543],[5.944001,49.49559]]},"properties":{"name":"Liaison Micheville","way_id":"468023925","oneway":"yes","highway":"trunk","edgeid":375,"vertex1":224,"vertex2":178}},{"type":"Feature","geometry":{"type":"LineString","coordinates":[[5.974588,49.48416],[5.974896,49.48396],[5.97526,49.48381]]},"properties":{"way_id":"362737898","highway":"track","edgeid":258,"vertex1":225,"vertex2":168}},{"type":"Feature","geometry":{"type":"LineString","coordinates":[[5.972505,49.4865],[5.97123,49.48632]]},"properties":{"name":"Rue Barbourg","way_id":"362363794","highway":"residential","edgeid":246,"vertex1":226,"vertex2":26}},{"type":"Feature","geometry":{"type":"LineString","coordinates":[[5.974689,49.48698],[5.974507,49.48692]]},"properties":{"name":"Rue Barbourg","way_id":"362363798","highway":"residential","edgeid":248,"vertex1":227,"vertex2":186}},{"type":"Feature","geometry":{"type":"LineString","coordinates":[[5.973744,49.48671],[5.973132,49.48659]]},"properties":{"name":"Rue Barbourg","way_id":"362363799","highway":"residential","edgeid":250,"vertex1":228,"vertex2":198}},{"type":"Feature","geometry":{"type":"LineString","coordinates":[[5.976027,49.48756],[5.975052,49.48711],[5.974689,49.48698]]},"properties":{"name":"Rue Barbourg","way_id":"362363816","highway":"residential","edgeid":254,"vertex1":229,"vertex2":227}},{"type":"Feature","geometry":{"type":"LineString","coordinates":[[5.974922,49.48589],[5.974894,49.48581],[5.974847,49.48576],[5.974651,49.48568],[5.974502,49.48563],[5.974422,49.48563],[5.974374,49.48565],[5.974269,49.48577],[5.974214,49.48579],[5.974134,49.48576]]},"properties":{"way_id":"362363822","highway":"service","edgeid":256,"vertex1":230,"vertex2":231}},{"type":"Feature","geometry":{"type":"LineString","coordinates":[[5.962837,49.48571],[5.962862,49.48592],[5.962966,49.48616],[5.962966,49.48644],[5.963012,49.48675],[5.963327,49.4871],[5.963841,49.48736],[5.964264,49.48755],[5.964763,49.48764],[5.965189,49.4877],[5.9656,49.4878],[5.966084,49.48788]]},"properties":{"way_id":"362761868","highway":"track","edgeid":259,"vertex1":232,"vertex2":233}},{"type":"Feature","geometry":{"type":"LineString","coordinates":[[5.966084,49.48788],[5.966281,49.48789],[5.9666,49.48795],[5.966726,49.48802],[5.967115,49.48828],[5.967472,49.48858],[5.96756,49.48878]]},"properties":{"way_id":"362761868","highway":"track","edgeid":260,"vertex1":233,"vertex2":234}},{"type":"Feature","geometry":{"type":"LineString","coordinates":[[5.966084,49.48788],[5.966316,49.488],[5.966819,49.48829],[5.967137,49.48863],[5.967177,49.48874],[5.967124,49.48884],[5.967082,49.48892]]},"properties":{"way_id":"363442933","highway":"track","edgeid":287,"vertex1":233,"vertex2":257}},{"type":"Feature","geometry":{"type":"LineString","coordinates":[[5.96756,49.48878],[5.967494,49.4889],[5.967387,49.48896],[5.967285,49.48898],[5.967159,49.48895],[5.967082,49.48892]]},"properties":{"way_id":"363442939","highway":"track","edgeid":288,"vertex1":234,"vertex2":257}},{"type":"Feature","geometry":{"type":"LineString","coordinates":[[5.96756,49.48878],[5.967607,49.48889]]},"properties":{"way_id":"363442940","highway":"track","edgeid":289,"vertex1":234,"vertex2":258}},{"type":"Feature","geometry":{"type":"LineString","coordinates":[[5.966661,49.49398],[5.966419,49.494],[5.965827,49.49409]]},"properties":{"way_id":"362761954","highway":"service","edgeid":261,"vertex1":235,"vertex2":236}},{"type":"Feature","geometry":{"type":"LineString","coordinates":[[5.965827,49.49409],[5.965236,49.49419],[5.9652,49.49422],[5.965188,49.49426],[5.965094,49.4943],[5.96431,49.49437]]},"properties":{"way_id":"362761954","highway":"service","edgeid":262,"vertex1":236,"vertex2":237}},{"type":"Feature","geometry":{"type":"LineString","coordinates":[[5.96431,49.49437],[5.964102,49.49437],[5.963882,49.49431],[5.963793,49.49426],[5.963696,49.49414],[5.963663,49.494],[5.963663,49.49389]]},"properties":{"way_id":"362778102","highway":"service","edgeid":277,"vertex1":237,"vertex2":249}},{"type":"Feature","geometry":{"type":"LineString","coordinates":[[5.967013,49.49413],[5.967274,49.49419],[5.967503,49.49419]]},"properties":{"way_id":"362778103","highway":"track","edgeid":278,"vertex1":238,"vertex2":250}},{"type":"Feature","geometry":{"type":"LineString","coordinates":[[5.967013,49.49413],[5.966903,49.49403],[5.966661,49.49398]]},"properties":{"way_id":"363443836","highway":"service","edgeid":292,"vertex1":238,"vertex2":235}},{"type":"Feature","geometry":{"type":"LineString","coordinates":[[5.950858,49.49653],[5.949842,49.49688]]},"properties":{"name":"Rue de Belval","way_id":"362761962","maxspeed":"50","highway":"secondary","edgeid":264,"vertex1":239,"vertex2":5959}},{"type":"Feature","geometry":{"type":"LineString","coordinates":[[5.954332,49.49511],[5.954171,49.49516],[5.952837,49.49578],[5.952538,49.49592]]},"properties":{"name":"Rue de Belval","way_id":"362761968","maxspeed":"50","highway":"secondary","edgeid":265,"vertex1":240,"vertex2":241}},{"type":"Feature","geometry":{"type":"LineString","coordinates":[[5.952538,49.49592],[5.952495,49.49594]]},"properties":{"name":"Rue de Belval","way_id":"362761983","maxspeed":"50","highway":"secondary","edgeid":272,"vertex1":241,"vertex2":244}},{"type":"Feature","geometry":{"type":"LineString","coordinates":[[5.952538,49.49592],[5.952495,49.49594]]},"properties":{"way_id":"460847995","highway":"service","edgeid":365,"vertex1":241,"vertex2":244}},{"type":"Feature","geometry":{"type":"LineString","coordinates":[[5.960176,49.49481],[5.959578,49.49476]]},"properties":{"name":"Rue de Belval","way_id":"362761971","maxspeed":"50","highway":"secondary","edgeid":269,"vertex1":242,"vertex2":74}},{"type":"Feature","geometry":{"type":"LineString","coordinates":[[5.960797,49.4948],[5.960542,49.49482],[5.960176,49.49481]]},"properties":{"name":"Rue de Belval","way_id":"362761973","maxspeed":"50","highway":"secondary","edgeid":270,"vertex1":243,"vertex2":242}},{"type":"Feature","geometry":{"type":"LineString","coordinates":[[5.952495,49.49594],[5.952453,49.49596]]},"properties":{"name":"Rue de Belval","way_id":"362761983","maxspeed":"50","highway":"secondary","edgeid":273,"vertex1":244,"vertex2":245}},{"type":"Feature","geometry":{"type":"LineString","coordinates":[[5.952495,49.49594],[5.952646,49.49624],[5.952694,49.49623]]},"properties":{"way_id":"362773749","highway":"service","edgeid":275,"vertex1":244,"vertex2":247}},{"type":"Feature","geometry":{"type":"LineString","coordinates":[[5.952495,49.49594],[5.952453,49.49596]]},"properties":{"way_id":"460847995","highway":"service","edgeid":366,"vertex1":244,"vertex2":245}},{"type":"Feature","geometry":{"type":"LineString","coordinates":[[5.952453,49.49596],[5.952067,49.49611],[5.951458,49.49633]]},"properties":{"name":"Rue de Belval","way_id":"362778983","maxspeed":"50","highway":"secondary","edgeid":279,"vertex1":245,"vertex2":246}},{"type":"Feature","geometry":{"type":"LineString","coordinates":[[5.952453,49.49596],[5.952553,49.49616],[5.952127,49.49644],[5.952071,49.49646],[5.951784,49.49653],[5.951877,49.49672],[5.95259,49.49657],[5.952806,49.49652],[5.953046,49.49703]]},"properties":{"way_id":"460847995","highway":"service","edgeid":367,"vertex1":245,"vertex2":7601}},{"type":"Feature","geometry":{"type":"LineString","coordinates":[[5.951458,49.49633],[5.950858,49.49653]]},"properties":{"name":"Rue de Belval","way_id":"362773740","maxspeed":"50","highway":"secondary","edgeid":274,"vertex1":246,"vertex2":239}},{"type":"Feature","geometry":{"type":"LineString","coordinates":[[5.952694,49.49623],[5.952538,49.49592]]},"properties":{"way_id":"460847995","highway":"service","edgeid":364,"vertex1":247,"vertex2":241}},{"type":"Feature","geometry":{"type":"LineString","coordinates":[[5.966978,49.49369],[5.966416,49.49379],[5.965982,49.49397],[5.965827,49.49409]]},"properties":{"way_id":"362778100","highway":"track","edgeid":276,"vertex1":248,"vertex2":236}},{"type":"Feature","geometry":{"type":"LineString","coordinates":[[5.967503,49.49419],[5.967903,49.4942],[5.968594,49.49419]]},"properties":{"way_id":"363442968","highway":"track","edgeid":291,"vertex1":250,"vertex2":193}},{"type":"Feature","geometry":{"type":"LineString","coordinates":[[5.937113,49.49476],[5.936727,49.49456]]},"properties":{"way_id":"362814192","highway":"track","edgeid":280,"vertex1":251,"vertex2":252}},{"type":"Feature","geometry":{"type":"LineString","coordinates":[[5.940228,49.49635],[5.940295,49.49614]]},"properties":{"way_id":"363601954","highway":"track","edgeid":294,"vertex1":253,"vertex2":116}},{"type":"Feature","geometry":{"type":"LineString","coordinates":[[5.9403,49.49557],[5.940139,49.49548],[5.939888,49.4954],[5.939342,49.49526]]},"properties":{"way_id":"362814196","highway":"track","edgeid":283,"vertex1":254,"vertex2":221}},{"type":"Feature","geometry":{"type":"LineString","coordinates":[[5.888931,49.48682],[5.888915,49.48709],[5.888853,49.48727],[5.888638,49.48771],[5.888464,49.48794],[5.887753,49.48863],[5.887524,49.48886],[5.886846,49.48953],[5.886723,49.48971],[5.88656,49.49014],[5.886465,49.49056],[5.886464,49.49096],[5.887086,49.49252],[5.887183,49.49273],[5.887601,49.49327],[5.887691,49.4936],[5.887697,49.49399],[5.887629,49.49431],[5.887578,49.49453],[5.8875,49.49474],[5.887352,49.49504],[5.886982,49.49555],[5.886726,49.49589],[5.886255,49.49649],[5.885706,49.49696],[5.885331,49.49725],[5.884916,49.49751],[5.884474,49.49771],[5.884058,49.49786],[5.88362,49.49798],[5.883049,49.49807],[5.882452,49.49811],[5.881808,49.4981],[5.881135,49.49804],[5.8804,49.49792],[5.879649,49.49776],[5.878632,49.49745]]},"properties":{"way_id":"362926948","highway":"unclassified","edgeid":286,"vertex1":256,"vertex2":5972}},{"type":"Feature","geometry":{"type":"LineString","coordinates":[[5.967082,49.48892],[5.966966,49.48892],[5.966813,49.48895]]},"properties":{"way_id":"363442941","highway":"track","edgeid":290,"vertex1":257,"vertex2":259}},{"type":"Feature","geometry":{"type":"LineString","coordinates":[[5.97399,49.49237],[5.973743,49.49264],[5.973446,49.49292],[5.973311,49.49303],[5.973275,49.49306],[5.973268,49.49309],[5.973276,49.49311],[5.9733,49.49314],[5.973346,49.49315],[5.973394,49.49315],[5.973437,49.49313],[5.973568,49.49309]]},"properties":{"way_id":"363829476","oneway":"yes","highway":"service","edgeid":296,"vertex1":260,"vertex2":13}},{"type":"Feature","geometry":{"type":"LineString","coordinates":[[5.891378,49.49556],[5.89156,49.49567],[5.891603,49.49575],[5.891833,49.49599],[5.892052,49.49618],[5.892098,49.49626],[5.892092,49.49635],[5.892091,49.49637]]},"properties":{"way_id":"364356871","highway":"track","edgeid":300,"vertex1":261,"vertex2":262}},{"type":"Feature","geometry":{"type":"LineString","coordinates":[[5.891378,49.49556],[5.891186,49.49565],[5.890442,49.49596],[5.889976,49.49575],[5.889859,49.49565],[5.889799,49.49554],[5.889791,49.4953],[5.889901,49.49497],[5.889908,49.49488],[5.889902,49.49478],[5.889855,49.49468],[5.889753,49.49458],[5.889358,49.49436],[5.888814,49.49392]]},"properties":{"way_id":"364356873","highway":"track","edgeid":301,"vertex1":261,"vertex2":263}},{"type":"Feature","geometry":{"type":"LineString","coordinates":[[5.891378,49.49556],[5.891487,49.49546],[5.891575,49.49533],[5.89178,49.49506],[5.891912,49.49493],[5.892227,49.4947],[5.892377,49.49457],[5.892525,49.49436],[5.892618,49.49422],[5.89266,49.49413],[5.892743,49.49406],[5.892874,49.49399],[5.893063,49.49393],[5.893269,49.49387],[5.893414,49.49379],[5.893696,49.49355],[5.894238,49.49299],[5.89434,49.49282],[5.894298,49.49267],[5.8941,49.49259],[5.893859,49.49256],[5.89359,49.49258],[5.893218,49.49264],[5.892942,49.49268],[5.892103,49.49268],[5.891912,49.49265],[5.89176,49.49256],[5.891622,49.49249],[5.891438,49.49243],[5.891197,49.49243],[5.890953,49.49241],[5.890663,49.49234],[5.890426,49.49226],[5.889863,49.4921],[5.88936,49.49191],[5.889063,49.49177],[5.888893,49.49165],[5.888762,49.49154],[5.888602,49.49147],[5.888436,49.49145],[5.888284,49.49149],[5.888012,49.49159],[5.887748,49.49171],[5.887695,49.49176],[5.887625,49.49184],[5.887597,49.49197],[5.88761,49.49216],[5.887606,49.49236],[5.887574,49.49252],[5.887608,49.49265],[5.887713,49.49282],[5.887806,49.493],[5.887909,49.49311],[5.888109,49.49321],[5.888184,49.49329],[5.888195,49.49343],[5.888186,49.49352],[5.888088,49.49365]]},"properties":{"way_id":"364356877","highway":"track","edgeid":302,"vertex1":261,"vertex2":264}},{"type":"Feature","geometry":{"type":"LineString","coordinates":[[5.968324,49.4959],[5.968297,49.49586],[5.968294,49.49584]]},"properties":{"way_id":"382492783","highway":"primary","maxspeed":"50","junction":"roundabout","edgeid":331,"vertex1":266,"vertex2":100}},{"type":"Feature","geometry":{"type":"LineString","coordinates":[[5.974405,49.49598],[5.974318,49.49609]]},"properties":{"name":"Rue Jean Jaurès","way_id":"373627226","highway":"residential","edgeid":310,"vertex1":268,"vertex2":109}},{"type":"Feature","geometry":{"type":"LineString","coordinates":[[5.974405,49.49598],[5.974318,49.49609]]},"properties":{"name":"Place Victor Hugo","way_id":"460847742","highway":"service","edgeid":357,"vertex1":268,"vertex2":109}},{"type":"Feature","geometry":{"type":"LineString","coordinates":[[5.973226,49.49333],[5.973235,49.49337]]},"properties":{"name":"Rond-Point Um Däich","way_id":"377211622","highway":"primary","maxspeed":"50","junction":"roundabout","edgeid":314,"vertex1":269,"vertex2":107}},{"type":"Feature","geometry":{"type":"LineString","coordinates":[[5.970466,49.494],[5.969931,49.49408],[5.96986,49.49386],[5.970395,49.49379]]},"properties":{"way_id":"393878684","highway":"service","edgeid":334,"vertex1":270,"vertex2":271}},{"type":"Feature","geometry":{"type":"LineString","coordinates":[[5.970395,49.49379],[5.970447,49.49395]]},"properties":{"way_id":"393878684","highway":"service","edgeid":335,"vertex1":271,"vertex2":192}},{"type":"Feature","geometry":{"type":"LineString","coordinates":[[5.974889,49.49462],[5.975016,49.49465]]},"properties":{"way_id":"405994019","highway":"service","edgeid":337,"vertex1":272,"vertex2":273}},{"type":"Feature","geometry":{"type":"LineString","coordinates":[[5.974889,49.49462],[5.974953,49.49452]]},"properties":{"name":"Rue des Argentins","way_id":"405994024","highway":"residential","edgeid":341,"vertex1":272,"vertex2":275}},{"type":"Feature","geometry":{"type":"LineString","coordinates":[[5.975016,49.49465],[5.974864,49.49489],[5.974895,49.49493],[5.975019,49.49496]]},"properties":{"way_id":"405994020","highway":"service","edgeid":339,"vertex1":273,"vertex2":274}},{"type":"Feature","geometry":{"type":"LineString","coordinates":[[5.975019,49.49496],[5.975233,49.49463],[5.975063,49.49458],[5.975016,49.49465]]},"properties":{"way_id":"405994020","highway":"service","edgeid":338,"vertex1":274,"vertex2":273}},{"type":"Feature","geometry":{"type":"LineString","coordinates":[[5.974953,49.49452],[5.975287,49.49398]]},"properties":{"name":"Rue des Argentins","way_id":"405994030","highway":"residential","edgeid":347,"vertex1":275,"vertex2":48}},{"type":"Feature","geometry":{"type":"LineString","coordinates":[[5.951004,49.49311],[5.95115,49.49312],[5.951225,49.49312]]},"properties":{"way_id":"443582643","highway":"track","edgeid":353,"vertex1":277,"vertex2":278}},{"type":"Feature","geometry":{"type":"LineString","coordinates":[[5.944249,49.49559],[5.94458,49.49554]]},"properties":{"way_id":"443582644","highway":"track","edgeid":354,"vertex1":279,"vertex2":184}},{"type":"Feature","geometry":{"type":"LineString","coordinates":[[5.952287,49.49553],[5.952153,49.49542]]},"properties":{"way_id":"460959057","highway":"track","edgeid":368,"vertex1":280,"vertex2":281}},{"type":"Feature","geometry":{"type":"LineString","coordinates":[[5.952153,49.49542],[5.9527,49.49511],[5.952747,49.49508],[5.952841,49.49502],[5.952888,49.49506],[5.952762,49.49519],[5.952845,49.49524]]},"properties":{"way_id":"460959057","highway":"track","edgeid":369,"vertex1":281,"vertex2":282}},{"type":"Feature","geometry":{"type":"LineString","coordinates":[[5.952845,49.49524],[5.952287,49.49553]]},"properties":{"way_id":"460959057","highway":"track","edgeid":370,"vertex1":282,"vertex2":280}},{"type":"Feature","geometry":{"type":"LineString","coordinates":[[5.942102,49.48368],[5.942046,49.4836]]},"properties":{"way_id":"462430091","highway":"track","edgeid":371,"vertex1":283,"vertex2":284}},{"type":"Feature","geometry":{"type":"LineString","coordinates":[[5.942046,49.4836],[5.941809,49.48367],[5.941868,49.48375]]},"properties":{"way_id":"462430091","highway":"track","edgeid":372,"vertex1":284,"vertex2":285}},{"type":"Feature","geometry":{"type":"LineString","coordinates":[[5.941868,49.48375],[5.942102,49.48368]]},"properties":{"way_id":"462430091","highway":"track","edgeid":373,"vertex1":285,"vertex2":283}}]}